{"type":"FeatureCollection","features":[{"type":"Feature","properties":{"role":"county"},"geometry":{"type":"Polygon","coordinates":[[[-84.54278147984802,39.306286548096296],[-84.52354847388074,39.30326454839455],[-84.5046484684426,39.305964549767225],[-84.48515146229057,39.30155354981168],[-84.46545945651461,39.302929550967185],[-84.42836744511774,39.29866655183571],[-84.39112943391375,39.29759255331681],[-84.35321342218788,39.29229455402076],[-84.34646842578731,39.367137568596156],[-84.33672342957496,39.45600158594946],[-84.34021543067286,39.456703585924174],[-84.3316864351392,39.54922060388041],[-84.35386844141789,39.54446360196633],[-84.36047344322309,39.5422056012367],[-84.364309444494,39.54381760136741],[-84.36524644828532,39.5898626100521],[-84.46315047759519,39.58996360558977],[-84.47425048093119,39.5901626051186],[-84.47921748248362,39.591031605055285],[-84.4789314806961,39.56879760085974],[-84.57949551066758,39.56755559601092],[-84.72757955489585,39.567527589189226],[-84.75950256435306,39.566607587542485],[-84.77017856761839,39.567637587244135],[-84.81493858097924,39.56772158519201],[-84.81571657434692,39.47851456829783],[-84.81945456223605,39.30516053526119],[-84.64181850929751,39.30505154335408],[-84.63859350869086,39.30975354439574],[-84.63036850641244,39.31206254520986],[-84.61634350216715,39.31123454569126],[-84.59875049671815,39.30856354598401],[-84.5626184859037,39.308097547539276],[-84.54278147984802,39.306286548096296]]]}},{"type":"Feature","properties":{"role":"fade_ring","miles_from":0.0,"miles_to":2.0,"opacity":0.12},"geometry":{"type":"Polygon","coordinates":[[[-84.84787306438236,39.301036346949374],[-84.84348507351997,39.29271734331923],[-84.83976720004601,39.28923656445313],[-84.8326959202489,39.28526856367987],[-84.82151670888092,39.28284081116044],[-84.63966918685088,39.28273671176465],[-84.63116730275998,39.284248627577725],[-84.62151065698572,39.28912740384318],[-84.60214020828194,39.286342238567315],[-84.564153255501,39.2857163403433],[-84.54635951493651,39.284079744177326],[-84.52629237340916,39.28098823294499],[-84.5208009016603,39.28098850413387],[-84.5065175150774,39.2829843938515],[-84.486450509239,39.27919828114774],[-84.46613651354433,39.28041253404956],[-84.4299220058747,39.27632013383347],[-84.39415390137971,39.27521589422244],[-84.35595222442294,39.26998737857785],[-84.34692122290852,39.27045018823379],[-84.33657417103545,39.27399160472638],[-84.32877447324891,39.28033506538227],[-84.32533500785644,39.28635917479753],[-84.32437340943159,39.29069509042284],[-84.31750639670764,39.3667415597584],[-84.30790179182148,39.45421889498726],[-84.30853866703085,39.4610106813864],[-84.3104423863473,39.46536649893473],[-84.30278509668756,39.549879446129694],[-84.30348990941548,39.55415613272653],[-84.3065049853066,39.560176427744075],[-84.31373812007206,39.56669782797578],[-84.32363075043385,39.57062944479046],[-84.33573440503987,39.57126790238154],[-84.33653148370612,39.59247227125429],[-84.33867969054498,39.59865613490703],[-84.34134894790218,39.60240462728904],[-84.34919735889012,39.60839435410237],[-84.35669853356804,39.611145232976554],[-84.3621325843591,39.61201133338085],[-84.46300313823276,39.61224684975038],[-84.48147322555361,39.613241611184876],[-84.49256639815096,39.6107935280284],[-84.50153342261802,39.60519804490025],[-84.50694607641007,39.59734576200406],[-84.50812469311377,39.590503964067636],[-84.72196155563337,39.58985669743101],[-84.76082467211766,39.58896631792462],[-84.77017856935012,39.58992300506951],[-84.81624738465362,39.59001676584725],[-84.82395769143383,39.588895224035056],[-84.83155989383843,39.585957270702885],[-84.83936260185578,39.57965003134091],[-84.84191708942197,39.57573884227709],[-84.84377604234831,39.56934191440606],[-84.84787306438236,39.301036346949374]],[[-84.54240747973476,39.306264548109105],[-84.5626184859037,39.308097547539276],[-84.59875049671815,39.30856354598401],[-84.61634350216715,39.31123454569126],[-84.63036850641244,39.31206254520986],[-84.63859350869086,39.30975354439574],[-84.64181850929751,39.30505154335408],[-84.81945456223605,39.30516053526119],[-84.81571657434692,39.47851456829783],[-84.81493858097924,39.56772158519201],[-84.77017856761839,39.567637587244135],[-84.75950256435306,39.566607587542485],[-84.72757955489585,39.567527589189226],[-84.57949551066758,39.56755559601092],[-84.4789314806961,39.56879760085974],[-84.47921748248362,39.591031605055285],[-84.47425048093119,39.5901626051186],[-84.46315047759519,39.58996360558977],[-84.36524644828532,39.5898626100521],[-84.364309444494,39.54381760136741],[-84.36047344322309,39.5422056012367],[-84.35386844141789,39.54446360196633],[-84.3316864351392,39.54922060388041],[-84.34021543067286,39.456703585924174],[-84.33672342957496,39.45600158594946],[-84.34646842578731,39.367137568596156],[-84.35321342218788,39.29229455402076],[-84.39112943391375,39.29759255331681],[-84.42836744511774,39.29866655183571],[-84.46545945651461,39.302929550967185],[-84.48515146229057,39.30155354981168],[-84.5046484684426,39.305964549767225],[-84.52354847388074,39.30326454839455],[-84.54240747973476,39.306264548109105]]]}},{"type":"Feature","properties":{"role":"fade_ring","miles_from":2.0,"miles_to":4.0,"opacity":0.24},"geometry":{"type":"Polygon","coordinates":[[[-84.87706729409076,39.31752229564744],[-84.87629164229698,39.2969122282878],[-84.8729941795066,39.288248556813],[-84.86751627057265,39.28027273303686],[-84.86008100796417,39.273309866040236],[-84.85099119903222,39.267643864365354],[-84.8406170339246,39.263505818799764],[-84.8293810092794,39.26106453650723],[-84.81774072169253,39.26041962079432],[-84.79659320046198,39.26089813379704],[-84.74573413346431,39.26000589252628],[-84.65221771379163,39.26003319830285],[-84.63083338939515,39.26110617503591],[-84.61491116272055,39.265445253331],[-84.6005505228349,39.263826834240156],[-84.565822225813,39.263326523663004],[-84.52906660400721,39.258707076225704],[-84.51814433065785,39.25869870376389],[-84.50805758030612,39.25997904110823],[-84.4889050445729,39.25688508959972],[-84.46700679455655,39.25788029136825],[-84.43147656663167,39.25396658600153],[-84.39772679598224,39.252933266735305],[-84.35834302655424,39.247676101858474],[-84.34062902362919,39.24859901086048],[-84.32474466266797,39.253328282382306],[-84.31132581403708,39.26143250461559],[-84.30433552430995,39.26837353460031],[-84.29745659352498,39.280423292521235],[-84.29553339667531,39.2890955902902],[-84.2887819703606,39.36398672744097],[-84.27908015406801,39.452436158375356],[-84.2791218093738,39.45994805077836],[-84.28117302276398,39.468238405037496],[-84.27398309085665,39.54629513371502],[-84.27537795743508,39.5593742600691],[-84.28165070733448,39.57157155559255],[-84.2922579456105,39.5818311158356],[-84.30129695828685,39.58714655370418],[-84.3074041965935,39.58963697901686],[-84.30873147234871,39.5993041724073],[-84.31211293280464,39.60744854347518],[-84.31745144751903,39.61494437351667],[-84.32455038423706,39.62151582241549],[-84.33791220392675,39.629122484586],[-84.34815061885077,39.63242131534797],[-84.35901872043287,39.6341529728573],[-84.46285579887015,39.6345229237034],[-84.47792499612687,39.6355691038238],[-84.48948745986996,39.634872289365134],[-84.50063683206238,39.63241257261859],[-84.5109246490635,39.62828871098882],[-84.5199371017559,39.622666300531705],[-84.529797722582,39.61256497170763],[-84.72221440703628,39.612134145492995],[-84.75879210103132,39.61134909766027],[-84.77017857108186,39.61220125697371],[-84.81780118839782,39.61226280125184],[-84.83297680188846,39.610062394244174],[-84.84337176373954,39.60652797328951],[-84.85266902905181,39.60149553245075],[-84.86378662273232,39.59157642488855],[-84.86889559786468,39.583755172206615],[-84.87261350371736,39.57096220575416],[-84.87706729409076,39.31752229564744]],[[-84.848364464611,39.30553563086049],[-84.84377604234831,39.56934191440606],[-84.84191708942197,39.57573884227709],[-84.83936260185578,39.57965003134091],[-84.83155989383843,39.585957270702885],[-84.82395769143383,39.588895224035056],[-84.81624738465362,39.59001676584725],[-84.77017856935012,39.58992300506951],[-84.76082467211766,39.58896631792462],[-84.72196155563337,39.58985669743101],[-84.50812469311377,39.590503964067636],[-84.50694607641007,39.59734576200406],[-84.50153342261802,39.60519804490025],[-84.49256639815096,39.6107935280284],[-84.48147322555361,39.613241611184876],[-84.46300313823276,39.61224684975038],[-84.3621325843591,39.61201133338085],[-84.35157932610605,39.60949533010638],[-84.3430211178831,39.60411360353667],[-84.33867969054498,39.59865613490703],[-84.336988960317,39.59458355208664],[-84.33573440503987,39.57126790238154],[-84.32363075043385,39.57062944479046],[-84.31373812007206,39.56669782797578],[-84.3065049853066,39.560176427744075],[-84.30348990941548,39.55415613272653],[-84.30278509668756,39.549879446129694],[-84.3104423863473,39.46536649893473],[-84.30853866703085,39.4610106813864],[-84.30790179182148,39.45421889498726],[-84.31750639670764,39.3667415597584],[-84.32437340943159,39.29069509042284],[-84.32533500785644,39.28635917479753],[-84.32877447324891,39.28033506538227],[-84.33657417103545,39.27399160472638],[-84.34692122290852,39.27045018823379],[-84.35595222442294,39.26998737857785],[-84.39415390137971,39.27521589422244],[-84.4299220058747,39.27632013383347],[-84.46613651354433,39.28041253404956],[-84.486450509239,39.27919828114774],[-84.5065175150774,39.2829843938515],[-84.5208009016603,39.28098850413387],[-84.52629237340916,39.28098823294499],[-84.54635951493651,39.284079744177326],[-84.564153255501,39.2857163403433],[-84.60214020828194,39.286342238567315],[-84.62151065698572,39.28912740384318],[-84.63116730275998,39.284248627577725],[-84.63966918685088,39.28273671176465],[-84.82151670888092,39.28284081116044],[-84.8326959202489,39.28526856367987],[-84.83976720004601,39.28923656445313],[-84.84622421552905,39.29670476219193],[-84.848364464611,39.30553563086049]]]}},{"type":"Feature","properties":{"role":"fade_ring","miles_from":4.0,"miles_to":6.0,"opacity":0.36},"geometry":{"type":"Polygon","coordinates":[[[-84.9058883627647,39.299508239431624],[-84.90471018232743,39.29278771033299],[-84.8997639881419,39.27979103564485],[-84.89154712474094,39.26782551483411],[-84.88039423082824,39.257379099421996],[-84.8667595174303,39.24887799324148],[-84.85119826976887,39.242669171637985],[-84.83434423280107,39.23900612800217],[-84.81688380142076,39.238038447873215],[-84.6511508141811,39.23765731561434],[-84.62534082944396,39.23912315275049],[-84.6115315786916,39.24220635875426],[-84.56742803102688,39.24092691604772],[-84.53182566907046,39.23641771282294],[-84.52363434784898,39.2361111643795],[-84.50941415422426,39.237067296312546],[-84.4890426922912,39.23446613056925],[-84.46794127361638,39.23534416224933],[-84.43303112738862,39.23160590946858],[-84.40117856761063,39.230643452300434],[-84.36833134453205,39.22610889675601],[-84.35308039275915,39.225128651351554],[-84.33433682434985,39.226741022956],[-84.32610638574376,39.22849592094364],[-84.310510282908,39.23383702126047],[-84.29656451374473,39.24143763695751],[-84.28480803564268,39.25100335163874],[-84.27989657537097,39.25640996184755],[-84.27224459197616,39.26820895003865],[-84.26772178337205,39.28093677729049],[-84.26669338391903,39.28749605362326],[-84.25994674264378,39.362335748311175],[-84.25025851631457,39.4506533761143],[-84.25031349926593,39.46185520483674],[-84.25203158086663,39.470313311194936],[-84.24510021865056,39.5452150289959],[-84.24500833948592,39.5517854463446],[-84.24732698971879,39.56478701237203],[-84.24971514178443,39.5710927317098],[-84.2568340817757,39.583010590487184],[-84.26683565507538,39.59362564502132],[-84.28025491158138,39.603013583286376],[-84.28262882056339,39.61022638258683],[-84.28919912219777,39.62200938523811],[-84.29857045707864,39.63260679369959],[-84.30420235221293,39.63733700221015],[-84.31039765303602,39.64162890178935],[-84.32424508174746,39.64874407276619],[-84.33960270413348,39.65369085624348],[-84.35590485650665,39.656287527441535],[-84.46270845950795,39.65679182638992],[-84.47727875294848,39.65782710696642],[-84.4946224485631,39.65678221905488],[-84.51134650685175,39.65309378001309],[-84.5192642294856,39.65030045527762],[-84.53381276519569,39.64295574645278],[-84.54473755969086,39.63472802736228],[-84.72249883399044,39.634404174604164],[-84.75241523713453,39.63364550109866],[-84.7701785728136,39.63447234189384],[-84.81935499214204,39.634501690366726],[-84.83352348997339,39.63300522195999],[-84.84199591234307,39.63122309490745],[-84.8575883551197,39.625923016502924],[-84.86480251955683,39.622414247851054],[-84.87771842655599,39.613848249102354],[-84.88821064360887,39.6035007656715],[-84.89587410630742,39.59177057493092],[-84.9004129576401,39.579109955801016],[-84.90145096508643,39.5725824592359],[-84.9058883627647,39.299508239431624]],[[-84.87727436698592,39.3059107244495],[-84.87261350371736,39.57096220575416],[-84.87067818714475,39.57959215333676],[-84.86659097736771,39.58776284400264],[-84.86050966593783,39.59515905361618],[-84.84818120669765,39.604188158450235],[-84.83297680188846,39.610062394244174],[-84.81780118839782,39.61226280125184],[-84.77017857108186,39.61220125697371],[-84.75879210103132,39.61134909766027],[-84.72221440703628,39.612134145492995],[-84.529797722582,39.61256497170763],[-84.5199371017559,39.622666300531705],[-84.50591531381828,39.63054981168217],[-84.495142417292,39.633858247727794],[-84.47792499612687,39.6355691038238],[-84.46285579887015,39.6345229237034],[-84.36456431557288,39.634408887243666],[-84.35353060402592,39.63348840824633],[-84.34292841941051,39.63096152453976],[-84.33314826949496,39.626921139409994],[-84.32455038423706,39.62151582241549],[-84.31745144751903,39.61494437351667],[-84.31016802980403,39.60343912368725],[-84.3074041965935,39.58963697901686],[-84.29660753349661,39.584660509191494],[-84.28474313157307,39.57525482446965],[-84.27694532791025,39.563592655045156],[-84.27388962960728,39.550683412398556],[-84.28117302276398,39.468238405037496],[-84.2791218093738,39.45994805077836],[-84.27908015406801,39.452436158375356],[-84.2887819703606,39.36398672744097],[-84.29553339667531,39.2890955902902],[-84.29745659352498,39.280423292521235],[-84.30153460553264,39.27220879976638],[-84.31132581403708,39.26143250461559],[-84.31993491988302,39.255683873048746],[-84.33514206455848,39.24976858327846],[-84.34623786404937,39.24785275302263],[-84.35324073593665,39.24752343476809],[-84.36340803711859,39.24817672466542],[-84.39772679598224,39.252933266735305],[-84.43147656663167,39.25396658600153],[-84.46700679455655,39.25788029136825],[-84.4889050445729,39.25688508959972],[-84.50805758030612,39.25997904110823],[-84.51814433065785,39.25869870376389],[-84.52906660400721,39.258707076225704],[-84.565822225813,39.263326523663004],[-84.6005505228349,39.263826834240156],[-84.61491116272055,39.265445253331],[-84.63083338939515,39.26110617503591],[-84.65221771379163,39.26003319830285],[-84.82358193056167,39.26051414290918],[-84.8406170339246,39.263505818799764],[-84.85099119903222,39.267643864365354],[-84.86008100796417,39.273309866040236],[-84.86751627057265,39.28027273303686],[-84.8729941795066,39.288248556813],[-84.87629164229698,39.2969122282878],[-84.87727436698592,39.3059107244495]]]}},{"type":"Feature","properties":{"role":"fade_ring","miles_from":6.0,"miles_to":8.0,"opacity":0.48},"geometry":{"type":"Polygon","coordinates":[[[-84.93469962960756,39.297624039393355],[-84.93312872235789,39.288662949408845],[-84.92653379677715,39.27133249326193],[-84.91557797890925,39.25537608549699],[-84.90070745369229,39.241444712009574],[-84.88252783582837,39.230107099224156],[-84.86177950561311,39.22182633307533],[-84.83930745632276,39.21694078152617],[-84.81602688114897,39.215650132672735],[-84.65008391457056,39.215274294120015],[-84.63088315204912,39.215903075290996],[-84.60816672730469,39.21939708877117],[-84.56905664202746,39.21852159264122],[-84.53460337884046,39.214122651991644],[-84.51065438476272,39.21433482503091],[-84.4903397689581,39.21208938799555],[-84.4686881313903,39.2127913358203],[-84.4345856881456,39.209238105368044],[-84.40439664254828,39.208292118201435],[-84.37233123301205,39.203924576633405],[-84.35292004958166,39.2027267202541],[-84.3280446250705,39.2048762255798],[-84.30644683514764,39.21038176884677],[-84.2866564175782,39.21905406502622],[-84.27768154426369,39.22447713110429],[-84.26200624012762,39.23723421096652],[-84.25545762643202,39.24444434729713],[-84.2452549819056,39.26017857516691],[-84.23922457043346,39.27715044240737],[-84.2214133266457,39.44910133385672],[-84.22151018916293,39.46380630173971],[-84.22299629761923,39.471124884415545],[-84.21621668871073,39.54416313793737],[-84.21612961448574,39.55291044259151],[-84.21928102712481,39.570211477324264],[-84.22674797885318,39.586702619374776],[-84.23824379376597,39.60175152081916],[-84.2545980471237,39.61559837514672],[-84.26385001350194,39.632721660273084],[-84.27634512667642,39.6468489898235],[-84.2838543201888,39.653154563907705],[-84.30105009070459,39.66395983136058],[-84.32061039053568,39.67203603810694],[-84.33105478941621,39.674953854744125],[-84.35279099258042,39.67841499609819],[-84.46227974828469,39.679057174921375],[-84.47663250977008,39.68007794454301],[-84.49975743725628,39.67868520576096],[-84.51106735210038,39.67665839274821],[-84.53261314515292,39.67004545807862],[-84.54263181564336,39.66552576543341],[-84.55692766570952,39.65686102483859],[-84.7227832609446,39.6566670363699],[-84.75313539754539,39.65591017728831],[-84.77017857454535,39.65673625877168],[-84.82104312475538,39.65672780624342],[-84.84004512639791,39.65469682785223],[-84.86163588157622,39.64923917332916],[-84.88142383241606,39.6406355383244],[-84.89864504174827,39.629216978590584],[-84.9060807508964,39.62258565860876],[-84.91824337375617,39.60779830770985],[-84.92641779331029,39.59146068875327],[-84.92890441652706,39.582905663584505],[-84.93071544588007,39.56585857953136],[-84.93138185479218,39.48392525671668],[-84.93469962960756,39.297624039393355]],[[-84.90618426936085,39.306285816028215],[-84.90145096508643,39.5725824592359],[-84.9004129576401,39.579109955801016],[-84.89587410630742,39.59177057493092],[-84.88821064360887,39.6035007656715],[-84.87771842655599,39.613848249102354],[-84.86480251955683,39.622414247851054],[-84.8575883551197,39.625923016502924],[-84.84199591234307,39.63122309490745],[-84.83352348997339,39.63300522195999],[-84.81935499214204,39.634501690366726],[-84.7701785728136,39.63447234189384],[-84.75241523713453,39.63364550109866],[-84.72249883399044,39.634404174604164],[-84.54473755969086,39.63472802736228],[-84.53381276519569,39.64295574645278],[-84.5192642294856,39.65030045527762],[-84.51134650685175,39.65309378001309],[-84.4946224485631,39.65678221905488],[-84.47727875294848,39.65782710696642],[-84.46270845950795,39.65679182638992],[-84.35590485650665,39.656287527441535],[-84.33960270413348,39.65369085624348],[-84.32424508174746,39.64874407276619],[-84.31039765303602,39.64162890178935],[-84.30420235221293,39.63733700221015],[-84.29857045707864,39.63260679369959],[-84.28919912219777,39.62200938523811],[-84.28262882056339,39.61022638258683],[-84.28025491158138,39.603013583286376],[-84.26683565507538,39.59362564502132],[-84.2568340817757,39.583010590487184],[-84.24971514178443,39.5710927317098],[-84.24732698971879,39.56478701237203],[-84.24500833948592,39.5517854463446],[-84.24510021865056,39.5452150289959],[-84.25203158086663,39.470313311194936],[-84.25031349926593,39.46185520483674],[-84.25025851631457,39.4506533761143],[-84.25994674264378,39.362335748311175],[-84.26669338391903,39.28749605362326],[-84.26772178337205,39.28093677729049],[-84.27224459197616,39.26820895003865],[-84.27989657537097,39.25640996184755],[-84.28480803564268,39.25100335163874],[-84.29656451374473,39.24143763695751],[-84.310510282908,39.23383702126047],[-84.32610638574376,39.22849592094364],[-84.33433682434985,39.226741022956],[-84.35308039275915,39.225128651351554],[-84.36833134453205,39.22610889675601],[-84.40117856761063,39.230643452300434],[-84.43303112738862,39.23160590946858],[-84.46794127361638,39.23534416224933],[-84.4890426922912,39.23446613056925],[-84.50941415422426,39.237067296312546],[-84.52363434784898,39.2361111643795],[-84.53182566907046,39.23641771282294],[-84.56742803102688,39.24092691604772],[-84.6115315786916,39.24220635875426],[-84.62534082944396,39.23912315275049],[-84.6511508141811,39.23765731561434],[-84.81688380142076,39.238038447873215],[-84.83434423280107,39.23900612800217],[-84.85119826976887,39.242669171637985],[-84.8667595174303,39.24887799324148],[-84.88039423082824,39.257379099421996],[-84.88631190124656,39.26238411505328],[-84.89154712474094,39.26782551483411],[-84.8997639881419,39.27979103564485],[-84.90471018232743,39.29278771033299],[-84.90618426936085,39.306285816028215]]]}},{"type":"Feature","properties":{"role":"fade_ring","miles_from":8.0,"miles_to":10.0,"opacity":0.6},"geometry":{"type":"Polygon","coordinates":[[[-84.96380439061406,39.31822842688458],[-84.96351089645046,39.295739788642024],[-84.96154726238836,39.28453794552244],[-84.95813321573782,39.273544880197285],[-84.95330360541244,39.2628729297253],[-84.94710772970562,39.252631200035026],[-84.93960883307754,39.24292444522058],[-84.93088346058688,39.23385198964613],[-84.92102067655634,39.22550670421273],[-84.91012115544774,39.21797404763977],[-84.89829615422644,39.21133118298419],[-84.88566637670493,39.20564617886949],[-84.87236074145738,39.20097730403108],[-84.85851506588219,39.19737242281135],[-84.84427067984443,39.19486849817063],[-84.82977298305012,39.193491207628846],[-84.7448535314496,39.19280582452892],[-84.64901701496004,39.19288413495931],[-84.62930906623967,39.19351653075362],[-84.6054180776664,39.19679328247285],[-84.57063531326604,39.1961025362423],[-84.5373671050804,39.19181946998524],[-84.51219712516004,39.19171735140851],[-84.49163684562498,39.18970551256984],[-84.46963549773463,39.19023876351921],[-84.43614024890256,39.18686317483804],[-84.40728454040264,39.185881507282936],[-84.37718028835309,39.18182157410494],[-84.35275970640416,39.1803176426201],[-84.33577452684159,39.181137216571265],[-84.32175242579115,39.18300461979564],[-84.30803502811433,39.18593124722864],[-84.29475518838757,39.189888624021],[-84.2820415233881,39.19483825216457],[-84.27001716642576,39.2007319899279],[-84.25879857478263,39.207512525992506],[-84.24849440181089,39.21511394339377],[-84.23920444461255,39.2234623674623],[-84.23101867749305,39.23247669112253],[-84.22401638054974,39.24206937014533],[-84.21826537183502,39.252147280276816],[-84.21382135053067,39.26261262758483],[-84.21072735749485,39.273363902880185],[-84.19258580091339,39.447376163978795],[-84.19215546804249,39.45656928824491],[-84.19394404549,39.4718531093709],[-84.1873492521036,39.54289871385656],[-84.18724040932236,39.55383287160677],[-84.18852132501941,39.564720938683415],[-84.19117967512122,39.57545820302593],[-84.19518988284517,39.58594145105289],[-84.20051336478168,39.59606995715067],[-84.20709890211657,39.60574644753444],[-84.21488313342265,39.61487802940867],[-84.2295225009315,39.627863191243584],[-84.23850090480609,39.64343227676485],[-84.24575894636962,39.6525499842528],[-84.26350628816468,39.66896850713032],[-84.27383178953649,39.67611825256261],[-84.29691083738894,39.68797054734334],[-84.32250687469895,39.69621030993481],[-84.34967712865422,39.70053537779646],[-84.49049619783361,39.702010391124354],[-84.50489242594944,39.700581248483694],[-84.51902981950455,39.698048526300845],[-84.5327658564305,39.69443763780352],[-84.54596206082024,39.689784819351935],[-84.56756788882076,39.6790343564481],[-84.72306768789878,39.678922729736804],[-84.75392956055252,39.678167733886866],[-84.77017857627709,39.678993006553675],[-84.81371309280694,39.67911624296322],[-84.82999215637624,39.678494060184605],[-84.84607676268273,39.6764654971474],[-84.8600341332523,39.67352508396794],[-84.87331020672545,39.669603572202966],[-84.88602153788001,39.66469679776061],[-84.89804514527525,39.6588520292915],[-84.90926470116065,39.65212558465364],[-84.9195716569405,39.64458229492392],[-84.9288662933757,39.636294886698785],[-84.93705868536196,39.62734328829133],[-84.9440695719504,39.617813866157846],[-84.94983112319287,39.60779859856549],[-84.95428759639304,39.59739419413809],[-84.95739587541402,39.586701163482815],[-84.95962941213219,39.565858578205514],[-84.96028924660862,39.484992662559115],[-84.96380439061406,39.31822842688458]],[[-84.93509417173578,39.306660905596644],[-84.93138185479218,39.48392525671668],[-84.93071544588007,39.56585857953136],[-84.92890441652706,39.582905663584505],[-84.92285261475013,39.59978505040038],[-84.91263466448542,39.61542305352665],[-84.89864504174827,39.629216978590584],[-84.89039947712438,39.635253017025896],[-84.87180494649986,39.645312624892284],[-84.8510150227977,39.65237732511679],[-84.83980012632807,39.654738775139826],[-84.82104312475538,39.65672780624342],[-84.77017857454535,39.65673625877168],[-84.75313539754539,39.65591017728831],[-84.7227832609446,39.6566670363699],[-84.55692766570952,39.65686102483859],[-84.54263181564336,39.66552576543341],[-84.52205618164113,39.67376880202185],[-84.51106735210038,39.67665839274821],[-84.4882404547636,39.679828884913825],[-84.35279099258042,39.67841499609819],[-84.33105478941621,39.674953854744125],[-84.32061039053568,39.67203603810694],[-84.30105009070459,39.66395983136058],[-84.2838543201888,39.653154563907705],[-84.27634512667642,39.6468489898235],[-84.26385001350194,39.632721660273084],[-84.2545980471237,39.61559837514672],[-84.23824379376597,39.60175152081916],[-84.22674797885318,39.586702619374776],[-84.21928102712481,39.570211477324264],[-84.21612961448574,39.55291044259151],[-84.21621668871073,39.54416313793737],[-84.22299629761923,39.471124884415545],[-84.22151018916293,39.46380630173971],[-84.2214133266457,39.44910133385672],[-84.23922457043346,39.27715044240737],[-84.2452549819056,39.26017857516691],[-84.25545762643202,39.24444434729713],[-84.26943820588629,39.23055686158619],[-84.2866564175782,39.21905406502622],[-84.29627590314807,39.21434034427012],[-84.30644683514764,39.21038176884677],[-84.3280446250705,39.2048762255798],[-84.35292004958166,39.2027267202541],[-84.37233123301205,39.203924576633405],[-84.40439664254828,39.208292118201435],[-84.4345856881456,39.209238105368044],[-84.4686881313903,39.2127913358203],[-84.4903397689581,39.21208938799555],[-84.51065438476272,39.21433482503091],[-84.53460337884046,39.214122651991644],[-84.56905664202746,39.21852159264122],[-84.60816672730469,39.21939708877117],[-84.63088315204912,39.215903075290996],[-84.65008391457056,39.215274294120015],[-84.81602688114897,39.215650132672735],[-84.83930745632276,39.21694078152617],[-84.85070296515296,39.21894329896328],[-84.87242401381116,39.225560348944114],[-84.89198783680541,39.23542001993892],[-84.90859768091671,39.24811950334767],[-84.92157709621172,39.263140218036284],[-84.93039748503746,39.27986915306529],[-84.93312872235789,39.288662949408845],[-84.93509417173578,39.306660905596644]]]}},{"type":"Feature","properties":{"role":"fade_outer","opacity":0.6},"geometry":{"type":"Polygon","coordinates":[[[-180.0,-85.0511287798066],[180.0,-85.0511287798066],[180.0,85.0511287798066],[-180.0,85.0511287798066],[-180.0,-85.0511287798066]],[[-84.96400407411073,39.30703599315476],[-84.96377176297472,39.31775531140291],[-84.96380439061406,39.31822842688458],[-84.96377739976015,39.32021273196718],[-84.96377240876211,39.32058006525877],[-84.96372635286302,39.32246226622318],[-84.96371935287596,39.32266025760604],[-84.96369747986515,39.32322645303162],[-84.96363970177194,39.32460510931144],[-84.96365071150511,39.32636984346417],[-84.96364190958913,39.32825639033932],[-84.96362656479094,39.329241854301074],[-84.96361700086278,39.32986943671256],[-84.96357133767182,39.332289541900295],[-84.96355895119842,39.33312768110724],[-84.96355123244047,39.333572539662555],[-84.96352952295977,39.33466216746285],[-84.96351974095595,39.33531679940814],[-84.96351175921126,39.3357710840011],[-84.96347128773988,39.33777487303248],[-84.96343650929096,39.3395499379432],[-84.96343539597073,39.3400498320185],[-84.96343539597162,39.34006153532438],[-84.96342600725711,39.34133577378599],[-84.96341149537237,39.34232049894618],[-84.96340250007842,39.34429620802854],[-84.9633969172444,39.3449610130101],[-84.96337491737451,39.34675798613708],[-84.96335490357922,39.347839764864],[-84.96332833815912,39.34891268591195],[-84.96330841312512,39.350162576395356],[-84.96329586453558,39.35016245677488],[-84.96324605316873,39.35256426459105],[-84.96323084600195,39.3529307924497],[-84.96323858882991,39.354389415288175],[-84.96315558903795,39.357448313208195],[-84.9631361042449,39.35808098697278],[-84.96303474331168,39.3610222380512],[-84.96304682923231,39.36282594245393],[-84.96302982928968,39.36364592157964],[-84.96299409755602,39.364917711111545],[-84.96278247029379,39.370885354402496],[-84.96277203768481,39.371193549617864],[-84.96274245342171,39.372005176431834],[-84.96275161732518,39.372337776046756],[-84.96254797877629,39.38110584754325],[-84.96250397880847,39.381699793301586],[-84.9624812679615,39.38194103301609],[-84.96233118794426,39.38781182207623],[-84.96222280101769,39.389607010017976],[-84.96222208671725,39.39075049401207],[-84.96226337468676,39.39237078487461],[-84.96226139396148,39.396846648196615],[-84.96215739423145,39.40079052026955],[-84.96214381953799,39.401257375985836],[-84.96210204313937,39.402571778305074],[-84.96209926134946,39.4028050172821],[-84.9620867233521,39.40357113727685],[-84.9620717234027,39.4042921188525],[-84.96204833299363,39.405191192756874],[-84.9620056223777,39.40655887618038],[-84.96198648342902,39.407175982328646],[-84.9619812946704,39.4076121777216],[-84.96195847536727,39.40881991088205],[-84.96186147562447,39.412565791567275],[-84.9618584009354,39.41268152600512],[-84.96181000292147,39.4144583729768],[-84.9617707991548,39.41634620658744],[-84.96166941414317,39.42106020415059],[-84.96166495109384,39.42137905967196],[-84.96164820858017,39.42225639500183],[-84.96157754939064,39.42517972645581],[-84.96151314241234,39.42839905630327],[-84.96151200147975,39.42839904268434],[-84.96150620101812,39.42888874739925],[-84.96146792215983,39.430504431278855],[-84.96144672236512,39.43161612502299],[-84.96144509412613,39.43161610649904],[-84.96144609634943,39.43216003327586],[-84.9614251185675,39.43308228555451],[-84.96141447019666,39.43376554540344],[-84.96140939417042,39.434195553294515],[-84.96139682266295,39.43496766258551],[-84.96135180079082,39.43713631568603],[-84.96133735329187,39.43835597525525],[-84.96133243497766,39.43870986236056],[-84.96128351049533,39.44177708179467],[-84.96125158541895,39.44379232217254],[-84.96122045609667,39.44571560066188],[-84.9611827936613,39.44811604982039],[-84.9611736341049,39.448609715252495],[-84.96113564679648,39.45038326377108],[-84.96112617200792,39.45106882278417],[-84.96110808247317,39.45200765875776],[-84.96104750159843,39.454458670103605],[-84.96103408562139,39.45556608529875],[-84.96102645542504,39.456488489155575],[-84.96101852775206,39.4571447574482],[-84.96100152782897,39.45821473660606],[-84.96099647090853,39.45850272412982],[-84.960967620216,39.46000293536867],[-84.96096580392984,39.46026005185739],[-84.96093422945748,39.46249480066233],[-84.96093137780419,39.462910571847154],[-84.96092817350157,39.463269039049784],[-84.96089617371462,39.46617299998241],[-84.96088815960154,39.466899274898886],[-84.96087552552896,39.46770377485073],[-84.96080152578537,39.4713356839288],[-84.96078584451051,39.471985105538806],[-84.96076440530805,39.47275303404888],[-84.96076440530857,39.47275956057593],[-84.96076334053339,39.47368025814202],[-84.96075469929752,39.47479925608137],[-84.96075169931285,39.47501025240702],[-84.96074374512095,39.47547969750485],[-84.96069383048066,39.47801730571957],[-84.96067391529554,39.47903495086925],[-84.96043624474426,39.48396326236301],[-84.96043524474496,39.48397626112945],[-84.96028924660862,39.484992662559115],[-84.96022940679447,39.49419840274579],[-84.96022940721394,39.499659565687516],[-84.9602233581754,39.50534784826459],[-84.96020899587256,39.50683053492046],[-84.96015379973916,39.50984628476025],[-84.96012005815889,39.51213505600083],[-84.96011578781228,39.512397553434184],[-84.96011078783239,39.51267854729547],[-84.96001696630415,39.51544672488999],[-84.96000374641832,39.51571110665313],[-84.95992453108308,39.52269901277822],[-84.9599189106695,39.52365127516525],[-84.95991860149336,39.523651274079484],[-84.95991767861472,39.52388293434487],[-84.95985881939932,39.53126978448473],[-84.95985934804337,39.53171170183107],[-84.95985577862446,39.532604831220816],[-84.95983437980996,39.53493340515745],[-84.95982495894977,39.536161885369104],[-84.95973119183296,39.54877458246268],[-84.95973240756355,39.54906340791328],[-84.95972941170005,39.55987049167204],[-84.95972941175312,39.56055857720131],[-84.95962941203197,39.564560003237155],[-84.95962941207817,39.565158578072065],[-84.95962941213219,39.565858578205514],[-84.95919974583843,39.57444404801486],[-84.95915413053174,39.5748990758047],[-84.95912588782454,39.57582285259866],[-84.95739587541402,39.586701163482815],[-84.95428759639304,39.59739419413809],[-84.94983112319287,39.60779859856549],[-84.9440695719504,39.617813866157846],[-84.93705868536196,39.62734328829133],[-84.9288662933757,39.636294886698785],[-84.9195716569405,39.64458229492392],[-84.90926470116065,39.65212558465364],[-84.89804514527525,39.6588520292915],[-84.88602153788001,39.66469679776061],[-84.87331020672545,39.669603572202966],[-84.8600341332523,39.67352508396794],[-84.84632176275257,39.67642356304746],[-84.84607676268273,39.6764654971474],[-84.82999215637624,39.678494060184605],[-84.81371309280694,39.67911624296322],[-84.81103900179521,39.679102284610366],[-84.80869391373913,39.67909491049099],[-84.8078951988335,39.679090700756625],[-84.8032230101721,39.67905614125173],[-84.79649968396585,39.67904877775919],[-84.79593909588286,39.6790515727248],[-84.79500258370233,39.679053907340986],[-84.79456758357252,39.67905390736108],[-84.79404845934468,39.67905319005334],[-84.78573945686385,39.67903022741277],[-84.78551711499233,39.67902948135976],[-84.78219523705438,39.67901636897101],[-84.78117736220528,39.679014725948996],[-84.77822543411534,39.679008980459955],[-84.77817957866378,39.67900898046207],[-84.77776689353607,39.6790085271507],[-84.77070223351062,39.67899300652953],[-84.77017857627709,39.678993006553675],[-84.76246732030769,39.67883461376717],[-84.76229732025644,39.67882762501265],[-84.75526510658831,39.67816863234187],[-84.75392956055252,39.678167733886866],[-84.74803514400092,39.6784254824709],[-84.74410227537535,39.678556141919515],[-84.73184727173876,39.678834694142125],[-84.72900168966669,39.678877801805086],[-84.72306768789878,39.678922729736804],[-84.71802877027228,39.67889328839705],[-84.71408846420329,39.67881739646456],[-84.7037720768208,39.67882954182717],[-84.70004644282561,39.678854134682545],[-84.69812211018663,39.6788569799359],[-84.69593010953152,39.678848992897926],[-84.69548857617147,39.678846865122715],[-84.68472844510569,39.67878236435612],[-84.66402933603493,39.67874619693562],[-84.6502340050695,39.67872841046419],[-84.64598110118214,39.67872743990849],[-84.64425782117274,39.67872743998768],[-84.64151210249615,39.67873215511843],[-84.6408781832177,39.67873217406357],[-84.63726418213768,39.67872618387553],[-84.63700654949953,39.67872558017177],[-84.63551502890687,39.678721062272146],[-84.63433452242866,39.678719453304815],[-84.633858535527,39.67871945332669],[-84.63354474998835,39.67871919125469],[-84.63178300176989,39.67871624836505],[-84.63015830419594,39.67871407503397],[-84.6018363355467,39.67885201013124],[-84.5930298519953,39.67889043983346],[-84.59162458011913,39.67890652340583],[-84.5904255797612,39.67891151542263],[-84.58650139695216,39.67892586891665],[-84.58427388143558,39.67892079483302],[-84.58202481997384,39.67890233561064],[-84.58078358171551,39.67890743893071],[-84.56756788882076,39.6790343564481],[-84.5584853989333,39.68413677180583],[-84.54596206082024,39.689784819351935],[-84.5327658564305,39.69443763780352],[-84.51902981950455,39.698048526300845],[-84.50489242594944,39.700581248483694],[-84.49049619783361,39.702010391124354],[-84.4759862665917,39.70232161550568],[-84.46150890992382,39.70151179920399],[-84.4602052700654,39.70133650387079],[-84.45810960901167,39.701363443311834],[-84.45786932220261,39.70136637846871],[-84.45752432209966,39.70137037205152],[-84.45263111097222,39.7013632941244],[-84.44709017518697,39.701283120135464],[-84.44008333837056,39.70128312045593],[-84.43999148478068,39.70128316431753],[-84.43414730607395,39.70137844776131],[-84.42047301951844,39.70128368153091],[-84.42034916597713,39.70128317150558],[-84.41969116577995,39.70128017636085],[-84.41825003826678,39.70126808936824],[-84.41286299345352,39.70120224412077],[-84.41160394518333,39.70118690795056],[-84.40856826868713,39.70118328273884],[-84.40572146898751,39.70118328286891],[-84.3999784672675,39.70118328313128],[-84.39806446669355,39.701183283218704],[-84.38833254516284,39.70118328366322],[-84.38368162518314,39.70118427797493],[-84.3754474599192,39.701184282643155],[-84.37470645969204,39.70118428267698],[-84.36917943444087,39.70118328453769],[-84.36535645689476,39.70118328471218],[-84.36365111653723,39.701175545981755],[-84.36354111650421,39.701174547595066],[-84.34967712865422,39.70053537779646],[-84.33595683763679,39.69887554974378],[-84.32250687469895,39.69621030993481],[-84.3094513760983,39.69256414247776],[-84.29691083738894,39.68797054734334],[-84.2850010013094,39.68247173679079],[-84.27383178953649,39.67611825256261],[-84.26350628816468,39.66896850713032],[-84.25411979627421,39.66108825294075],[-84.24575894636962,39.6525499842528],[-84.23850090480609,39.64343227676485],[-84.23241265958363,39.63381907080636],[-84.2295225009315,39.627863191243584],[-84.22379116427902,39.6233770767462],[-84.21488313342265,39.61487802940867],[-84.20709890211657,39.60574644753444],[-84.20051336478168,39.59606995715067],[-84.19518988284517,39.58594145105289],[-84.19117967512122,39.57545820302593],[-84.18852132501941,39.564720938683415],[-84.18724040932236,39.55383287160677],[-84.1873492521036,39.54289871385656],[-84.18796721221547,39.53841137401214],[-84.1879975469572,39.538065172825874],[-84.18801956024456,39.53781802303834],[-84.18816956016344,39.53616083735247],[-84.18834056690893,39.53429362296859],[-84.18834843859143,39.53418695658663],[-84.18845922768647,39.53293927849228],[-84.18853421613686,39.53207365522029],[-84.1887758874912,39.52929108828056],[-84.18894605232204,39.527341981753786],[-84.18909902226511,39.52558313038574],[-84.18913823800442,39.5251311201456],[-84.18915415048164,39.52494992303897],[-84.18915815047941,39.52490491808716],[-84.18920324158378,39.52441349578075],[-84.18927924154549,39.523610401736185],[-84.18932312975922,39.52315923587582],[-84.18947312969006,39.52165805033557],[-84.1895647145634,39.52078610930188],[-84.1895777145583,39.52066809323435],[-84.18962477820139,39.52025015936422],[-84.18969429708172,39.51964599650646],[-84.18978497883236,39.51870518088673],[-84.18989291557169,39.51754251367313],[-84.18994316321256,39.51700354905121],[-84.19002159234401,39.516202720249716],[-84.19027787251726,39.51370553798664],[-84.19035631254124,39.51277683262059],[-84.19060994281196,39.51012749529527],[-84.19072043981278,39.50889321370666],[-84.19081084498423,39.507859898598596],[-84.19107685597977,39.50482861981263],[-84.19107917746334,39.50482874109192],[-84.1912835812391,39.50274151675929],[-84.19131626680334,39.502448068134726],[-84.1913354710088,39.502237250806886],[-84.19143289054348,39.50107280624344],[-84.19148412532448,39.50046799021527],[-84.19177973095316,39.497564416685805],[-84.19182573093757,39.49717735987954],[-84.19184806292452,39.49699116745513],[-84.19190527684093,39.4965184628736],[-84.1919118789613,39.496408630249476],[-84.19192144709154,39.49625183809246],[-84.19203244698883,39.49445970044006],[-84.19206428056401,39.49396843895175],[-84.19208228054923,39.49370241663949],[-84.19211604374169,39.49322322128067],[-84.19213604372698,39.49295019649944],[-84.19214772897628,39.49279265503559],[-84.19216672896273,39.49253963149658],[-84.19223236988508,39.491717980183765],[-84.19238315344245,39.48993750917925],[-84.19250903121106,39.48815345502468],[-84.19253860954711,39.48773340565262],[-84.19255002622978,39.487573394647846],[-84.19255602622528,39.48749038721324],[-84.19267110984963,39.486062833513415],[-84.19276747588833,39.48497952298017],[-84.19282001340734,39.484375275762645],[-84.19285007046155,39.48403726240391],[-84.19288707044176,39.48363021661917],[-84.19290379963344,39.48344830351538],[-84.19304108979854,39.48197247253369],[-84.1932173721256,39.47991194943779],[-84.19325405008523,39.47947713560191],[-84.19329233426868,39.479036715021536],[-84.19346749739414,39.47707956891741],[-84.19359100181005,39.475654504834765],[-84.1936126977248,39.47540825153514],[-84.19376269764278,39.47373306591496],[-84.19376319569734,39.473733092487926],[-84.1938206093988,39.47309190390567],[-84.19382860939486,39.47300789401012],[-84.19386830663773,39.47260118867265],[-84.19387630663404,39.47252117878058],[-84.19388976320262,39.472387640692574],[-84.19394404549,39.4718531093709],[-84.19271187906479,39.465801337786424],[-84.19270687905994,39.465757343945086],[-84.19215546804249,39.45656928824491],[-84.19258580091339,39.447376163978795],[-84.19269380086433,39.44630003046315],[-84.19271009492587,39.44613890788518],[-84.19279576852801,39.445331900700005],[-84.19303717502392,39.44315488696148],[-84.19306753434724,39.4428597281845],[-84.19312013060774,39.442362454123646],[-84.19324866490284,39.441179779849215],[-84.19341428157269,39.439636065087925],[-84.19343678493337,39.439428657832885],[-84.193574052583,39.438177502764965],[-84.19363134720255,39.437651448255615],[-84.19366759690996,39.43732169463313],[-84.19372802991963,39.43678804932655],[-84.19384926160966,39.435746314104925],[-84.19402341783021,39.434114776923096],[-84.1940828599901,39.433573955100336],[-84.19423485993403,39.43222976739],[-84.1942414876734,39.432230214488],[-84.19440780683426,39.43065426889001],[-84.19441606946101,39.430588856410864],[-84.19444647088076,39.430289208225716],[-84.19452245365956,39.4295701204426],[-84.19469245359352,39.4280229104569],[-84.19473084640755,39.42767976462179],[-84.19492705968408,39.425957006491984],[-84.19502204839046,39.425090425488484],[-84.19515852550477,39.42384590529529],[-84.19537859764387,39.4220884903176],[-84.19538655247683,39.42200354517023],[-84.19543893206654,39.421462579128345],[-84.19547093205198,39.42114253957403],[-84.19550714453412,39.42078773215],[-84.19562168212497,39.41968785843967],[-84.19562395084132,39.419665168432424],[-84.19568395572222,39.41906504518079],[-84.1957039606194,39.418864971390455],[-84.19576987140499,39.41822941008586],[-84.1957958713945,39.41798737796671],[-84.19580858559898,39.41786977587391],[-84.19603862029517,39.41575546695699],[-84.19604269664764,39.41569648568063],[-84.19607069662914,39.41534045101861],[-84.1964445119416,39.41161673783645],[-84.19651037610045,39.411077692312915],[-84.19652642539977,39.41092698385773],[-84.1966566262644,39.409716724966444],[-84.19672631183052,39.40898493722911],[-84.19672724684996,39.408984990381605],[-84.19684468020526,39.407774796523505],[-84.19691668017566,39.40709670757633],[-84.19720034015491,39.40445388209488],[-84.19723347737548,39.40412298582221],[-84.19729328786445,39.40354522641145],[-84.19741608581346,39.402396506201676],[-84.1975803894222,39.40076882897098],[-84.19773311281295,39.39936936170505],[-84.19784611277412,39.3984062222373],[-84.1980755459537,39.396459672815396],[-84.19820203335786,39.39537910370526],[-84.19836219400784,39.39397861758527],[-84.1983865529285,39.39376341689026],[-84.19841869369291,39.393483520956075],[-84.1984836936703,39.39292544072898],[-84.19852552652031,39.39257253705182],[-84.19866389854683,39.39142524406484],[-84.19884504485412,39.38977822977466],[-84.1988577289728,39.38966360140965],[-84.19891172895242,39.38917853473408],[-84.19893491249096,39.38897251501213],[-84.19901491481131,39.388269114406675],[-84.1991945867946,39.38651825582189],[-84.19920201960207,39.38644557025869],[-84.19925493160626,39.38594260338506],[-84.19935897033164,39.38498053055668],[-84.19937890301891,39.384787465356986],[-84.19949990296952,39.38365131590412],[-84.19963654795255,39.3823690931924],[-84.1997610739161,39.381210371020295],[-84.19978814745836,39.380951055778],[-84.19984114743669,39.38045299031632],[-84.19985534010281,39.380320578213606],[-84.1999809213351,39.379157347589256],[-84.20012454148315,39.37781509721505],[-84.20031975280965,39.37600544231985],[-84.2003466198497,39.37575969287199],[-84.20051244759941,39.374262557838414],[-84.20063997162637,39.373067515710446],[-84.20075022560049,39.37208701160411],[-84.20085022556668,39.371240888213414],[-84.20087479972695,39.37103505978279],[-84.20118201702886,39.36848756053289],[-84.20126073414696,39.367781587952706],[-84.20132070722394,39.367258102807966],[-84.20135070721372,39.36700306579027],[-84.20141343531435,39.366483259302434],[-84.20156541157114,39.36525489269933],[-84.20162899696695,39.36472467980576],[-84.20165067322198,39.364544852048056],[-84.20169349435507,39.364195910741],[-84.20181510868512,39.36322114612929],[-84.20191762148029,39.36237210670748],[-84.20197361051247,39.36188506355655],[-84.20200447430119,39.36159353317053],[-84.20208344534238,39.36085474854666],[-84.20220436394546,39.35973675854386],[-84.20230451550731,39.35874677855541],[-84.20235165044504,39.358216189641276],[-84.202473650386,39.356946038863455],[-84.20248456814278,39.356833146137525],[-84.20260492968791,39.355596979571445],[-84.20265040077668,39.3550850804938],[-84.20272559341248,39.35428100120967],[-84.20273659340735,39.35416898761744],[-84.20282891765652,39.353236468495766],[-84.20287291644902,39.35274582588426],[-84.20289992582582,39.35245030984507],[-84.20296092579483,39.35179523444288],[-84.20315500995288,39.34973374341193],[-84.20322370925669,39.34899374774277],[-84.20332166551258,39.34794542334465],[-84.20338036416459,39.34731952941279],[-84.20340562844294,39.34705452639953],[-84.20345862841766,39.346507460906636],[-84.20359128962087,39.34515059952048],[-84.20365448537898,39.34450487160818],[-84.20370206256918,39.34393976961038],[-84.20375373801447,39.34335003362396],[-84.20380663409138,39.34276913064631],[-84.20382092548982,39.34259050202588],[-84.20382992548419,39.342479490892096],[-84.20388783957182,39.34179843259642],[-84.2040368394906,39.34012424837673],[-84.20420129834545,39.33827823216207],[-84.20422516454136,39.338005332188715],[-84.20425012709163,39.33772030403049],[-84.20426652078733,39.337535394653955],[-84.20440652071203,39.335975221575886],[-84.20440675594094,39.33597523420279],[-84.2044107333241,39.33592450061808],[-84.20451544597219,39.33476293416989],[-84.2045308253773,39.33458451373467],[-84.20459158383682,39.33391033508738],[-84.20461058382733,39.33370831160605],[-84.2046651449084,39.33314765311375],[-84.20475077795895,39.33229629833446],[-84.20484888860987,39.3312422281981],[-84.20485200528142,39.33120838616993],[-84.20497118009233,39.33000586013093],[-84.20501618007393,39.32958180456885],[-84.20503775322706,39.329380803050526],[-84.20504843799415,39.32925092856715],[-84.20508300977178,39.32883180809388],[-84.2051025077622,39.328599256622084],[-84.20517562641672,39.327741014997095],[-84.20521865310728,39.32707662485914],[-84.20551597066188,39.32358171689401],[-84.20568746916463,39.3219549371283],[-84.2057432737565,39.32130818954209],[-84.20580279654581,39.32051038435163],[-84.20583550261424,39.32008603041197],[-84.20589850257365,39.31929395247925],[-84.2059197776152,39.31902967537896],[-84.2059658067462,39.31848122415399],[-84.20610180666974,39.31692005601179],[-84.20611732440841,39.316742768187346],[-84.20612884485814,39.31661235834283],[-84.20613784485327,39.31651134721744],[-84.20628331302554,39.31489581088745],[-84.20641797785807,39.31352259934482],[-84.20649720537378,39.312775668238416],[-84.20652307822134,39.31249920411953],[-84.20653565545449,39.3123659153272],[-84.20663565540556,39.311314791770194],[-84.20668737784595,39.3107742443137],[-84.20678268746904,39.309789920415454],[-84.20682910351599,39.30925890689965],[-84.20684814670119,39.30904411643783],[-84.20694714664826,39.30794299407274],[-84.20697072650015,39.307685033104065],[-84.20701272647884,39.30723298120326],[-84.20712422538078,39.30604412359918],[-84.20721669703403,39.30503225936005],[-84.2072278620033,39.30491102261423],[-84.20736970971299,39.30338243961733],[-84.20751544388371,39.301730900346975],[-84.2075359188229,39.30150230875908],[-84.20766091875724,39.30012715427715],[-84.20766100890104,39.30012715918385],[-84.2076743678638,39.29997474238604],[-84.20802536768281,39.29615830864287],[-84.20806947461148,39.29569245275347],[-84.20814447457622,39.29492236011189],[-84.20814581579468,39.29490870595366],[-84.20822529268712,39.293272842569685],[-84.20824529267175,39.2929878178171],[-84.20846598777176,39.29044909497908],[-84.20852799464447,39.28960363756577],[-84.20866999456858,39.28802346207601],[-84.20868840598665,39.28782122435864],[-84.20884140590819,39.28616203530922],[-84.20886918368795,39.28586631630648],[-84.20896398165534,39.284875256334495],[-84.20900835840901,39.2843508768659],[-84.20901335840647,39.28429687068811],[-84.21072735749485,39.273363902880185],[-84.21382135053067,39.26261262758483],[-84.21826537183502,39.252147280276816],[-84.22401638054974,39.24206937014533],[-84.23101867749305,39.23247669112253],[-84.23920444461255,39.2234623674623],[-84.24849440181089,39.21511394339377],[-84.25879857478263,39.207512525992506],[-84.27001716642576,39.2007319899279],[-84.2820415233881,39.19483825216457],[-84.29475518838757,39.189888624021],[-84.30803502811433,39.18593124722864],[-84.32175242579115,39.18300461979564],[-84.33577452684159,39.181137216571265],[-84.349965525602,39.18034720843943],[-84.3500805256362,39.18034520524011],[-84.35252670633459,39.18031864422806],[-84.35275970640416,39.1803176426201],[-84.36501116697826,39.180667931646575],[-84.37718028835309,39.18182157410494],[-84.38027760081255,39.18221915242893],[-84.38111716594106,39.18232370077981],[-84.38382614545927,39.182646042458565],[-84.38382443197145,39.18265469466622],[-84.3853304494886,39.182828475390465],[-84.38882674030171,39.18327133240886],[-84.39065995181615,39.183493061645535],[-84.39121562808583,39.18355617343141],[-84.39199662832594,39.18364631560603],[-84.39857834790675,39.184526872099774],[-84.39918334809441,39.18461901628857],[-84.40162535866018,39.18500792387269],[-84.40187854500624,39.185050012190224],[-84.40347978919617,39.1852899685554],[-84.40529002551003,39.18557054776112],[-84.40685535452245,39.185821233157974],[-84.40726826113526,39.185878960112156],[-84.40728454040264,39.185881507282936],[-84.41140853380708,39.1859076166584],[-84.41297853427864,39.1859416708858],[-84.41297551299081,39.18602535358111],[-84.42364213304155,39.1864485531985],[-84.42415310277552,39.18650721449542],[-84.42437202717039,39.18650944677663],[-84.42637902777375,39.18656152971758],[-84.42725768105662,39.18658640481237],[-84.42914993059925,39.18664444169867],[-84.43175915967693,39.186718923776084],[-84.43175893310173,39.186723692238516],[-84.43488487519713,39.186811266258765],[-84.43580787547565,39.18684932684265],[-84.43614024890256,39.18686317483804],[-84.44747836206489,39.1876844660148],[-84.44775936215099,39.187713511928116],[-84.45099217910631,39.18807653191253],[-84.45399341623623,39.188440423015024],[-84.45466226282333,39.18852073952316],[-84.45489781112951,39.18854714484694],[-84.45672909302235,39.18875262824756],[-84.45688706424222,39.188770422868984],[-84.45719706433746,39.18880547818894],[-84.45811814654509,39.188911985004225],[-84.4608424174276,39.189233953174195],[-84.46128225745419,39.18928372277992],[-84.4614549947207,39.18930335123122],[-84.46361459019273,39.189549782021516],[-84.46784717064172,39.19002866238685],[-84.4689467248376,39.19015641581429],[-84.46919872491509,39.19018646317813],[-84.46963549773463,39.19023876351921],[-84.46971788179764,39.190232577752305],[-84.47151088232319,39.19010237086575],[-84.4715257310833,39.19022519944045],[-84.47579313903216,39.18982771618901],[-84.49163684562498,39.18970551256984],[-84.507402652319,39.19092784435325],[-84.51219712516004,39.19171735140851],[-84.52373842293488,39.1913065393552],[-84.5373671050804,39.19181946998524],[-84.5508726922544,39.19332591276172],[-84.55101369229806,39.19334694570525],[-84.55120182552878,39.193375109702764],[-84.55122182553497,39.193378114407764],[-84.55158480872443,39.19343302068075],[-84.55231480895067,39.1935441946803],[-84.55492718133546,39.19394296062939],[-84.55604166499057,39.19411280041732],[-84.55907027058713,39.19460047549198],[-84.55985527083143,39.19473368305538],[-84.56218130993904,39.19512840764865],[-84.56235800680516,39.19515834331007],[-84.56345914511184,39.19534554191327],[-84.56498984525061,39.1955836721853],[-84.56816222377687,39.19588125363979],[-84.56815922070643,39.19590048179532],[-84.5693373274012,39.19599061923731],[-84.56933755993674,39.19598902523238],[-84.56948267470014,39.19600173981267],[-84.57014025769173,39.19605205170752],[-84.57063531326604,39.1961025362423],[-84.5716693433528,39.196098172791984],[-84.57281069136098,39.19609706447869],[-84.57428701596132,39.19608686596579],[-84.57754115203406,39.19607733306392],[-84.57935748239339,39.196063028569135],[-84.57951048243905,39.19606302856216],[-84.58703296220574,39.1962767885953],[-84.60325056201,39.19666819742393],[-84.6054180776664,39.19679328247285],[-84.61580792699527,39.19492463737257],[-84.62930906623967,39.19351653075362],[-84.63851937211125,39.19323439482673],[-84.63851700043615,39.193184614804224],[-84.63911200061227,39.19316758763145],[-84.64901701496004,39.19288413495931],[-84.65869452310633,39.19285840115872],[-84.6602225472523,39.19289399329567],[-84.66246833976624,39.19288573353433],[-84.67718422039133,39.19280934240451],[-84.67815251158598,39.19280682917669],[-84.68195251271875,39.19280682900308],[-84.68745251435735,39.19280682875178],[-84.69955251796158,39.19280682819877],[-84.69955251796259,39.19281991233784],[-84.69974277866434,39.192813469435606],[-84.70685726483649,39.192708399678295],[-84.7279999871966,39.19279949980385],[-84.72974511822768,39.1928068268181],[-84.73047852716775,39.19280682678454],[-84.73558607493531,39.19280682655088],[-84.74036862259119,39.19280582879181],[-84.7448535314496,39.19280582452892],[-84.74668252916115,39.192814791525706],[-84.74811252958827,39.19282881382879],[-84.75397861084548,39.19299276896051],[-84.7544225822974,39.192994432749174],[-84.75461960556453,39.19299527515055],[-84.75503660568889,39.192997278327184],[-84.75624252897532,39.193006969843516],[-84.75794526870244,39.19302615918744],[-84.76058908058044,39.19302359872257],[-84.76171627885472,39.193018255200116],[-84.76171628376838,39.19301887779371],[-84.76295632496112,39.19295421542487],[-84.76429232777956,39.19297260403592],[-84.76685015058271,39.19298249893278],[-84.76684998758603,39.19300780739986],[-84.77523026615951,39.193123152560226],[-84.77901736321431,39.19330013677532],[-84.78285905984448,39.193381939404006],[-84.78844752756545,39.19350160895839],[-84.7900699881698,39.193537247840744],[-84.79202251517293,39.193579484185825],[-84.79655820537033,39.193677326419476],[-84.80299479090492,39.19353445205052],[-84.81516996087721,39.1932546763331],[-84.82977298305012,39.193491207628846],[-84.84427067984443,39.19486849817063],[-84.85851506588219,39.19737242281135],[-84.87236074145738,39.20097730403108],[-84.88566637670493,39.20564617886949],[-84.89829615422644,39.21133118298419],[-84.91012115544774,39.21797404763977],[-84.92102067655634,39.22550670421273],[-84.93088346058688,39.23385198964613],[-84.93960883307754,39.24292444522058],[-84.94710772970562,39.252631200035026],[-84.95330360541244,39.2628729297253],[-84.95813321573782,39.273544880197285],[-84.96154726238836,39.28453794552244],[-84.96351089645046,39.295739788642024],[-84.96400407411073,39.30703599315476]]]}}]}