{"type": "FeatureCollection", "features": [{"type": "Feature", "properties": {"name": "Crawford Woods", "operator": null, "ndvi_mean_inside": 0.743951728471103, "amenity_list": null, "amenity_count": null, "fee_status": null, "hours_status": null, "active_passive": null, "inclusiveness_score": null, "chen_quality_score": null, "park_name": "Crawford Woods"}, "geometry": {"type": "Point", "coordinates": [-84.53661946573973, 39.38527020813575]}}, {"type": "Feature", "properties": {"name": "Combs Park", "operator": null, "ndvi_mean_inside": 0.7591315253535665, "amenity_list": null, "amenity_count": null, "fee_status": null, "hours_status": null, "active_passive": null, "inclusiveness_score": null, "chen_quality_score": null, "park_name": "Combs Park"}, "geometry": {"type": "Point", "coordinates": [-84.55276843069352, 39.41767183172722]}}, {"type": "Feature", "properties": {"name": "Sutherland Park", "operator": null, "ndvi_mean_inside": 0.6266039751716894, "amenity_list": null, "amenity_count": null, "fee_status": null, "hours_status": null, "active_passive": null, "inclusiveness_score": null, "chen_quality_score": null, "park_name": "Sutherland Park"}, "geometry": {"type": "Point", "coordinates": [-84.56832587049331, 39.40550278577964]}}, {"type": "Feature", "properties": {"name": "Officer Bob Gentry Park", "operator": "Hamilton Parks Conservancy", "ndvi_mean_inside": 0.5264002234790383, "amenity_list": null, "amenity_count": null, "fee_status": null, "hours_status": null, "active_passive": null, "inclusiveness_score": null, "chen_quality_score": null, "park_name": "Officer Bob Gentry Park"}, "geometry": {"type": "Point", "coordinates": [-84.56279547032763, 39.37294989454254]}}, {"type": "Feature", "properties": {"name": null, "operator": null, "ndvi_mean_inside": 0.6043748071663996, "amenity_list": null, "amenity_count": null, "fee_status": null, "hours_status": null, "active_passive": null, "inclusiveness_score": null, "chen_quality_score": null, "park_name": null}, "geometry": {"type": "Point", "coordinates": [-84.56146346966908, 39.360472596562246]}}, {"type": "Feature", "properties": {"name": "Good Neighbors Park", "operator": null, "ndvi_mean_inside": 0.610524328150449, "amenity_list": null, "amenity_count": null, "fee_status": null, "hours_status": null, "active_passive": null, "inclusiveness_score": null, "chen_quality_score": null, "park_name": "Good Neighbors Park"}, "geometry": {"type": "Point", "coordinates": [-84.54770554691737, 39.347265733631964]}}, {"type": "Feature", "properties": {"name": "Water Works Park", "operator": null, "ndvi_mean_inside": 0.5001628420013069, "amenity_list": null, "amenity_count": null, "fee_status": null, "hours_status": null, "active_passive": null, "inclusiveness_score": null, "chen_quality_score": null, "park_name": "Water Works Park"}, "geometry": {"type": "Point", "coordinates": [-84.58615100284229, 39.339830980377535]}}, {"type": "Feature", "properties": {"name": "Veterans\u2019 Park", "operator": "City of Hamilton", "ndvi_mean_inside": 0.6992572253058893, "amenity_list": null, "amenity_count": null, "fee_status": null, "hours_status": null, "active_passive": null, "inclusiveness_score": null, "chen_quality_score": null, "park_name": "Veterans\u2019 Park"}, "geometry": {"type": "Point", "coordinates": [-84.57408168711608, 39.39644671364583]}}, {"type": "Feature", "properties": {"name": "Darrell O. Pace Park", "operator": null, "ndvi_mean_inside": 0.7868254758887738, "amenity_list": null, "amenity_count": null, "fee_status": null, "hours_status": null, "active_passive": null, "inclusiveness_score": null, "chen_quality_score": null, "park_name": "Darrell O. Pace Park"}, "geometry": {"type": "Point", "coordinates": [-84.59551468377053, 39.416044696515534]}}, {"type": "Feature", "properties": {"name": "Gilbert Park", "operator": null, "ndvi_mean_inside": 0.7544213031417788, "amenity_list": null, "amenity_count": null, "fee_status": null, "hours_status": null, "active_passive": null, "inclusiveness_score": null, "chen_quality_score": null, "park_name": "Gilbert Park"}, "geometry": {"type": "Point", "coordinates": [-84.50614104773918, 39.31056867137699]}}, {"type": "Feature", "properties": {"name": "Pisgah Youth Park", "operator": null, "ndvi_mean_inside": 0.5949525302621539, "amenity_list": null, "amenity_count": null, "fee_status": null, "hours_status": null, "active_passive": null, "inclusiveness_score": null, "chen_quality_score": null, "park_name": "Pisgah Youth Park"}, "geometry": {"type": "Point", "coordinates": [-84.36317292768352, 39.32023355721757]}}, {"type": "Feature", "properties": {"name": "Bruce Ferguson Park", "operator": "City of Forest Park", "ndvi_mean_inside": 0.7789766365604133, "amenity_list": null, "amenity_count": null, "fee_status": null, "hours_status": null, "active_passive": null, "inclusiveness_score": null, "chen_quality_score": null, "park_name": "Bruce Ferguson Park"}, "geometry": {"type": "Point", "coordinates": [-84.5157350552533, 39.29662180679244]}}, {"type": "Feature", "properties": {"name": "Point Pleasant Soccer Fields", "operator": null, "ndvi_mean_inside": 0.7479069013663158, "amenity_list": null, "amenity_count": null, "fee_status": null, "hours_status": null, "active_passive": null, "inclusiveness_score": null, "chen_quality_score": null, "park_name": "Point Pleasant Soccer Fields"}, "geometry": {"type": "Point", "coordinates": [-84.5520162646522, 39.320109114054866]}}, {"type": "Feature", "properties": {"name": null, "operator": null, "ndvi_mean_inside": 0.4799083113088392, "amenity_list": null, "amenity_count": null, "fee_status": null, "hours_status": null, "active_passive": null, "inclusiveness_score": null, "chen_quality_score": null, "park_name": null}, "geometry": {"type": "Point", "coordinates": [-84.5371196848157, 39.30847062385702]}}, {"type": "Feature", "properties": {"name": "Forest Lake Lane Fields", "operator": null, "ndvi_mean_inside": 0.5295554176091889, "amenity_list": null, "amenity_count": null, "fee_status": null, "hours_status": null, "active_passive": null, "inclusiveness_score": null, "chen_quality_score": null, "park_name": "Forest Lake Lane Fields"}, "geometry": {"type": "Point", "coordinates": [-84.57319136453128, 39.35422909303149]}}, {"type": "Feature", "properties": {"name": "Schuster Park", "operator": null, "ndvi_mean_inside": 0.6371226822427977, "amenity_list": null, "amenity_count": null, "fee_status": null, "hours_status": null, "active_passive": null, "inclusiveness_score": null, "chen_quality_score": null, "park_name": "Schuster Park"}, "geometry": {"type": "Point", "coordinates": [-84.55328189799502, 39.36637642263948]}}, {"type": "Feature", "properties": {"name": "Monroe Park", "operator": null, "ndvi_mean_inside": 0.6210299895127651, "amenity_list": null, "amenity_count": null, "fee_status": null, "hours_status": null, "active_passive": null, "inclusiveness_score": null, "chen_quality_score": null, "park_name": "Monroe Park"}, "geometry": {"type": "Point", "coordinates": [-84.36067570455205, 39.4374612984374]}}, {"type": "Feature", "properties": {"name": "Chestnut Fields", "operator": "Miami University", "ndvi_mean_inside": 0.5490165454530311, "amenity_list": null, "amenity_count": null, "fee_status": null, "hours_status": null, "active_passive": null, "inclusiveness_score": null, "chen_quality_score": null, "park_name": "Chestnut Fields"}, "geometry": {"type": "Point", "coordinates": [-84.74461621398252, 39.49866667724339]}}, {"type": "Feature", "properties": {"name": "Butler County Fairgrounds", "operator": null, "ndvi_mean_inside": 0.4279745624347466, "amenity_list": null, "amenity_count": null, "fee_status": null, "hours_status": null, "active_passive": null, "inclusiveness_score": null, "chen_quality_score": null, "park_name": "Butler County Fairgrounds"}, "geometry": {"type": "Point", "coordinates": [-84.53729533204272, 39.40028845121838]}}, {"type": "Feature", "properties": {"name": "Gilmore Ponds Preserve Metropark", "operator": "MetroParks of Butler County", "ndvi_mean_inside": 0.6059500835244581, "amenity_list": "Hiking Trails, Paved Trail (M2M), Observation Tower, Raised Decks, Bird Blind, Fishing", "amenity_count": 9.0, "fee_status": "Free", "hours_status": "Day Use", "active_passive": "Passive", "inclusiveness_score": 4.0, "chen_quality_score": 36.0, "park_name": "Gilmore Ponds Preserve Metropark"}, "geometry": {"type": "Point", "coordinates": [-84.51087022114295, 39.35244226360275]}}, {"type": "Feature", "properties": {"name": "Fairfield Township Community Park", "operator": null, "ndvi_mean_inside": 0.6630591942173726, "amenity_list": null, "amenity_count": null, "fee_status": null, "hours_status": null, "active_passive": null, "inclusiveness_score": null, "chen_quality_score": null, "park_name": "Fairfield Township Community Park"}, "geometry": {"type": "Point", "coordinates": [-84.49180581008915, 39.40441823266346]}}, {"type": "Feature", "properties": {"name": "Shaffer\u2019s Run Communtiy Park", "operator": null, "ndvi_mean_inside": 0.7097085264491089, "amenity_list": null, "amenity_count": null, "fee_status": null, "hours_status": null, "active_passive": null, "inclusiveness_score": null, "chen_quality_score": null, "park_name": "Shaffer\u2019s Run Communtiy Park"}, "geometry": {"type": "Point", "coordinates": [-84.51601406022887, 39.39432637845739]}}, {"type": "Feature", "properties": {"name": "Rentschler Forest MetroPark", "operator": "MetroParks of Butler County", "ndvi_mean_inside": 0.7917120793860849, "amenity_list": "River Access (Canoe/Kayak), Hiking Trails, Soccer Fields, Playgrounds, Shelters, Canal Remnants", "amenity_count": 12.0, "fee_status": "Free", "hours_status": "Day Use", "active_passive": "Mixed", "inclusiveness_score": 4.0, "chen_quality_score": 48.0, "park_name": "Rentschler Forest MetroPark"}, "geometry": {"type": "Point", "coordinates": [-84.49550257781756, 39.4192914599124]}}, {"type": "Feature", "properties": {"name": "Thomas O. Marsh Park", "operator": "Fairfield Parks and Recreation", "ndvi_mean_inside": 0.4668892943640135, "amenity_list": null, "amenity_count": null, "fee_status": null, "hours_status": null, "active_passive": null, "inclusiveness_score": null, "chen_quality_score": null, "park_name": "Thomas O. Marsh Park"}, "geometry": {"type": "Point", "coordinates": [-84.5900499820465, 39.33030592737495]}}, {"type": "Feature", "properties": {"name": "Dixie Heights Park", "operator": null, "ndvi_mean_inside": 0.7076742977248083, "amenity_list": null, "amenity_count": null, "fee_status": null, "hours_status": null, "active_passive": null, "inclusiveness_score": null, "chen_quality_score": null, "park_name": "Dixie Heights Park"}, "geometry": {"type": "Point", "coordinates": [-84.35565082202076, 39.540361148910456]}}, {"type": "Feature", "properties": {"name": "TRI Community Center Complex", "operator": "Oxford Parks and Recreation", "ndvi_mean_inside": 0.561237911175356, "amenity_list": null, "amenity_count": null, "fee_status": null, "hours_status": null, "active_passive": null, "inclusiveness_score": null, "chen_quality_score": null, "park_name": "TRI Community Center Complex"}, "geometry": {"type": "Point", "coordinates": [-84.75382203336605, 39.50709578349561]}}, {"type": "Feature", "properties": {"name": "Oxford Community Park", "operator": null, "ndvi_mean_inside": 0.7158935963046319, "amenity_list": null, "amenity_count": null, "fee_status": null, "hours_status": null, "active_passive": null, "inclusiveness_score": null, "chen_quality_score": null, "park_name": "Oxford Community Park"}, "geometry": {"type": "Point", "coordinates": [-84.77452061180539, 39.50443006178444]}}, {"type": "Feature", "properties": {"name": "Goldman Park", "operator": null, "ndvi_mean_inside": 0.518190656877716, "amenity_list": null, "amenity_count": null, "fee_status": null, "hours_status": null, "active_passive": null, "inclusiveness_score": null, "chen_quality_score": null, "park_name": "Goldman Park"}, "geometry": {"type": "Point", "coordinates": [-84.38239306989676, 39.50063481201298]}}, {"type": "Feature", "properties": {"name": "Wilson Park", "operator": null, "ndvi_mean_inside": 0.7756912024858535, "amenity_list": null, "amenity_count": null, "fee_status": null, "hours_status": null, "active_passive": null, "inclusiveness_score": null, "chen_quality_score": null, "park_name": "Wilson Park"}, "geometry": {"type": "Point", "coordinates": [-84.36718284013904, 39.509133096250196]}}, {"type": "Feature", "properties": {"name": "Gladell Park", "operator": null, "ndvi_mean_inside": 0.7394404479761599, "amenity_list": null, "amenity_count": null, "fee_status": null, "hours_status": null, "active_passive": null, "inclusiveness_score": null, "chen_quality_score": null, "park_name": "Gladell Park"}, "geometry": {"type": "Point", "coordinates": [-84.37584392616465, 39.505854456413694]}}, {"type": "Feature", "properties": {"name": "Jacot Park", "operator": null, "ndvi_mean_inside": 0.623033544271177, "amenity_list": null, "amenity_count": null, "fee_status": null, "hours_status": null, "active_passive": null, "inclusiveness_score": null, "chen_quality_score": null, "park_name": "Jacot Park"}, "geometry": {"type": "Point", "coordinates": [-84.35148474494015, 39.5048440407421]}}, {"type": "Feature", "properties": {"name": "University Park", "operator": null, "ndvi_mean_inside": 0.6836071829961232, "amenity_list": null, "amenity_count": null, "fee_status": null, "hours_status": null, "active_passive": null, "inclusiveness_score": null, "chen_quality_score": null, "park_name": "University Park"}, "geometry": {"type": "Point", "coordinates": [-84.37934095378655, 39.52023551897241]}}, {"type": "Feature", "properties": {"name": "Flemming Park", "operator": null, "ndvi_mean_inside": 0.6231759399300173, "amenity_list": null, "amenity_count": null, "fee_status": null, "hours_status": null, "active_passive": null, "inclusiveness_score": null, "chen_quality_score": null, "park_name": "Flemming Park"}, "geometry": {"type": "Point", "coordinates": [-84.3955281296978, 39.51807595402199]}}, {"type": "Feature", "properties": {"name": "Crawford Park", "operator": null, "ndvi_mean_inside": 0.639832350522516, "amenity_list": null, "amenity_count": null, "fee_status": null, "hours_status": null, "active_passive": null, "inclusiveness_score": null, "chen_quality_score": null, "park_name": "Crawford Park"}, "geometry": {"type": "Point", "coordinates": [-84.39138363068416, 39.51129628376547]}}, {"type": "Feature", "properties": {"name": "Sherman Park", "operator": null, "ndvi_mean_inside": 0.61772033158414, "amenity_list": null, "amenity_count": null, "fee_status": null, "hours_status": null, "active_passive": null, "inclusiveness_score": null, "chen_quality_score": null, "park_name": "Sherman Park"}, "geometry": {"type": "Point", "coordinates": [-84.388525494804, 39.50759631101601]}}, {"type": "Feature", "properties": {"name": "Lefferson Softball Complex", "operator": null, "ndvi_mean_inside": 0.6303979261157564, "amenity_list": null, "amenity_count": null, "fee_status": null, "hours_status": null, "active_passive": null, "inclusiveness_score": null, "chen_quality_score": null, "park_name": "Lefferson Softball Complex"}, "geometry": {"type": "Point", "coordinates": [-84.35185048721348, 39.49231559432992]}}, {"type": "Feature", "properties": {"name": "Damon Park", "operator": null, "ndvi_mean_inside": 0.6517164766929673, "amenity_list": null, "amenity_count": null, "fee_status": null, "hours_status": null, "active_passive": null, "inclusiveness_score": null, "chen_quality_score": null, "park_name": "Damon Park"}, "geometry": {"type": "Point", "coordinates": [-84.40255190149296, 39.48409807223709]}}, {"type": "Feature", "properties": {"name": "Oakland Park", "operator": null, "ndvi_mean_inside": 0.3943055350229533, "amenity_list": null, "amenity_count": null, "fee_status": null, "hours_status": null, "active_passive": null, "inclusiveness_score": null, "chen_quality_score": null, "park_name": "Oakland Park"}, "geometry": {"type": "Point", "coordinates": [-84.39872735926302, 39.50824222728884]}}, {"type": "Feature", "properties": {"name": "Forest Run Wildlife Preserve Metropark", "operator": "MetroParks of Butler County", "ndvi_mean_inside": 0.825707307120181, "amenity_list": "Hiking Trails, Playground, Picnic Area, Observation Platform, Creek Access, Water Fountain", "amenity_count": 8.0, "fee_status": "Free", "hours_status": "Day Use", "active_passive": "Mixed", "inclusiveness_score": 4.0, "chen_quality_score": 32.0, "park_name": "Forest Run Wildlife Preserve Metropark"}, "geometry": {"type": "Point", "coordinates": [-84.63016773341064, 39.376760298757134]}}, {"type": "Feature", "properties": {"name": "Shiloh Knothole Fields", "operator": null, "ndvi_mean_inside": 0.6833283970546424, "amenity_list": null, "amenity_count": null, "fee_status": null, "hours_status": null, "active_passive": null, "inclusiveness_score": null, "chen_quality_score": null, "park_name": "Shiloh Knothole Fields"}, "geometry": {"type": "Point", "coordinates": [-84.50418774144823, 39.4644734247481]}}, {"type": "Feature", "properties": {"name": "Wieche Field", "operator": null, "ndvi_mean_inside": 0.6563750323610451, "amenity_list": null, "amenity_count": null, "fee_status": null, "hours_status": null, "active_passive": null, "inclusiveness_score": null, "chen_quality_score": null, "park_name": "Wieche Field"}, "geometry": {"type": "Point", "coordinates": [-84.55885951005494, 39.4819657251456]}}, {"type": "Feature", "properties": {"name": "Sportsman Club Ball Field", "operator": null, "ndvi_mean_inside": 0.6108616485995808, "amenity_list": null, "amenity_count": null, "fee_status": null, "hours_status": null, "active_passive": null, "inclusiveness_score": null, "chen_quality_score": null, "park_name": "Sportsman Club Ball Field"}, "geometry": {"type": "Point", "coordinates": [-84.6303254765204, 39.402774126465516]}}, {"type": "Feature", "properties": {"name": "Veterans Park", "operator": null, "ndvi_mean_inside": 0.6820017006263899, "amenity_list": null, "amenity_count": null, "fee_status": null, "hours_status": null, "active_passive": null, "inclusiveness_score": null, "chen_quality_score": null, "park_name": "Veterans Park"}, "geometry": {"type": "Point", "coordinates": [-84.54141316305852, 39.42701063080521]}}, {"type": "Feature", "properties": {"name": "Old South Park", "operator": null, "ndvi_mean_inside": 0.5309162174745848, "amenity_list": null, "amenity_count": null, "fee_status": null, "hours_status": null, "active_passive": null, "inclusiveness_score": null, "chen_quality_score": null, "park_name": "Old South Park"}, "geometry": {"type": "Point", "coordinates": [-84.40858169212082, 39.51094324864704]}}, {"type": "Feature", "properties": {"name": "Middletown Sportsmen Club", "operator": null, "ndvi_mean_inside": 0.710355407398046, "amenity_list": null, "amenity_count": null, "fee_status": null, "hours_status": null, "active_passive": null, "inclusiveness_score": null, "chen_quality_score": null, "park_name": "Middletown Sportsmen Club"}, "geometry": {"type": "Point", "coordinates": [-84.42829862167945, 39.537424803957336]}}, {"type": "Feature", "properties": {"name": "Hanover Park", "operator": null, "ndvi_mean_inside": 0.6704991811167791, "amenity_list": null, "amenity_count": null, "fee_status": null, "hours_status": null, "active_passive": null, "inclusiveness_score": null, "chen_quality_score": null, "park_name": "Hanover Park"}, "geometry": {"type": "Point", "coordinates": [-84.64434277110368, 39.43702187772626]}}, {"type": "Feature", "properties": {"name": "Sunset Park", "operator": null, "ndvi_mean_inside": 0.5971169905236194, "amenity_list": null, "amenity_count": null, "fee_status": null, "hours_status": null, "active_passive": null, "inclusiveness_score": null, "chen_quality_score": null, "park_name": "Sunset Park"}, "geometry": {"type": "Point", "coordinates": [-84.37922288287464, 39.51520397917535]}}, {"type": "Feature", "properties": {"name": null, "operator": null, "ndvi_mean_inside": 0.7327687509241735, "amenity_list": null, "amenity_count": null, "fee_status": null, "hours_status": null, "active_passive": null, "inclusiveness_score": null, "chen_quality_score": null, "park_name": null}, "geometry": {"type": "Point", "coordinates": [-84.45135658502062, 39.33016616002833]}}, {"type": "Feature", "properties": {"name": "Bull's Run Nature Sanctuary and Arboretum", "operator": null, "ndvi_mean_inside": 0.8374523230765532, "amenity_list": null, "amenity_count": null, "fee_status": null, "hours_status": null, "active_passive": null, "inclusiveness_score": null, "chen_quality_score": null, "park_name": "Bull's Run Nature Sanctuary and Arboretum"}, "geometry": {"type": "Point", "coordinates": [-84.36078728794341, 39.51494513005081]}}, {"type": "Feature", "properties": {"name": null, "operator": null, "ndvi_mean_inside": 0.7009491854605697, "amenity_list": null, "amenity_count": null, "fee_status": null, "hours_status": null, "active_passive": null, "inclusiveness_score": null, "chen_quality_score": null, "park_name": null}, "geometry": {"type": "Point", "coordinates": [-84.37469821613574, 39.39695568862256]}}, {"type": "Feature", "properties": {"name": "Oaklawn Park", "operator": null, "ndvi_mean_inside": 0.6635177064618811, "amenity_list": null, "amenity_count": null, "fee_status": null, "hours_status": null, "active_passive": null, "inclusiveness_score": null, "chen_quality_score": null, "park_name": "Oaklawn Park"}, "geometry": {"type": "Point", "coordinates": [-84.41143807860641, 39.45821381732613]}}, {"type": "Feature", "properties": {"name": "Rathman & Smith Parks", "operator": null, "ndvi_mean_inside": 0.6426742140303283, "amenity_list": null, "amenity_count": null, "fee_status": null, "hours_status": null, "active_passive": null, "inclusiveness_score": null, "chen_quality_score": null, "park_name": "Rathman & Smith Parks"}, "geometry": {"type": "Point", "coordinates": [-84.39764784426677, 39.52474835070443]}}, {"type": "Feature", "properties": {"name": "Gardner Park", "operator": null, "ndvi_mean_inside": 0.7016361441089871, "amenity_list": null, "amenity_count": null, "fee_status": null, "hours_status": null, "active_passive": null, "inclusiveness_score": null, "chen_quality_score": null, "park_name": "Gardner Park"}, "geometry": {"type": "Point", "coordinates": [-84.38478920073766, 39.52426480099134]}}, {"type": "Feature", "properties": {"name": null, "operator": null, "ndvi_mean_inside": 0.1560896988277419, "amenity_list": null, "amenity_count": null, "fee_status": null, "hours_status": null, "active_passive": null, "inclusiveness_score": null, "chen_quality_score": null, "park_name": null}, "geometry": {"type": "Point", "coordinates": [-84.40239893273286, 39.51613685200155]}}, {"type": "Feature", "properties": {"name": null, "operator": null, "ndvi_mean_inside": 0.3551322026281076, "amenity_list": null, "amenity_count": null, "fee_status": null, "hours_status": null, "active_passive": null, "inclusiveness_score": null, "chen_quality_score": null, "park_name": null}, "geometry": {"type": "Point", "coordinates": [-84.40351014889337, 39.51663156750338]}}, {"type": "Feature", "properties": {"name": "Beacon Hill Park", "operator": null, "ndvi_mean_inside": 0.7562414229574447, "amenity_list": null, "amenity_count": null, "fee_status": null, "hours_status": null, "active_passive": null, "inclusiveness_score": null, "chen_quality_score": null, "park_name": "Beacon Hill Park"}, "geometry": {"type": "Point", "coordinates": [-84.50709750117278, 39.302937881229504]}}, {"type": "Feature", "properties": {"name": "Oakwood Park", "operator": null, "ndvi_mean_inside": 0.7182667800876388, "amenity_list": null, "amenity_count": null, "fee_status": null, "hours_status": null, "active_passive": null, "inclusiveness_score": null, "chen_quality_score": null, "park_name": "Oakwood Park"}, "geometry": {"type": "Point", "coordinates": [-84.53337027766285, 39.323822204403875]}}, {"type": "Feature", "properties": {"name": "Lakewood Park", "operator": null, "ndvi_mean_inside": 0.8061358734273054, "amenity_list": null, "amenity_count": null, "fee_status": null, "hours_status": null, "active_passive": null, "inclusiveness_score": null, "chen_quality_score": null, "park_name": "Lakewood Park"}, "geometry": {"type": "Point", "coordinates": [-84.53193787150865, 39.3233305571146]}}, {"type": "Feature", "properties": {"name": "Huffman Park", "operator": null, "ndvi_mean_inside": 0.7211756761728707, "amenity_list": null, "amenity_count": null, "fee_status": null, "hours_status": null, "active_passive": null, "inclusiveness_score": null, "chen_quality_score": null, "park_name": "Huffman Park"}, "geometry": {"type": "Point", "coordinates": [-84.54803423004644, 39.30793544933276]}}, {"type": "Feature", "properties": {"name": "Village Green Park", "operator": null, "ndvi_mean_inside": 0.3818232564512349, "amenity_list": null, "amenity_count": null, "fee_status": null, "hours_status": null, "active_passive": null, "inclusiveness_score": null, "chen_quality_score": null, "park_name": "Village Green Park"}, "geometry": {"type": "Point", "coordinates": [-84.56511476110995, 39.33416407380785]}}, {"type": "Feature", "properties": {"name": "William F. & Cora Dudley Woods Park", "operator": "MetroParks of Butler County", "ndvi_mean_inside": 0.8479227639289487, "amenity_list": "Hiking Trails, Pond, Picnic Shelter, Playground, Wildlife Watching, Creek Access, Grills, Fishing", "amenity_count": 9.0, "fee_status": "Free", "hours_status": "Day Use", "active_passive": "Mixed", "inclusiveness_score": 4.0, "chen_quality_score": 36.0, "park_name": "William F. & Cora Dudley Woods Park"}, "geometry": {"type": "Point", "coordinates": [-84.42794990789852, 39.4290130095184]}}, {"type": "Feature", "properties": {"name": "Wetlands Park East", "operator": "Liberty Township", "ndvi_mean_inside": 0.7717357321958604, "amenity_list": null, "amenity_count": null, "fee_status": null, "hours_status": null, "active_passive": null, "inclusiveness_score": null, "chen_quality_score": null, "park_name": "Wetlands Park East"}, "geometry": {"type": "Point", "coordinates": [-84.42994797518693, 39.37946871164451]}}, {"type": "Feature", "properties": {"name": "Wetlands Park West", "operator": "Liberty Township", "ndvi_mean_inside": 0.657081503288636, "amenity_list": null, "amenity_count": null, "fee_status": null, "hours_status": null, "active_passive": null, "inclusiveness_score": null, "chen_quality_score": null, "park_name": "Wetlands Park West"}, "geometry": {"type": "Point", "coordinates": [-84.44534603933693, 39.38187535885147]}}, {"type": "Feature", "properties": {"name": "Cherry Lane Farm Park", "operator": null, "ndvi_mean_inside": 0.4715789970812786, "amenity_list": null, "amenity_count": null, "fee_status": null, "hours_status": null, "active_passive": null, "inclusiveness_score": null, "chen_quality_score": null, "park_name": "Cherry Lane Farm Park"}, "geometry": {"type": "Point", "coordinates": [-84.41547399163963, 39.33417233324504]}}, {"type": "Feature", "properties": {"name": "Liberty Park", "operator": "Liberty Township Parks & Recreation Department", "ndvi_mean_inside": 0.6799848714520409, "amenity_list": null, "amenity_count": null, "fee_status": null, "hours_status": null, "active_passive": null, "inclusiveness_score": null, "chen_quality_score": null, "park_name": "Liberty Park"}, "geometry": {"type": "Point", "coordinates": [-84.38833088459714, 39.381997243911]}}, {"type": "Feature", "properties": {"name": "Wilhelmina Park", "operator": null, "ndvi_mean_inside": 0.7624486853219316, "amenity_list": null, "amenity_count": null, "fee_status": null, "hours_status": null, "active_passive": null, "inclusiveness_score": null, "chen_quality_score": null, "park_name": "Wilhelmina Park"}, "geometry": {"type": "Point", "coordinates": [-84.39512396040338, 39.38588606939123]}}, {"type": "Feature", "properties": {"name": "Allen Park", "operator": null, "ndvi_mean_inside": 0.6327119170343283, "amenity_list": null, "amenity_count": null, "fee_status": null, "hours_status": null, "active_passive": null, "inclusiveness_score": null, "chen_quality_score": null, "park_name": "Allen Park"}, "geometry": {"type": "Point", "coordinates": [-84.40154206584427, 39.41526131290523]}}, {"type": "Feature", "properties": {"name": "Winton Hills Park", "operator": null, "ndvi_mean_inside": 0.665435069594641, "amenity_list": null, "amenity_count": null, "fee_status": null, "hours_status": null, "active_passive": null, "inclusiveness_score": null, "chen_quality_score": null, "park_name": "Winton Hills Park"}, "geometry": {"type": "Point", "coordinates": [-84.53649530060694, 39.30812838822809]}}, {"type": "Feature", "properties": {"name": "South Locust Park", "operator": null, "ndvi_mean_inside": 0.6845027618263447, "amenity_list": null, "amenity_count": null, "fee_status": null, "hours_status": null, "active_passive": null, "inclusiveness_score": null, "chen_quality_score": null, "park_name": "South Locust Park"}, "geometry": {"type": "Point", "coordinates": [-84.74725065009082, 39.496594101479815]}}, {"type": "Feature", "properties": {"name": "Gorman Park", "operator": null, "ndvi_mean_inside": 0.5295844950906503, "amenity_list": null, "amenity_count": null, "fee_status": null, "hours_status": null, "active_passive": null, "inclusiveness_score": null, "chen_quality_score": null, "park_name": "Gorman Park"}, "geometry": {"type": "Point", "coordinates": [-84.44261945250429, 39.29890468330999]}}, {"type": "Feature", "properties": {"name": "Incline Park", "operator": null, "ndvi_mean_inside": 0.7146145107116287, "amenity_list": null, "amenity_count": null, "fee_status": null, "hours_status": null, "active_passive": null, "inclusiveness_score": null, "chen_quality_score": null, "park_name": "Incline Park"}, "geometry": {"type": "Point", "coordinates": [-84.40881660335121, 39.378596116119994]}}, {"type": "Feature", "properties": {"name": null, "operator": null, "ndvi_mean_inside": 0.5882219037826028, "amenity_list": null, "amenity_count": null, "fee_status": null, "hours_status": null, "active_passive": null, "inclusiveness_score": null, "chen_quality_score": null, "park_name": null}, "geometry": {"type": "Point", "coordinates": [-84.74734891510087, 39.496826116528744]}}, {"type": "Feature", "properties": {"name": "Fairfield Youth Football Fields", "operator": null, "ndvi_mean_inside": 0.6278996904905771, "amenity_list": null, "amenity_count": null, "fee_status": null, "hours_status": null, "active_passive": null, "inclusiveness_score": null, "chen_quality_score": null, "park_name": "Fairfield Youth Football Fields"}, "geometry": {"type": "Point", "coordinates": [-84.58527298417415, 39.34587757415511]}}, {"type": "Feature", "properties": {"name": "The Joe Nuxhall Miracle League Fields at Hatton Park", "operator": null, "ndvi_mean_inside": 0.3749443584961794, "amenity_list": null, "amenity_count": null, "fee_status": null, "hours_status": null, "active_passive": null, "inclusiveness_score": null, "chen_quality_score": null, "park_name": "The Joe Nuxhall Miracle League Fields at Hatton Park"}, "geometry": {"type": "Point", "coordinates": [-84.58491489972434, 39.347410721426556]}}, {"type": "Feature", "properties": {"name": "Beckett Park", "operator": null, "ndvi_mean_inside": 0.6958025397225791, "amenity_list": null, "amenity_count": null, "fee_status": null, "hours_status": null, "active_passive": null, "inclusiveness_score": null, "chen_quality_score": null, "park_name": "Beckett Park"}, "geometry": {"type": "Point", "coordinates": [-84.43940268775044, 39.34029609050523]}}, {"type": "Feature", "properties": {"name": "Monroe Crossings Park", "operator": null, "ndvi_mean_inside": 0.6360707361956939, "amenity_list": null, "amenity_count": null, "fee_status": null, "hours_status": null, "active_passive": null, "inclusiveness_score": null, "chen_quality_score": null, "park_name": "Monroe Crossings Park"}, "geometry": {"type": "Point", "coordinates": [-84.42146552190744, 39.44456822008453]}}, {"type": "Feature", "properties": {"name": "Susan & Clarence Carmody Memorial Park", "operator": "Warren County Parks", "ndvi_mean_inside": 0.7914343884800109, "amenity_list": null, "amenity_count": null, "fee_status": null, "hours_status": null, "active_passive": null, "inclusiveness_score": null, "chen_quality_score": null, "park_name": "Susan & Clarence Carmody Memorial Park"}, "geometry": {"type": "Point", "coordinates": [-84.34917575807361, 39.56147762146324]}}, {"type": "Feature", "properties": {"name": null, "operator": null, "ndvi_mean_inside": 0.3728484007621411, "amenity_list": null, "amenity_count": null, "fee_status": null, "hours_status": null, "active_passive": null, "inclusiveness_score": null, "chen_quality_score": null, "park_name": null}, "geometry": {"type": "Point", "coordinates": [-84.38344459754879, 39.50642209449512]}}, {"type": "Feature", "properties": {"name": "East View Park", "operator": null, "ndvi_mean_inside": 0.5745983663636263, "amenity_list": null, "amenity_count": null, "fee_status": null, "hours_status": null, "active_passive": null, "inclusiveness_score": null, "chen_quality_score": null, "park_name": "East View Park"}, "geometry": {"type": "Point", "coordinates": [-84.54074220328087, 39.38508841697988]}}, {"type": "Feature", "properties": {"name": null, "operator": null, "ndvi_mean_inside": 0.5451768610896773, "amenity_list": null, "amenity_count": null, "fee_status": null, "hours_status": null, "active_passive": null, "inclusiveness_score": null, "chen_quality_score": null, "park_name": null}, "geometry": {"type": "Point", "coordinates": [-84.56662553926394, 39.40219841280879]}}, {"type": "Feature", "properties": {"name": "Schwartzwald Park", "operator": null, "ndvi_mean_inside": 0.8100710906009566, "amenity_list": null, "amenity_count": null, "fee_status": null, "hours_status": null, "active_passive": null, "inclusiveness_score": null, "chen_quality_score": null, "park_name": "Schwartzwald Park"}, "geometry": {"type": "Point", "coordinates": [-84.56626281381442, 39.41794190306445]}}, {"type": "Feature", "properties": {"name": "Kingston Tot Lot", "operator": null, "ndvi_mean_inside": 0.761702790354261, "amenity_list": null, "amenity_count": null, "fee_status": null, "hours_status": null, "active_passive": null, "inclusiveness_score": null, "chen_quality_score": null, "park_name": "Kingston Tot Lot"}, "geometry": {"type": "Point", "coordinates": [-84.6012115444724, 39.419774477779484]}}, {"type": "Feature", "properties": {"name": "Madison Community Park", "operator": null, "ndvi_mean_inside": 0.6393542665578905, "amenity_list": null, "amenity_count": null, "fee_status": null, "hours_status": null, "active_passive": null, "inclusiveness_score": null, "chen_quality_score": null, "park_name": "Madison Community Park"}, "geometry": {"type": "Point", "coordinates": [-84.43287696209387, 39.53153411210219]}}, {"type": "Feature", "properties": {"name": "Lentil Park", "operator": "Hamilton Community Foundation", "ndvi_mean_inside": 0.3628398372132456, "amenity_list": null, "amenity_count": null, "fee_status": null, "hours_status": null, "active_passive": null, "inclusiveness_score": null, "chen_quality_score": null, "park_name": "Lentil Park"}, "geometry": {"type": "Point", "coordinates": [-84.56354467308272, 39.40053972436347]}}, {"type": "Feature", "properties": {"name": "Avalon Park", "operator": null, "ndvi_mean_inside": 0.5827336490251533, "amenity_list": null, "amenity_count": null, "fee_status": null, "hours_status": null, "active_passive": null, "inclusiveness_score": null, "chen_quality_score": null, "park_name": "Avalon Park"}, "geometry": {"type": "Point", "coordinates": [-84.38313913767443, 39.52850272863939]}}, {"type": "Feature", "properties": {"name": null, "operator": null, "ndvi_mean_inside": 0.746332054990295, "amenity_list": null, "amenity_count": null, "fee_status": null, "hours_status": null, "active_passive": null, "inclusiveness_score": null, "chen_quality_score": null, "park_name": null}, "geometry": {"type": "Point", "coordinates": [-84.75012582682047, 39.51703373610768]}}, {"type": "Feature", "properties": {"name": "Central Quad", "operator": "Miami University", "ndvi_mean_inside": 0.7642156460959673, "amenity_list": null, "amenity_count": null, "fee_status": null, "hours_status": null, "active_passive": null, "inclusiveness_score": null, "chen_quality_score": null, "park_name": "Central Quad"}, "geometry": {"type": "Point", "coordinates": [-84.73457999125743, 39.50527388658388]}}, {"type": "Feature", "properties": {"name": null, "operator": null, "ndvi_mean_inside": 0.7267807744123234, "amenity_list": null, "amenity_count": null, "fee_status": null, "hours_status": null, "active_passive": null, "inclusiveness_score": null, "chen_quality_score": null, "park_name": null}, "geometry": {"type": "Point", "coordinates": [-84.72573315523412, 39.52186964747942]}}, {"type": "Feature", "properties": {"name": null, "operator": null, "ndvi_mean_inside": 0.6163330747678569, "amenity_list": null, "amenity_count": null, "fee_status": null, "hours_status": null, "active_passive": null, "inclusiveness_score": null, "chen_quality_score": null, "park_name": null}, "geometry": {"type": "Point", "coordinates": [-84.66588112258064, 39.49752670552887]}}, {"type": "Feature", "properties": {"name": null, "operator": null, "ndvi_mean_inside": 0.8152828777421047, "amenity_list": null, "amenity_count": null, "fee_status": null, "hours_status": null, "active_passive": null, "inclusiveness_score": null, "chen_quality_score": null, "park_name": null}, "geometry": {"type": "Point", "coordinates": [-84.73101627404156, 39.51787044339853]}}, {"type": "Feature", "properties": {"name": "The Pulley Pavillion Park", "operator": null, "ndvi_mean_inside": 0.7696881359378661, "amenity_list": null, "amenity_count": null, "fee_status": null, "hours_status": null, "active_passive": null, "inclusiveness_score": null, "chen_quality_score": null, "park_name": "The Pulley Pavillion Park"}, "geometry": {"type": "Point", "coordinates": [-84.72739097796142, 39.513559477329125]}}, {"type": "Feature", "properties": {"name": "Forest Run MetroPark Timberman Ridge Area", "operator": "MetroParks of Butler County", "ndvi_mean_inside": 0.772852287255615, "amenity_list": "Hiking Trails, Playground, Picnic Area, Observation Platform, Creek Access, Water Fountain", "amenity_count": 8.0, "fee_status": "Free", "hours_status": "Day Use", "active_passive": "Mixed", "inclusiveness_score": 4.0, "chen_quality_score": 32.0, "park_name": "Forest Run MetroPark Timberman Ridge Area"}, "geometry": {"type": "Point", "coordinates": [-84.62310811377365, 39.3700901247371]}}, {"type": "Feature", "properties": {"name": "Open Shelter", "operator": null, "ndvi_mean_inside": 0.4917008056732118, "amenity_list": null, "amenity_count": null, "fee_status": null, "hours_status": null, "active_passive": null, "inclusiveness_score": null, "chen_quality_score": null, "park_name": "Open Shelter"}, "geometry": {"type": "Point", "coordinates": [-84.46074421278459, 39.3314473035461]}}, {"type": "Feature", "properties": {"name": null, "operator": null, "ndvi_mean_inside": 0.3209237441535399, "amenity_list": null, "amenity_count": null, "fee_status": null, "hours_status": null, "active_passive": null, "inclusiveness_score": null, "chen_quality_score": null, "park_name": null}, "geometry": {"type": "Point", "coordinates": [-84.74424045060694, 39.505114459609814]}}, {"type": "Feature", "properties": {"name": null, "operator": null, "ndvi_mean_inside": 0.6477770793348315, "amenity_list": null, "amenity_count": null, "fee_status": null, "hours_status": null, "active_passive": null, "inclusiveness_score": null, "chen_quality_score": null, "park_name": null}, "geometry": {"type": "Point", "coordinates": [-84.46143157347664, 39.41552569866224]}}, {"type": "Feature", "properties": {"name": null, "operator": null, "ndvi_mean_inside": 0.7635328974987986, "amenity_list": null, "amenity_count": null, "fee_status": null, "hours_status": null, "active_passive": null, "inclusiveness_score": null, "chen_quality_score": null, "park_name": null}, "geometry": {"type": "Point", "coordinates": [-84.44375310955981, 39.41422272887319]}}, {"type": "Feature", "properties": {"name": null, "operator": null, "ndvi_mean_inside": 0.7525199627425522, "amenity_list": null, "amenity_count": null, "fee_status": null, "hours_status": null, "active_passive": null, "inclusiveness_score": null, "chen_quality_score": null, "park_name": null}, "geometry": {"type": "Point", "coordinates": [-84.44037136830822, 39.4143893966949]}}, {"type": "Feature", "properties": {"name": "Rotary Park", "operator": null, "ndvi_mean_inside": 0.5326523668431926, "amenity_list": null, "amenity_count": null, "fee_status": null, "hours_status": null, "active_passive": null, "inclusiveness_score": null, "chen_quality_score": null, "park_name": "Rotary Park"}, "geometry": {"type": "Point", "coordinates": [-84.56144557542203, 39.400142579013526]}}, {"type": "Feature", "properties": {"name": "Clifford George Park", "operator": "Springfield Township", "ndvi_mean_inside": 0.6368776398595076, "amenity_list": null, "amenity_count": null, "fee_status": null, "hours_status": null, "active_passive": null, "inclusiveness_score": null, "chen_quality_score": null, "park_name": "Clifford George Park"}, "geometry": {"type": "Point", "coordinates": [-84.54345824688748, 39.303057036678354]}}, {"type": "Feature", "properties": {"name": "Rosemont Park", "operator": "Parks & Recreation, City of Monroe, Ohio", "ndvi_mean_inside": 0.7896502566848733, "amenity_list": null, "amenity_count": null, "fee_status": null, "hours_status": null, "active_passive": null, "inclusiveness_score": null, "chen_quality_score": null, "park_name": "Rosemont Park"}, "geometry": {"type": "Point", "coordinates": [-84.41857175937129, 39.456804872750276]}}, {"type": "Feature", "properties": {"name": "Met Lab Park", "operator": null, "ndvi_mean_inside": 0.1204749803263377, "amenity_list": null, "amenity_count": null, "fee_status": null, "hours_status": null, "active_passive": null, "inclusiveness_score": null, "chen_quality_score": null, "park_name": "Met Lab Park"}, "geometry": {"type": "Point", "coordinates": [-84.38915908529724, 39.49849645176582]}}, {"type": "Feature", "properties": {"name": "Middletown River Center", "operator": null, "ndvi_mean_inside": 0.6061870230972046, "amenity_list": null, "amenity_count": null, "fee_status": null, "hours_status": null, "active_passive": null, "inclusiveness_score": null, "chen_quality_score": null, "park_name": "Middletown River Center"}, "geometry": {"type": "Point", "coordinates": [-84.41118164287822, 39.51836074239353]}}, {"type": "Feature", "properties": {"name": null, "operator": null, "ndvi_mean_inside": 0.4576049388784342, "amenity_list": null, "amenity_count": null, "fee_status": null, "hours_status": null, "active_passive": null, "inclusiveness_score": null, "chen_quality_score": null, "park_name": null}, "geometry": {"type": "Point", "coordinates": [-84.40044624850799, 39.51878691835708]}}, {"type": "Feature", "properties": {"name": null, "operator": null, "ndvi_mean_inside": 0.6561629845847149, "amenity_list": null, "amenity_count": null, "fee_status": null, "hours_status": null, "active_passive": null, "inclusiveness_score": null, "chen_quality_score": null, "park_name": null}, "geometry": {"type": "Point", "coordinates": [-84.35666542002265, 39.41527624442598]}}, {"type": "Feature", "properties": {"name": "Voice of America MetroPark", "operator": "MetroParks of Butler County", "ndvi_mean_inside": 0.6700908967418964, "amenity_list": "Stocked Lake, Athletic Complex, Sledding Hill, Dog Park, Lodge, Trails, Boat Rental", "amenity_count": 13.0, "fee_status": "Free*", "hours_status": "Day Use", "active_passive": "Mixed", "inclusiveness_score": 4.0, "chen_quality_score": 52.0, "park_name": "Voice of America MetroPark"}, "geometry": {"type": "Point", "coordinates": [-84.35431325872868, 39.360587244127366]}}, {"type": "Feature", "properties": {"name": "Keehner Park", "operator": null, "ndvi_mean_inside": 0.6904705319760195, "amenity_list": null, "amenity_count": null, "fee_status": null, "hours_status": null, "active_passive": null, "inclusiveness_score": null, "chen_quality_score": null, "park_name": "Keehner Park"}, "geometry": {"type": "Point", "coordinates": [-84.38099733528587, 39.33498537474362]}}, {"type": "Feature", "properties": {"name": "Artz Park", "operator": null, "ndvi_mean_inside": 0.5688322795744886, "amenity_list": null, "amenity_count": null, "fee_status": null, "hours_status": null, "active_passive": null, "inclusiveness_score": null, "chen_quality_score": null, "park_name": "Artz Park"}, "geometry": {"type": "Point", "coordinates": [-84.74240033050978, 39.500835204060685]}}, {"type": "Feature", "properties": {"name": "Barnitz Park", "operator": null, "ndvi_mean_inside": 0.4790891487375968, "amenity_list": null, "amenity_count": null, "fee_status": null, "hours_status": null, "active_passive": null, "inclusiveness_score": null, "chen_quality_score": null, "park_name": "Barnitz Park"}, "geometry": {"type": "Point", "coordinates": [-84.41451371483525, 39.50350901365278]}}, {"type": "Feature", "properties": {"name": "Benninghofen Playground", "operator": null, "ndvi_mean_inside": 0.634899014357617, "amenity_list": null, "amenity_count": null, "fee_status": null, "hours_status": null, "active_passive": null, "inclusiveness_score": null, "chen_quality_score": null, "park_name": "Benninghofen Playground"}, "geometry": {"type": "Point", "coordinates": [-84.55234180883842, 39.36052878358035]}}, {"type": "Feature", "properties": {"name": "Conrad Formal Gardens", "operator": null, "ndvi_mean_inside": 0.8033658432449287, "amenity_list": null, "amenity_count": null, "fee_status": null, "hours_status": null, "active_passive": null, "inclusiveness_score": null, "chen_quality_score": null, "park_name": "Conrad Formal Gardens"}, "geometry": {"type": "Point", "coordinates": [-84.72943820179704, 39.513584414463665]}}, {"type": "Feature", "properties": {"name": "Douglas Park", "operator": null, "ndvi_mean_inside": 0.563801012192038, "amenity_list": null, "amenity_count": null, "fee_status": null, "hours_status": null, "active_passive": null, "inclusiveness_score": null, "chen_quality_score": null, "park_name": "Douglas Park"}, "geometry": {"type": "Point", "coordinates": [-84.41229593702224, 39.49573453459311]}}, {"type": "Feature", "properties": {"name": "Fairfield Optimist Park", "operator": "Fairfield Optimist Soccer Association", "ndvi_mean_inside": 0.6435601263200839, "amenity_list": null, "amenity_count": null, "fee_status": null, "hours_status": null, "active_passive": null, "inclusiveness_score": null, "chen_quality_score": null, "park_name": "Fairfield Optimist Park"}, "geometry": {"type": "Point", "coordinates": [-84.5718976088234, 39.35652418861482]}}, {"type": "Feature", "properties": {"name": "Fordson Heights Playground", "operator": null, "ndvi_mean_inside": 0.6715925512196366, "amenity_list": null, "amenity_count": null, "fee_status": null, "hours_status": null, "active_passive": null, "inclusiveness_score": null, "chen_quality_score": null, "park_name": "Fordson Heights Playground"}, "geometry": {"type": "Point", "coordinates": [-84.53637986227302, 39.409378028978345]}}, {"type": "Feature", "properties": {"name": "Inoles Park", "operator": null, "ndvi_mean_inside": 0.5024426991175849, "amenity_list": null, "amenity_count": null, "fee_status": null, "hours_status": null, "active_passive": null, "inclusiveness_score": null, "chen_quality_score": null, "park_name": "Inoles Park"}, "geometry": {"type": "Point", "coordinates": [-84.74949911015659, 39.51040294128899]}}, {"type": "Feature", "properties": {"name": "Joyce Park", "operator": "City of Hamilton", "ndvi_mean_inside": 0.7247944684687575, "amenity_list": null, "amenity_count": null, "fee_status": null, "hours_status": null, "active_passive": null, "inclusiveness_score": null, "chen_quality_score": null, "park_name": "Joyce Park"}, "geometry": {"type": "Point", "coordinates": [-84.58292326927085, 39.35374825169492]}}, {"type": "Feature", "properties": {"name": "Lindenwald Park", "operator": null, "ndvi_mean_inside": 0.7011192493153806, "amenity_list": null, "amenity_count": null, "fee_status": null, "hours_status": null, "active_passive": null, "inclusiveness_score": null, "chen_quality_score": null, "park_name": "Lindenwald Park"}, "geometry": {"type": "Point", "coordinates": [-84.55487614919198, 39.3683325169117]}}, {"type": "Feature", "properties": {"name": "Lions Park", "operator": null, "ndvi_mean_inside": 0.6703580682488215, "amenity_list": null, "amenity_count": null, "fee_status": null, "hours_status": null, "active_passive": null, "inclusiveness_score": null, "chen_quality_score": null, "park_name": "Lions Park"}, "geometry": {"type": "Point", "coordinates": [-84.54811588888518, 39.34204747741731]}}, {"type": "Feature", "properties": {"name": "Miami Park", "operator": null, "ndvi_mean_inside": 0.6431795813337311, "amenity_list": null, "amenity_count": null, "fee_status": null, "hours_status": null, "active_passive": null, "inclusiveness_score": null, "chen_quality_score": null, "park_name": "Miami Park"}, "geometry": {"type": "Point", "coordinates": [-84.38537569089264, 39.5172190754617]}}, {"type": "Feature", "properties": {"name": "Michigan Park", "operator": null, "ndvi_mean_inside": 0.6289159867627339, "amenity_list": null, "amenity_count": null, "fee_status": null, "hours_status": null, "active_passive": null, "inclusiveness_score": null, "chen_quality_score": null, "park_name": "Michigan Park"}, "geometry": {"type": "Point", "coordinates": [-84.39989975837545, 39.50017970440757]}}, {"type": "Feature", "properties": {"name": "Millikin Park", "operator": null, "ndvi_mean_inside": 0.7861294805828157, "amenity_list": null, "amenity_count": null, "fee_status": null, "hours_status": null, "active_passive": null, "inclusiveness_score": null, "chen_quality_score": null, "park_name": "Millikin Park"}, "geometry": {"type": "Point", "coordinates": [-84.59360325837632, 39.41102069187707]}}, {"type": "Feature", "properties": {"name": "Oxford Memorial Park", "operator": null, "ndvi_mean_inside": 0.4159334000890105, "amenity_list": null, "amenity_count": null, "fee_status": null, "hours_status": null, "active_passive": null, "inclusiveness_score": null, "chen_quality_score": null, "park_name": "Oxford Memorial Park"}, "geometry": {"type": "Point", "coordinates": [-84.74202331457859, 39.510738369111515]}}, {"type": "Feature", "properties": {"name": "Peffer Park", "operator": null, "ndvi_mean_inside": 0.7720219404720957, "amenity_list": null, "amenity_count": null, "fee_status": null, "hours_status": null, "active_passive": null, "inclusiveness_score": null, "chen_quality_score": null, "park_name": "Peffer Park"}, "geometry": {"type": "Point", "coordinates": [-84.73096529358162, 39.498795228056615]}}, {"type": "Feature", "properties": {"name": "Whitney Park", "operator": null, "ndvi_mean_inside": 0.5118798984978404, "amenity_list": null, "amenity_count": null, "fee_status": null, "hours_status": null, "active_passive": null, "inclusiveness_score": null, "chen_quality_score": null, "park_name": "Whitney Park"}, "geometry": {"type": "Point", "coordinates": [-84.40239077298554, 39.49388460072085]}}, {"type": "Feature", "properties": {"name": "Campbell Avenue Park", "operator": null, "ndvi_mean_inside": 0.4565863652432185, "amenity_list": null, "amenity_count": null, "fee_status": null, "hours_status": null, "active_passive": null, "inclusiveness_score": null, "chen_quality_score": null, "park_name": "Campbell Avenue Park"}, "geometry": {"type": "Point", "coordinates": [-84.5514398085774, 39.39806080775105]}}, {"type": "Feature", "properties": {"name": "Doctor Martin Luther King Junior Park", "operator": null, "ndvi_mean_inside": 0.4252508972679801, "amenity_list": null, "amenity_count": null, "fee_status": null, "hours_status": null, "active_passive": null, "inclusiveness_score": null, "chen_quality_score": null, "park_name": "Doctor Martin Luther King Junior Park"}, "geometry": {"type": "Point", "coordinates": [-84.74279544398473, 39.51073825445686]}}, {"type": "Feature", "properties": {"name": "Pyramid Hill Sculpture Park", "operator": null, "ndvi_mean_inside": 0.8030513140955801, "amenity_list": null, "amenity_count": null, "fee_status": null, "hours_status": null, "active_passive": null, "inclusiveness_score": null, "chen_quality_score": null, "park_name": "Pyramid Hill Sculpture Park"}, "geometry": {"type": "Point", "coordinates": [-84.5807330218625, 39.37261780092481]}}, {"type": "Feature", "properties": {"name": "L. J. Smith Park", "operator": "Hamilton Parks Conservancy", "ndvi_mean_inside": 0.5780072722535317, "amenity_list": null, "amenity_count": null, "fee_status": null, "hours_status": null, "active_passive": null, "inclusiveness_score": null, "chen_quality_score": null, "park_name": "L. J. Smith Park"}, "geometry": {"type": "Point", "coordinates": [-84.54976088686283, 39.40673830196032]}}, {"type": "Feature", "properties": {"name": "Jim Grimm Park", "operator": null, "ndvi_mean_inside": 0.7381785718539157, "amenity_list": null, "amenity_count": null, "fee_status": null, "hours_status": null, "active_passive": null, "inclusiveness_score": null, "chen_quality_score": null, "park_name": "Jim Grimm Park"}, "geometry": {"type": "Point", "coordinates": [-84.56987481395599, 39.417884330754454]}}, {"type": "Feature", "properties": {"name": "Booker T. Washington Community Center", "operator": null, "ndvi_mean_inside": 0.5539204288388063, "amenity_list": null, "amenity_count": null, "fee_status": null, "hours_status": null, "active_passive": null, "inclusiveness_score": null, "chen_quality_score": null, "park_name": "Booker T. Washington Community Center"}, "geometry": {"type": "Point", "coordinates": [-84.56775842702227, 39.38824289251765]}}, {"type": "Feature", "properties": {"name": "Neilan & Pershing Park", "operator": null, "ndvi_mean_inside": 0.5565479338471089, "amenity_list": null, "amenity_count": null, "fee_status": null, "hours_status": null, "active_passive": null, "inclusiveness_score": null, "chen_quality_score": null, "park_name": "Neilan & Pershing Park"}, "geometry": {"type": "Point", "coordinates": [-84.56893183538692, 39.39384016248081]}}, {"type": "Feature", "properties": {"name": "Warwick's Rest", "operator": null, "ndvi_mean_inside": 0.6903329972418991, "amenity_list": null, "amenity_count": null, "fee_status": null, "hours_status": null, "active_passive": null, "inclusiveness_score": null, "chen_quality_score": null, "park_name": "Warwick's Rest"}, "geometry": {"type": "Point", "coordinates": [-84.56505563744076, 39.409024391737766]}}, {"type": "Feature", "properties": {"name": "Virginia Avenue Park", "operator": null, "ndvi_mean_inside": 0.7529629894993296, "amenity_list": null, "amenity_count": null, "fee_status": null, "hours_status": null, "active_passive": null, "inclusiveness_score": null, "chen_quality_score": null, "park_name": "Virginia Avenue Park"}, "geometry": {"type": "Point", "coordinates": [-84.57627459787601, 39.412219590528]}}, {"type": "Feature", "properties": {"name": "Sanders Park", "operator": null, "ndvi_mean_inside": 0.8501921300328975, "amenity_list": null, "amenity_count": null, "fee_status": null, "hours_status": null, "active_passive": null, "inclusiveness_score": null, "chen_quality_score": null, "park_name": "Sanders Park"}, "geometry": {"type": "Point", "coordinates": [-84.57666220443451, 39.42983111278476]}}, {"type": "Feature", "properties": {"name": "Smalley Park", "operator": null, "ndvi_mean_inside": 0.8011195157392225, "amenity_list": null, "amenity_count": null, "fee_status": null, "hours_status": null, "active_passive": null, "inclusiveness_score": null, "chen_quality_score": null, "park_name": "Smalley Park"}, "geometry": {"type": "Point", "coordinates": [-84.61399377424411, 39.413109469097584]}}, {"type": "Feature", "properties": {"name": "Andrew Tot Lot", "operator": null, "ndvi_mean_inside": 0.6763366956090564, "amenity_list": null, "amenity_count": null, "fee_status": null, "hours_status": null, "active_passive": null, "inclusiveness_score": null, "chen_quality_score": null, "park_name": "Andrew Tot Lot"}, "geometry": {"type": "Point", "coordinates": [-84.56126147250379, 39.37144025203916]}}, {"type": "Feature", "properties": {"name": "Howard Wilson Park", "operator": null, "ndvi_mean_inside": 0.7434069904576665, "amenity_list": null, "amenity_count": null, "fee_status": null, "hours_status": null, "active_passive": null, "inclusiveness_score": null, "chen_quality_score": null, "park_name": "Howard Wilson Park"}, "geometry": {"type": "Point", "coordinates": [-84.53102711927676, 39.40653978320637]}}, {"type": "Feature", "properties": {"name": "Symmes Park", "operator": null, "ndvi_mean_inside": 0.6133779431981058, "amenity_list": null, "amenity_count": null, "fee_status": null, "hours_status": null, "active_passive": null, "inclusiveness_score": null, "chen_quality_score": null, "park_name": "Symmes Park"}, "geometry": {"type": "Point", "coordinates": [-84.56154036677842, 39.39522537903239]}}, {"type": "Feature", "properties": {"name": "Bailey Square", "operator": null, "ndvi_mean_inside": 0.3630890695676814, "amenity_list": null, "amenity_count": null, "fee_status": null, "hours_status": null, "active_passive": null, "inclusiveness_score": null, "chen_quality_score": null, "park_name": "Bailey Square"}, "geometry": {"type": "Point", "coordinates": [-84.56483056029046, 39.39250774757415]}}, {"type": "Feature", "properties": {"name": "Marcum Park", "operator": null, "ndvi_mean_inside": 0.5445665856339278, "amenity_list": null, "amenity_count": null, "fee_status": null, "hours_status": null, "active_passive": null, "inclusiveness_score": null, "chen_quality_score": null, "park_name": "Marcum Park"}, "geometry": {"type": "Point", "coordinates": [-84.56165378298972, 39.4028049592917]}}, {"type": "Feature", "properties": {"name": "Jefferson Park", "operator": "Hamilton Ohio Parks", "ndvi_mean_inside": 0.5313161449845869, "amenity_list": null, "amenity_count": null, "fee_status": null, "hours_status": null, "active_passive": null, "inclusiveness_score": null, "chen_quality_score": null, "park_name": "Jefferson Park"}, "geometry": {"type": "Point", "coordinates": [-84.55316168981643, 39.38460151615116]}}, {"type": "Feature", "properties": {"name": "Dudley Memorial Park", "operator": "Liberty Township", "ndvi_mean_inside": 0.7672135292226309, "amenity_list": null, "amenity_count": null, "fee_status": null, "hours_status": null, "active_passive": null, "inclusiveness_score": null, "chen_quality_score": null, "park_name": "Dudley Memorial Park"}, "geometry": {"type": "Point", "coordinates": [-84.3816019702412, 39.406285437521646]}}, {"type": "Feature", "properties": {"name": "Monroe Bicentennial Commons Park", "operator": "City of Monroe, OH", "ndvi_mean_inside": 0.5750011337805984, "amenity_list": "Walk/Run/Bike Trails, Geocaching, River Center, AK Pavilion, Scenic Overlook, Brick Walkways", "amenity_count": 8.0, "fee_status": "Free", "hours_status": "Day Use", "active_passive": "Mixed", "inclusiveness_score": 4.0, "chen_quality_score": 32.0, "park_name": "Monroe Bicentennial Commons Park"}, "geometry": {"type": "Point", "coordinates": [-84.43343661634583, 39.44500261437424]}}, {"type": "Feature", "properties": {"name": "Mt Pleasant Light Walking Trails", "operator": null, "ndvi_mean_inside": 0.7895063616314675, "amenity_list": null, "amenity_count": null, "fee_status": null, "hours_status": null, "active_passive": null, "inclusiveness_score": null, "chen_quality_score": null, "park_name": "Mt Pleasant Light Walking Trails"}, "geometry": {"type": "Point", "coordinates": [-84.36916776963004, 39.44793287846214]}}, {"type": "Feature", "properties": {"name": "Leonard Howell Park", "operator": null, "ndvi_mean_inside": 0.7366589772328742, "amenity_list": null, "amenity_count": null, "fee_status": null, "hours_status": null, "active_passive": null, "inclusiveness_score": null, "chen_quality_score": null, "park_name": "Leonard Howell Park"}, "geometry": {"type": "Point", "coordinates": [-84.72899553062004, 39.52117233143467]}}, {"type": "Feature", "properties": {"name": "Chrisholm Historic Farmstead", "operator": null, "ndvi_mean_inside": 0.2903317108234027, "amenity_list": "Historic Farmstead, Barn, Nature Playscape, Hiking Trails, Picnic Shelter, Fire Pits, Grills", "amenity_count": 11.0, "fee_status": "Free", "hours_status": "Day Use", "active_passive": "Mixed", "inclusiveness_score": 4.0, "chen_quality_score": 44.0, "park_name": "Chrisholm Historic Farmstead"}, "geometry": {"type": "Point", "coordinates": [-84.46193387793613, 39.44381106404385]}}, {"type": "Feature", "properties": {"name": "William Harbin Park", "operator": null, "ndvi_mean_inside": 0.7915915566910955, "amenity_list": null, "amenity_count": null, "fee_status": null, "hours_status": null, "active_passive": null, "inclusiveness_score": null, "chen_quality_score": null, "park_name": "William Harbin Park"}, "geometry": {"type": "Point", "coordinates": [-84.57557404491476, 39.3185433931556]}}, {"type": "Feature", "properties": {"name": "Trammel Fossil Park", "operator": null, "ndvi_mean_inside": 0.5675716488044789, "amenity_list": null, "amenity_count": null, "fee_status": null, "hours_status": null, "active_passive": null, "inclusiveness_score": null, "chen_quality_score": null, "park_name": "Trammel Fossil Park"}, "geometry": {"type": "Point", "coordinates": [-84.40487844800843, 39.2967007346369]}}]}