{"type": "FeatureCollection", "features": [{"type": "Feature", "properties": {"name": "Gilmore Ponds Preserve Metropark", "operator": "MetroParks of Butler County", "ndvi_mean_inside": 0.6059500835244581, "amenity_list": "Hiking Trails, Paved Trail (M2M), Observation Tower, Raised Decks, Bird Blind, Fishing", "amenity_count": 9, "fee_status": "Free", "hours_status": "Day Use", "active_passive": "Passive", "inclusiveness_score": 4, "chen_quality_score": 36.0}, "geometry": {"type": "Polygon", "coordinates": [[[-84.51944229056815, 39.354607919881836], [-84.51953597539146, 39.35351991709871], [-84.5177433769633, 39.353421765743285], [-84.51808676391994, 39.35128587052886], [-84.51705667698577, 39.35121009517689], [-84.51694970691432, 39.35020680301132], [-84.51650822327002, 39.350180027248385], [-84.51665095774638, 39.34824920291871], [-84.51732870171283, 39.34828046897422], [-84.51734206289464, 39.34760709396684], [-84.50841050957875, 39.34971180384907], [-84.50719316281919, 39.34989017130278], [-84.50556111169335, 39.34960475248686], [-84.50537385701298, 39.35043866298175], [-84.50402720607254, 39.350799860318624], [-84.5017352351936, 39.35049217188563], [-84.50166384973832, 39.34728608520742], [-84.49903301070394, 39.34724150458529], [-84.49606326050589, 39.34848559305166], [-84.4937132683324, 39.350037305834846], [-84.49228638689767, 39.35181206366211], [-84.49106013905453, 39.351794240976595], [-84.49100218780112, 39.352110798248006], [-84.49118948860605, 39.35223563425402], [-84.49249593502941, 39.35223562976518], [-84.50093702558988, 39.351036145537556], [-84.50240851098093, 39.35106740809058], [-84.50390236640246, 39.35130374123321], [-84.52078898541835, 39.35854086357836], [-84.52400395046595, 39.359584292239845], [-84.52417338580855, 39.35784969694341], [-84.52436961979835, 39.35778278916257], [-84.52455689344588, 39.35486656892765], [-84.51944229056815, 39.354607919881836]]]}}, {"type": "Feature", "properties": {"name": "Rentschler Forest MetroPark", "operator": "MetroParks of Butler County", "ndvi_mean_inside": 0.7917120793860849, "amenity_list": "River Access (Canoe/Kayak), Hiking Trails, Soccer Fields, Playgrounds, Shelters, Canal Remnants", "amenity_count": 12, "fee_status": "Free", "hours_status": "Day Use", "active_passive": "Mixed", "inclusiveness_score": 4, "chen_quality_score": 48.0}, "geometry": {"type": "Polygon", "coordinates": [[[-84.51793067191724, 39.42392016374856], [-84.5134225448475, 39.42376410083668], [-84.5099890295121, 39.42243974718363], [-84.5106088391575, 39.42153900179522], [-84.51072030177313, 39.42025031836348], [-84.50065612107603, 39.419568083497985], [-84.50092366064793, 39.41741876211147], [-84.4995235259658, 39.41719586726714], [-84.49920243861496, 39.42032166942929], [-84.49819026560392, 39.42025036286675], [-84.49887694771482, 39.41365082457753], [-84.49372671496526, 39.413802449483526], [-84.49396299100847, 39.410939711588235], [-84.48758200147198, 39.4125717171701], [-84.48724764045465, 39.41584026008079], [-84.48932109615897, 39.41592051373059], [-84.48917397232275, 39.417650645021645], [-84.4903689625535, 39.417695293086034], [-84.49036007766045, 39.41929604687864], [-84.491131457438, 39.42070512667227], [-84.48616849862586, 39.422569066666846], [-84.48640040253153, 39.41993369947465], [-84.48404593874214, 39.41981336100434], [-84.48387654689516, 39.42023249197085], [-84.48316751340367, 39.42019685129907], [-84.48321210343423, 39.41976873488071], [-84.48181642734635, 39.4197197025905], [-84.48164694897923, 39.422190075379746], [-84.48003724023727, 39.42195812855501], [-84.47980090785235, 39.42455778539553], [-84.48295352881587, 39.42500375126254], [-84.48337261125167, 39.4246782063228], [-84.48550856407509, 39.423777450492466], [-84.48683739119987, 39.42397371721465], [-84.48792988859043, 39.42251557336877], [-84.49378018130808, 39.42061596563001], [-84.49394514227573, 39.42097715406681], [-84.49529626790961, 39.42086119037065], [-84.49676781552067, 39.42096826252668], [-84.49917122614116, 39.42154791470396], [-84.50079881433571, 39.42215881044369], [-84.50428136601101, 39.424771883501066], [-84.50478528122875, 39.42581084662313], [-84.50556559299459, 39.426609005568224], [-84.50614975967012, 39.42634593810145], [-84.50581526494729, 39.42500369724652], [-84.50703712166114, 39.424963624494815], [-84.50789326234198, 39.42540954785836], [-84.50890990807204, 39.425409503204854], [-84.50899912879136, 39.42575289216438], [-84.5091908528527, 39.4257305686244], [-84.50857550920162, 39.422845557893396], [-84.50932016221418, 39.422796505410155], [-84.5136811445096, 39.423991512003106], [-84.5174357510954, 39.424143139051836], [-84.51815364893507, 39.42404950520018], [-84.51793067191724, 39.42392016374856]]]}}, {"type": "Feature", "properties": {"name": "Forest Run Wildlife Preserve Metropark", "operator": "MetroParks of Butler County", "ndvi_mean_inside": 0.825707307120181, "amenity_list": "Hiking Trails, Playground, Picnic Area, Observation Platform, Creek Access, Water Fountain", "amenity_count": 8, "fee_status": "Free", "hours_status": "Day Use", "active_passive": "Mixed", "inclusiveness_score": 4, "chen_quality_score": 32.0}, "geometry": {"type": "Polygon", "coordinates": [[[-84.63444252789854, 39.378539928975385], [-84.63401000231552, 39.37817429181265], [-84.63266777103723, 39.37499936441708], [-84.63047837393744, 39.375084075200995], [-84.63006817713486, 39.371597111118504], [-84.62769142177294, 39.372948214349215], [-84.62777175584901, 39.380252225991], [-84.63245824919208, 39.3802433138823], [-84.63199448776928, 39.37865580865745], [-84.63444252789854, 39.378539928975385]]]}}, {"type": "Feature", "properties": {"name": "William F. & Cora Dudley Woods Park", "operator": "MetroParks of Butler County", "ndvi_mean_inside": 0.8479227639289487, "amenity_list": "Hiking Trails, Pond, Picnic Shelter, Playground, Wildlife Watching, Creek Access, Grills, Fishing", "amenity_count": 9, "fee_status": "Free", "hours_status": "Day Use", "active_passive": "Mixed", "inclusiveness_score": 4, "chen_quality_score": 36.0}, "geometry": {"type": "Polygon", "coordinates": [[[-84.43155342740826, 39.43109484856807], [-84.42972968414348, 39.4301896560535], [-84.42976534066644, 39.42893664195119], [-84.43013095899886, 39.427340311146686], [-84.43006854042662, 39.426274579254056], [-84.42519031164116, 39.42594015869637], [-84.42479341036127, 39.43086745108897], [-84.42840532944479, 39.43100120137638], [-84.42836069765801, 39.431937632786294], [-84.43262364128336, 39.43210264393565], [-84.43269054402538, 39.43112606547693], [-84.43155342740826, 39.43109484856807]]]}}, {"type": "Feature", "properties": {"name": "Forest Run MetroPark Timberman Ridge Area", "operator": "MetroParks of Butler County", "ndvi_mean_inside": 0.772852287255615, "amenity_list": "Hiking Trails, Playground, Picnic Area, Observation Platform, Creek Access, Water Fountain", "amenity_count": 8, "fee_status": "Free", "hours_status": "Day Use", "active_passive": "Mixed", "inclusiveness_score": 4, "chen_quality_score": 32.0}, "geometry": {"type": "Polygon", "coordinates": [[[-84.62769142177294, 39.372948214349215], [-84.62754880056333, 39.36594294926425], [-84.61794389708186, 39.366099033326144], [-84.61804644811573, 39.37003640836609], [-84.61966064450124, 39.370045337620084], [-84.61969179227363, 39.37513310539993], [-84.62335720876509, 39.37466491173416], [-84.62381648752012, 39.374843315958636], [-84.62548418733851, 39.37446426246671], [-84.62769142177294, 39.372948214349215]]]}}, {"type": "Feature", "properties": {"name": "Voice of America MetroPark", "operator": "MetroParks of Butler County", "ndvi_mean_inside": 0.6700908967418964, "amenity_list": "Stocked Lake, Athletic Complex, Sledding Hill, Dog Park, Lodge, Trails, Boat Rental", "amenity_count": 13, "fee_status": "Free*", "hours_status": "Day Use", "active_passive": "Mixed", "inclusiveness_score": 4, "chen_quality_score": 52.0}, "geometry": {"type": "Polygon", "coordinates": [[[-84.3638553608565, 39.3618718059755], [-84.3614073337602, 39.36168445987907], [-84.35906181081376, 39.359200758089194], [-84.35920003543995, 39.35703814378317], [-84.35900830183208, 39.356248812989286], [-84.3592491319791, 39.35431359501566], [-84.35973961378976, 39.35379636519189], [-84.36010526637007, 39.35380973244412], [-84.36049763040775, 39.35327464865771], [-84.36033710722292, 39.353047182904405], [-84.36034601181882, 39.35258345473656], [-84.35738969237437, 39.352422921597714], [-84.35749222059876, 39.35759994318198], [-84.35558370632353, 39.3575687583836], [-84.35568631791284, 39.35232485035828], [-84.34791854161931, 39.35182093196439], [-84.34656739062248, 39.36650924167495], [-84.35750112562393, 39.36714689150642], [-84.36164807389659, 39.368671888725785], [-84.36306610241037, 39.36718702495818], [-84.36333362843509, 39.36661627440291], [-84.3638553608565, 39.3618718059755]]]}}, {"type": "Feature", "properties": {"name": "Chrisholm Historic Farmstead", "operator": null, "ndvi_mean_inside": 0.2903317108234027, "amenity_list": "Historic Farmstead, Barn, Nature Playscape, Hiking Trails, Picnic Shelter, Fire Pits, Grills", "amenity_count": 11, "fee_status": "Free", "hours_status": "Day Use", "active_passive": "Mixed", "inclusiveness_score": 4, "chen_quality_score": 44.0}, "geometry": {"type": "Polygon", "coordinates": [[[-84.46210721098525, 39.443758737847546], [-84.46198676635528, 39.44368289485078], [-84.46176381500315, 39.44386127979177], [-84.46187529078539, 39.443941501661236], [-84.46210721098525, 39.443758737847546]]]}}]}