{"type": "FeatureCollection", "features": [{"type": "Feature", "properties": {"park_name": "Rentschler Forest", "amenity_list": "River Access (Canoe/Kayak), Hiking Trails, Soccer Fields, Playgrounds, Shelters, Canal Remnants", "amenity_count": 12.0, "fee_status": "Free", "hours_status": "Day Use", "active_passive": "Mixed", "inclusiveness_score": 4.0, "chen_quality_score": 48.0}, "geometry": {"type": "Point", "coordinates": [-84.50500000000187, 39.40200000000281]}}, {"type": "Feature", "properties": {"park_name": "Voice of America", "amenity_list": "Stocked Lake, Athletic Complex, Sledding Hill, Dog Park, Lodge, Trails, Boat Rental", "amenity_count": 13.0, "fee_status": "Free*", "hours_status": "Day Use", "active_passive": "Mixed", "inclusiveness_score": 4.0, "chen_quality_score": 52.0}, "geometry": {"type": "Point", "coordinates": [-84.36300000000188, 39.3550000000028]}}, {"type": "Feature", "properties": {"park_name": "Gilmore MetroPark", "amenity_list": null, "amenity_count": null, "fee_status": null, "hours_status": null, "active_passive": null, "inclusiveness_score": null, "chen_quality_score": null}, "geometry": {"type": "Point", "coordinates": [-84.47500000000187, 39.36200000000282]}}, {"type": "Feature", "properties": {"park_name": "Forest Run", "amenity_list": "Hiking Trails, Playground, Picnic Area, Observation Platform, Creek Access, Water Fountain", "amenity_count": 8.0, "fee_status": "Free", "hours_status": "Day Use", "active_passive": "Mixed", "inclusiveness_score": 4.0, "chen_quality_score": 32.0}, "geometry": {"type": "Point", "coordinates": [-84.62000000000187, 39.324000000002826]}}, {"type": "Feature", "properties": {"park_name": "Indian Creek", "amenity_list": "Creek Access (Wading), Hiking Trails, Playground, Shelter, Picnic Tables, Fishing, Geocaching", "amenity_count": 9.0, "fee_status": "Free", "hours_status": "Day Use", "active_passive": "Mixed", "inclusiveness_score": 4.0, "chen_quality_score": 36.0}, "geometry": {"type": "Point", "coordinates": [-84.7210000000019, 39.488000000002806]}}, {"type": "Feature", "properties": {"park_name": "Governor Bebb", "amenity_list": "Pioneer Village, Campground, Cabin, Hiking Trails, Creek Access, Playground, Shelters", "amenity_count": 13.0, "fee_status": "Free*", "hours_status": "Day Use", "active_passive": "Mixed", "inclusiveness_score": 4.0, "chen_quality_score": 52.0}, "geometry": {"type": "Point", "coordinates": [-84.7670000000019, 39.32300000000283]}}, {"type": "Feature", "properties": {"park_name": "Sebald / Elk Creek", "amenity_list": "Horse Trails (9.5mi), Hiking Trails, Playgrounds (x3), Shelters (x10), Fishing, Geocaching", "amenity_count": 10.0, "fee_status": "Free", "hours_status": "Day Use", "active_passive": "Mixed", "inclusiveness_score": 4.0, "chen_quality_score": 40.0}, "geometry": {"type": "Point", "coordinates": [-84.44400000000189, 39.539000000002815]}}, {"type": "Feature", "properties": {"park_name": "Chrisholm Historic Farmstead", "amenity_list": "Historic Farmstead, Barn, Nature Playscape, Hiking Trails, Picnic Shelter, Fire Pits, Grills", "amenity_count": 11.0, "fee_status": "Free", "hours_status": "Day Use", "active_passive": "Mixed", "inclusiveness_score": 4.0, "chen_quality_score": 44.0}, "geometry": {"type": "Point", "coordinates": [-84.44100000000185, 39.47500000000283]}}, {"type": "Feature", "properties": {"park_name": "Dudley Woods", "amenity_list": "Hiking Trails, Pond, Picnic Shelter, Playground, Wildlife Watching, Creek Access, Grills, Fishing", "amenity_count": 9.0, "fee_status": "Free", "hours_status": "Day Use", "active_passive": "Mixed", "inclusiveness_score": 4.0, "chen_quality_score": 36.0}, "geometry": {"type": "Point", "coordinates": [-84.41700000000186, 39.418000000002834]}}, {"type": "Feature", "properties": {"park_name": "Bicentennial Commons", "amenity_list": "Walk/Run/Bike Trails, Geocaching, River Center, AK Pavilion, Scenic Overlook, Brick Walkways", "amenity_count": 8.0, "fee_status": "Free", "hours_status": "Day Use", "active_passive": "Mixed", "inclusiveness_score": 4.0, "chen_quality_score": 32.0}, "geometry": {"type": "Point", "coordinates": [-84.40700000000186, 39.51000000000281]}}, {"type": "Feature", "properties": {"park_name": "Meadow Ridge", "amenity_list": "Hiking/Biking Trails, Archery Range, Fishing, Paddling, Playground, Shelter, Grills, Geocaching", "amenity_count": 10.0, "fee_status": "Free", "hours_status": "Day Use", "active_passive": "Mixed", "inclusiveness_score": 4.0, "chen_quality_score": 40.0}, "geometry": {"type": "Point", "coordinates": [-84.42000000000188, 39.53000000000282]}}, {"type": "Feature", "properties": {"park_name": "Four Mile Creek", "amenity_list": "Hiking/Rec Trails, Fishing, Creek Access, Picnic Area, Parking", "amenity_count": 5.0, "fee_status": "Free", "hours_status": "Day Use", "active_passive": "Mixed", "inclusiveness_score": 4.0, "chen_quality_score": 20.0}, "geometry": {"type": "Point", "coordinates": [-84.56700000000187, 39.45800000000282]}}, {"type": "Feature", "properties": {"park_name": "Woodsdale MetroPark", "amenity_list": null, "amenity_count": null, "fee_status": null, "hours_status": null, "active_passive": null, "inclusiveness_score": null, "chen_quality_score": null}, "geometry": {"type": "Point", "coordinates": [-84.44800000000188, 39.47500000000282]}}]}