{"type": "FeatureCollection", "features": [{"type": "Feature", "properties": {"STATEFP": "39", "COUNTYFP": "017", "COUSUBFP": "59241", "COUSUBNS": "01085817", "GEOID": "3901759241", "GEOIDFQ": "0600000US3901759241", "NAME": "Oxford", "NAMELSAD": "Oxford township", "LSAD": "44", "CLASSFP": "T1", "MTFCC": "G4040", "FUNCSTAT": "A", "ALAND": 94684783, "AWATER": 843211, "INTPTLAT": "+39.5232350", "INTPTLON": "-084.7613490", "tract_count": 6, "total_population": 22891, "dist_to_park_miles": 0.6644699773385602, "LPA_CrudePrev": 25.5, "OBESITY_CrudePrev": 33.916666666666664, "MHLTH_CrudePrev": 25.05}, "geometry": {"type": "Polygon", "coordinates": [[[-84.816115, 39.477355], [-84.815712, 39.478507], [-84.814934, 39.567714], [-84.770174, 39.56763], [-84.763092, 39.566604], [-84.727575, 39.56752], [-84.703037, 39.567467], [-84.702798, 39.508062], [-84.702451, 39.504053], [-84.702505, 39.478176], [-84.711436, 39.47853], [-84.779621, 39.479105], [-84.816115, 39.477355]]]}}, {"type": "Feature", "properties": {"STATEFP": "39", "COUNTYFP": "017", "COUSUBFP": "42672", "COUSUBNS": "01085811", "GEOID": "3901742672", "GEOIDFQ": "0600000US3901742672", "NAME": "Lemon", "NAMELSAD": "Lemon township", "LSAD": "44", "CLASSFP": "T1", "MTFCC": "G4040", "FUNCSTAT": "A", "ALAND": 38265858, "AWATER": 1365576, "INTPTLAT": "+39.4477756", "INTPTLON": "-084.3939269", "tract_count": 3, "total_population": 18593, "dist_to_park_miles": 0.7229125630373897, "LPA_CrudePrev": 33.06666666666667, "OBESITY_CrudePrev": 42.86666666666667, "MHLTH_CrudePrev": 19.8}, "geometry": {"type": "Polygon", "coordinates": [[[-84.464344, 39.433657], [-84.457433, 39.435596], [-84.452868, 39.437318], [-84.451734, 39.438318], [-84.448351, 39.442885], [-84.446427, 39.444158], [-84.442792, 39.444927], [-84.440376, 39.444726], [-84.436543, 39.443857], [-84.435543, 39.444357], [-84.434853, 39.445129], [-84.433918, 39.447109], [-84.432636, 39.452244], [-84.430332, 39.457577], [-84.4296, 39.462459], [-84.426975, 39.465877], [-84.42614, 39.467674], [-84.429181, 39.467636], [-84.429513, 39.469302], [-84.430538, 39.470744], [-84.431976, 39.471657], [-84.433477, 39.47205], [-84.433399, 39.47436], [-84.4252, 39.474413], [-84.425061, 39.476866], [-84.425751, 39.477531], [-84.426792, 39.477882], [-84.429037, 39.477587], [-84.4308, 39.476812], [-84.433472, 39.476304], [-84.43585, 39.476117], [-84.437219, 39.476354], [-84.438685, 39.477047], [-84.44123, 39.479222], [-84.442106, 39.481767], [-84.439954, 39.48476], [-84.439058, 39.48689], [-84.439122, 39.488668], [-84.434203, 39.494222], [-84.423043, 39.497457], [-84.419743, 39.501157], [-84.419427, 39.500999], [-84.419386, 39.50037], [-84.420743, 39.497657], [-84.419643, 39.497757], [-84.420143, 39.497257], [-84.421007, 39.49192], [-84.411412, 39.491306], [-84.411543, 39.488357], [-84.412161, 39.486069], [-84.412699, 39.486172], [-84.413996, 39.482239], [-84.4127, 39.482], [-84.412811, 39.481669], [-84.412226, 39.481533], [-84.409538, 39.484821], [-84.409094, 39.481947], [-84.409378, 39.481781], [-84.410088, 39.479345], [-84.41321, 39.480165], [-84.414449, 39.479077], [-84.415412, 39.478729], [-84.416697, 39.474356], [-84.420231, 39.474486], [-84.420311, 39.473133], [-84.419942, 39.473117], [-84.420341, 39.470039], [-84.419298, 39.469907], [-84.419389, 39.468999], [-84.416582, 39.468932], [-84.416442, 39.471006], [-84.419136, 39.471111], [-84.419059, 39.472492], [-84.416317, 39.472393], [-84.416349, 39.471934], [-84.413977, 39.471873], [-84.413998, 39.471447], [-84.408229, 39.471206], [-84.408323, 39.469492], [-84.405225, 39.469359], [-84.405243, 39.468839], [-84.403228, 39.468749], [-84.403341, 39.466295], [-84.408381, 39.466429], [-84.408407, 39.463737], [-84.409319, 39.463517], [-84.409533, 39.4617], [-84.406989, 39.461526], [-84.403583, 39.460131], [-84.397818, 39.459818], [-84.397484, 39.465181], [-84.380843, 39.464545], [-84.380889, 39.463877], [-84.379634, 39.463269], [-84.379344, 39.464424], [-84.358901, 39.463606], [-84.359071, 39.46164], [-84.350335, 39.461114], [-84.350759, 39.461758], [-84.350358, 39.461703], [-84.34982, 39.462662], [-84.350332, 39.463094], [-84.351532, 39.463158], [-84.352669, 39.463783], [-84.351658, 39.464402], [-84.347978, 39.464517], [-84.343243, 39.473104], [-84.33954, 39.472858], [-84.339456, 39.473409], [-84.338691, 39.473352], [-84.340211, 39.456696], [-84.339939, 39.456416], [-84.336719, 39.455994], [-84.33984, 39.427458], [-84.365931, 39.429249], [-84.384077, 39.429721], [-84.464344, 39.433657]]]}}, {"type": "Feature", "properties": {"STATEFP": "39", "COUNTYFP": "017", "COUSUBFP": "69498", "COUSUBNS": "01085820", "GEOID": "3901769498", "GEOIDFQ": "0600000US3901769498", "NAME": "St. Clair", "NAMELSAD": "St. Clair township", "LSAD": "44", "CLASSFP": "T1", "MTFCC": "G4040", "FUNCSTAT": "A", "ALAND": 54511975, "AWATER": 1287763, "INTPTLAT": "+39.4487466", "INTPTLON": "-084.5367174", "tract_count": 2, "total_population": 5585, "dist_to_park_miles": 0.7154448349424357, "LPA_CrudePrev": 34.05, "OBESITY_CrudePrev": 42.8, "MHLTH_CrudePrev": 20.15}, "geometry": {"type": "MultiPolygon", "coordinates": [[[[-84.480859, 39.473068], [-84.47734, 39.473166], [-84.477331, 39.472532], [-84.48022, 39.472454], [-84.480859, 39.473068]]], [[[-84.552128, 39.420125], [-84.551975, 39.420473], [-84.551839, 39.420203], [-84.552128, 39.420125]]], [[[-84.590296, 39.441805], [-84.590101, 39.452302], [-84.584725, 39.452266], [-84.5901, 39.452398], [-84.590226, 39.479065], [-84.483598, 39.480548], [-84.483434, 39.477438], [-84.483054, 39.478816], [-84.481352, 39.47959], [-84.48082, 39.479588], [-84.480998, 39.479243], [-84.480213, 39.47925], [-84.480161, 39.478706], [-84.477407, 39.478561], [-84.477365, 39.475924], [-84.478212, 39.475907], [-84.478243, 39.476225], [-84.483333, 39.47606], [-84.483245, 39.473056], [-84.482361, 39.473027], [-84.482198, 39.468634], [-84.480306, 39.469788], [-84.481818, 39.471437], [-84.482051, 39.472541], [-84.479733, 39.470147], [-84.477327, 39.471945], [-84.477239, 39.469112], [-84.482208, 39.467007], [-84.481955, 39.465793], [-84.477102, 39.465849], [-84.476316, 39.446752], [-84.476145, 39.430115], [-84.475905, 39.429279], [-84.477164, 39.429222], [-84.480282, 39.427968], [-84.483244, 39.427657], [-84.484422, 39.427214], [-84.488744, 39.424957], [-84.494298, 39.421314], [-84.495705, 39.421211], [-84.498389, 39.421726], [-84.500167, 39.422535], [-84.503688, 39.425518], [-84.503281, 39.428832], [-84.503657, 39.431888], [-84.504087, 39.43239], [-84.507755, 39.433533], [-84.512266, 39.436407], [-84.516726, 39.436945], [-84.520699, 39.436851], [-84.524773, 39.435782], [-84.525792, 39.435168], [-84.527151, 39.433797], [-84.533146, 39.425756], [-84.534364, 39.424932], [-84.536705, 39.424196], [-84.539095, 39.424294], [-84.540457, 39.42495], [-84.540127, 39.425284], [-84.540675, 39.425524], [-84.542346, 39.426056], [-84.543403, 39.425896], [-84.544026, 39.427686], [-84.544202, 39.430888], [-84.54488, 39.43001], [-84.54448, 39.429966], [-84.544306, 39.428583], [-84.545188, 39.428544], [-84.546412, 39.425242], [-84.548216, 39.422166], [-84.548653, 39.42242], [-84.549898, 39.421487], [-84.550289, 39.421801], [-84.552127, 39.420761], [-84.552229, 39.421992], [-84.552576, 39.421508], [-84.552319, 39.422793], [-84.552349, 39.431493], [-84.554828, 39.431485], [-84.554899, 39.435758], [-84.571485, 39.435752], [-84.571499, 39.437428], [-84.574007, 39.436985], [-84.574029, 39.438199], [-84.580702, 39.438194], [-84.580754, 39.441301], [-84.582827, 39.441313], [-84.583038, 39.44286], [-84.585204, 39.442862], [-84.585205, 39.441833], [-84.586598, 39.441825], [-84.586582, 39.442947], [-84.588649, 39.442953], [-84.588666, 39.44182], [-84.590296, 39.441805]]], [[[-84.591557, 39.352072], [-84.590546, 39.353856], [-84.590746, 39.354256], [-84.590319, 39.355881], [-84.590281, 39.362959], [-84.58984, 39.368328], [-84.589852, 39.38686], [-84.588786, 39.386811], [-84.58867, 39.38261], [-84.583505, 39.382077], [-84.58288, 39.381449], [-84.582394, 39.381502], [-84.582408, 39.379966], [-84.579019, 39.380056], [-84.578961, 39.377096], [-84.575765, 39.377202], [-84.576576, 39.380901], [-84.57553, 39.384367], [-84.571939, 39.384313], [-84.572629, 39.38728], [-84.572786, 39.3898], [-84.573329, 39.3899], [-84.573071, 39.391819], [-84.575897, 39.391792], [-84.575845, 39.393157], [-84.573081, 39.393152], [-84.573083, 39.394252], [-84.572282, 39.394118], [-84.572432, 39.391831], [-84.571782, 39.391718], [-84.571811, 39.389546], [-84.570101, 39.383467], [-84.569209, 39.383477], [-84.568364, 39.3818], [-84.571071, 39.381273], [-84.569005, 39.377449], [-84.569469, 39.377219], [-84.569359, 39.376126], [-84.570277, 39.374331], [-84.575555, 39.374305], [-84.575928, 39.368043], [-84.575361, 39.368032], [-84.575391, 39.367549], [-84.573838, 39.367559], [-84.575202, 39.366048], [-84.57747, 39.361448], [-84.579146, 39.359856], [-84.590046, 39.353556], [-84.591557, 39.352072]]]]}}, {"type": "Feature", "properties": {"STATEFP": "39", "COUNTYFP": "017", "COUSUBFP": "50162", "COUSUBNS": "01085815", "GEOID": "3901750162", "GEOIDFQ": "0600000US3901750162", "NAME": "Milford", "NAMELSAD": "Milford township", "LSAD": "44", "CLASSFP": "T1", "MTFCC": "G4040", "FUNCSTAT": "A", "ALAND": 94803776, "AWATER": 397298, "INTPTLAT": "+39.5188631", "INTPTLON": "-084.6322395", "tract_count": 1, "total_population": 3523, "dist_to_park_miles": 1.5308554232785598, "LPA_CrudePrev": 31.0, "OBESITY_CrudePrev": 41.2, "MHLTH_CrudePrev": 18.2}, "geometry": {"type": "Polygon", "coordinates": [[[-84.703037, 39.567467], [-84.591531, 39.567532], [-84.590226, 39.479065], [-84.628413, 39.478767], [-84.641176, 39.478101], [-84.66465, 39.477854], [-84.690751, 39.477654], [-84.697039, 39.478208], [-84.702505, 39.478176], [-84.702451, 39.504053], [-84.702798, 39.508062], [-84.703037, 39.567467]]]}}, {"type": "Feature", "properties": {"STATEFP": "39", "COUNTYFP": "017", "COUSUBFP": "33250", "COUSUBNS": "01085810", "GEOID": "3901733250", "GEOIDFQ": "0600000US3901733250", "NAME": "Hanover", "NAMELSAD": "Hanover township", "LSAD": "44", "CLASSFP": "T1", "MTFCC": "G4040", "FUNCSTAT": "A", "ALAND": 83182334, "AWATER": 145077, "INTPTLAT": "+39.4359682", "INTPTLON": "-084.6549354", "tract_count": 1, "total_population": 7616, "dist_to_park_miles": 1.5840796868303724, "LPA_CrudePrev": 27.6, "OBESITY_CrudePrev": 38.4, "MHLTH_CrudePrev": 16.6}, "geometry": {"type": "MultiPolygon", "coordinates": [[[[-84.593991, 39.421904], [-84.593016, 39.421593], [-84.59301, 39.420676], [-84.593979, 39.420665], [-84.593991, 39.421904]]], [[[-84.595633, 39.42267], [-84.594635, 39.422666], [-84.594619, 39.420657], [-84.595662, 39.420649], [-84.595633, 39.42267]]], [[[-84.598614, 39.422658], [-84.597405, 39.422673], [-84.597458, 39.420638], [-84.598662, 39.420636], [-84.598614, 39.422658]]], [[[-84.602246, 39.420629], [-84.602227, 39.423269], [-84.599764, 39.423425], [-84.599767, 39.420632], [-84.601199, 39.420626], [-84.601142, 39.422471], [-84.60195, 39.422471], [-84.601967, 39.420628], [-84.602246, 39.420629]]], [[[-84.703315, 39.391151], [-84.70272, 39.405763], [-84.702541, 39.420218], [-84.703246, 39.437143], [-84.70313, 39.455167], [-84.702733, 39.46387], [-84.703019, 39.472648], [-84.702505, 39.478176], [-84.697039, 39.478208], [-84.690751, 39.477654], [-84.66465, 39.477854], [-84.641176, 39.478101], [-84.628413, 39.478767], [-84.590226, 39.479065], [-84.590092, 39.453335], [-84.592734, 39.456271], [-84.592733, 39.456994], [-84.59684, 39.45692], [-84.596827, 39.456154], [-84.601658, 39.456068], [-84.600919, 39.453922], [-84.601196, 39.453802], [-84.600992, 39.453261], [-84.602553, 39.449611], [-84.602375, 39.443847], [-84.599757, 39.443872], [-84.59975, 39.44978], [-84.593575, 39.449813], [-84.593467, 39.442512], [-84.593154, 39.442513], [-84.59314, 39.439675], [-84.596274, 39.439648], [-84.59631, 39.442502], [-84.597736, 39.442493], [-84.597708, 39.436591], [-84.599681, 39.436534], [-84.599676, 39.436095], [-84.597717, 39.43613], [-84.597673, 39.435869], [-84.596374, 39.435731], [-84.596352, 39.435226], [-84.599769, 39.435199], [-84.599775, 39.430157], [-84.600253, 39.429896], [-84.599945, 39.429412], [-84.602497, 39.43018], [-84.602494, 39.427913], [-84.609126, 39.427943], [-84.609147, 39.423542], [-84.614193, 39.423543], [-84.614201, 39.42203], [-84.612073, 39.422038], [-84.612076, 39.421307], [-84.611015, 39.421312], [-84.611018, 39.420794], [-84.609305, 39.420675], [-84.609157, 39.415809], [-84.612654, 39.415677], [-84.612596, 39.413662], [-84.6153, 39.414302], [-84.618398, 39.414403], [-84.618313, 39.410653], [-84.623017, 39.41057], [-84.622997, 39.409404], [-84.621732, 39.40942], [-84.621673, 39.40604], [-84.620996, 39.40605], [-84.621021, 39.407247], [-84.620306, 39.407256], [-84.620298, 39.406829], [-84.619911, 39.406831], [-84.619894, 39.406067], [-84.618945, 39.406081], [-84.618959, 39.407271], [-84.618256, 39.407281], [-84.618168, 39.398768], [-84.612067, 39.39878], [-84.612078, 39.401359], [-84.609959, 39.40137], [-84.60986, 39.398336], [-84.609924, 39.398739], [-84.611853, 39.398786], [-84.612421, 39.398271], [-84.612416, 39.396972], [-84.609814, 39.396983], [-84.609726, 39.394224], [-84.610055, 39.394226], [-84.610049, 39.393243], [-84.609531, 39.393247], [-84.609489, 39.391526], [-84.652594, 39.391258], [-84.655297, 39.391481], [-84.659297, 39.391115], [-84.703315, 39.391151]]]]}}, {"type": "Feature", "properties": {"STATEFP": "39", "COUNTYFP": "017", "COUSUBFP": "43050", "COUSUBNS": "01085812", "GEOID": "3901743050", "GEOIDFQ": "0600000US3901743050", "NAME": "Liberty", "NAMELSAD": "Liberty township", "LSAD": "44", "CLASSFP": "T1", "MTFCC": "G4040", "FUNCSTAT": "A", "ALAND": 75743700, "AWATER": 78339, "INTPTLAT": "+39.3992646", "INTPTLON": "-084.4108485", "tract_count": 8, "total_population": 44213, "dist_to_park_miles": 0.6856272097390694, "LPA_CrudePrev": 20.9125, "OBESITY_CrudePrev": 36.1375, "MHLTH_CrudePrev": 15.175}, "geometry": {"type": "Polygon", "coordinates": [[[-84.478634, 39.374704], [-84.474544, 39.429657], [-84.472742, 39.430349], [-84.471151, 39.431711], [-84.464344, 39.433657], [-84.463144, 39.433657], [-84.384077, 39.429721], [-84.364327, 39.429169], [-84.33984, 39.427458], [-84.346331, 39.368446], [-84.400916, 39.370977], [-84.419659, 39.372199], [-84.478634, 39.374704]]]}}, {"type": "Feature", "properties": {"STATEFP": "39", "COUNTYFP": "017", "COUSUBFP": "49840", "COUSUBNS": "01085814", "GEOID": "3901749840", "GEOIDFQ": "0600000US3901749840", "NAME": "Middletown", "NAMELSAD": "Middletown city", "LSAD": "25", "CLASSFP": "C5", "MTFCC": "G4040", "FUNCSTAT": "F", "ALAND": 57198754, "AWATER": 837855, "INTPTLAT": "+39.5029871", "INTPTLON": "-084.3725970", "tract_count": 16, "total_population": 45502, "dist_to_park_miles": 0.6692033399864357, "LPA_CrudePrev": 35.3625, "OBESITY_CrudePrev": 44.4625, "MHLTH_CrudePrev": 20.6}, "geometry": {"type": "Polygon", "coordinates": [[[-84.421007, 39.49192], [-84.420143, 39.497257], [-84.419643, 39.497757], [-84.420743, 39.497657], [-84.419386, 39.50037], [-84.419427, 39.500999], [-84.419743, 39.501157], [-84.417436, 39.50767], [-84.418033, 39.510976], [-84.41613, 39.513883], [-84.414025, 39.518392], [-84.412284, 39.521209], [-84.411743, 39.524457], [-84.412543, 39.528657], [-84.411143, 39.533057], [-84.406643, 39.536557], [-84.400643, 39.536757], [-84.396443, 39.537757], [-84.391543, 39.537457], [-84.389231, 39.537756], [-84.383967, 39.539849], [-84.380177, 39.539248], [-84.377484, 39.540047], [-84.375698, 39.544847], [-84.372508, 39.547346], [-84.366727, 39.545836], [-84.364736, 39.543843], [-84.364305, 39.54381], [-84.362922, 39.542696], [-84.360743, 39.542168], [-84.353864, 39.544456], [-84.347833, 39.545249], [-84.331682, 39.549213], [-84.332089, 39.547235], [-84.336086, 39.504937], [-84.338691, 39.473352], [-84.339456, 39.473409], [-84.33954, 39.472858], [-84.343243, 39.473104], [-84.347978, 39.464517], [-84.351658, 39.464402], [-84.352669, 39.463783], [-84.351532, 39.463158], [-84.350332, 39.463094], [-84.34982, 39.462662], [-84.350358, 39.461703], [-84.350759, 39.461758], [-84.350335, 39.461114], [-84.359071, 39.46164], [-84.358901, 39.463606], [-84.379344, 39.464424], [-84.379634, 39.463269], [-84.380889, 39.463877], [-84.380843, 39.464545], [-84.397484, 39.465181], [-84.397818, 39.459818], [-84.403583, 39.460131], [-84.406989, 39.461526], [-84.409533, 39.4617], [-84.409319, 39.463517], [-84.408407, 39.463737], [-84.408381, 39.466429], [-84.403341, 39.466295], [-84.403228, 39.468749], [-84.405243, 39.468839], [-84.405225, 39.469359], [-84.408323, 39.469492], [-84.408229, 39.471206], [-84.413998, 39.471447], [-84.413977, 39.471873], [-84.416349, 39.471934], [-84.416317, 39.472393], [-84.419059, 39.472492], [-84.419136, 39.471111], [-84.416442, 39.471006], [-84.416582, 39.468932], [-84.419389, 39.468999], [-84.419298, 39.469907], [-84.420341, 39.470039], [-84.419942, 39.473117], [-84.420311, 39.473133], [-84.420231, 39.474486], [-84.416697, 39.474356], [-84.415412, 39.478729], [-84.414449, 39.479077], [-84.41321, 39.480165], [-84.410088, 39.479345], [-84.409378, 39.481781], [-84.409094, 39.481947], [-84.409538, 39.484821], [-84.412226, 39.481533], [-84.412811, 39.481669], [-84.4127, 39.482], [-84.413996, 39.482239], [-84.412699, 39.486172], [-84.412161, 39.486069], [-84.411543, 39.488357], [-84.411412, 39.491306], [-84.421007, 39.49192]]]}}, {"type": "Feature", "properties": {"STATEFP": "39", "COUNTYFP": "017", "COUSUBFP": "52080", "COUSUBNS": "01085816", "GEOID": "3901752080", "GEOIDFQ": "0600000US3901752080", "NAME": "Morgan", "NAMELSAD": "Morgan township", "LSAD": "44", "CLASSFP": "T1", "MTFCC": "G4040", "FUNCSTAT": "A", "ALAND": 95242330, "AWATER": 2742, "INTPTLAT": "+39.3514010", "INTPTLON": "-084.7493778", "tract_count": 1, "total_population": 5345, "dist_to_park_miles": 0.5822973732764114, "LPA_CrudePrev": 25.3, "OBESITY_CrudePrev": 37.7, "MHLTH_CrudePrev": 16.4}, "geometry": {"type": "Polygon", "coordinates": [[[-84.81945, 39.305153], [-84.818696, 39.352037], [-84.817647, 39.391816], [-84.78083, 39.391326], [-84.703315, 39.391151], [-84.703241, 39.349268], [-84.703675, 39.347879], [-84.703025, 39.343903], [-84.703332, 39.336763], [-84.70328, 39.304748], [-84.766524, 39.304868], [-84.79595, 39.305654], [-84.81945, 39.305153]]]}}, {"type": "Feature", "properties": {"STATEFP": "39", "COUNTYFP": "017", "COUSUBFP": "66096", "COUSUBNS": "01085818", "GEOID": "3901766096", "GEOIDFQ": "0600000US3901766096", "NAME": "Reily", "NAMELSAD": "Reily township", "LSAD": "44", "CLASSFP": "T1", "MTFCC": "G4040", "FUNCSTAT": "A", "ALAND": 94997852, "AWATER": 0, "INTPTLAT": "+39.4348273", "INTPTLON": "-084.7597656", "tract_count": 1, "total_population": 5238, "dist_to_park_miles": 0.7539485066444658, "LPA_CrudePrev": 28.1, "OBESITY_CrudePrev": 38.3, "MHLTH_CrudePrev": 17.7}, "geometry": {"type": "Polygon", "coordinates": [[[-84.817647, 39.391816], [-84.816116, 39.477342], [-84.779621, 39.479105], [-84.711436, 39.47853], [-84.702505, 39.478176], [-84.703019, 39.472648], [-84.702733, 39.46387], [-84.70313, 39.455167], [-84.703246, 39.437143], [-84.702541, 39.420218], [-84.70272, 39.405763], [-84.703315, 39.391151], [-84.78083, 39.391326], [-84.817157, 39.391766], [-84.817647, 39.391816]]]}}, {"type": "Feature", "properties": {"STATEFP": "39", "COUNTYFP": "017", "COUSUBFP": "77322", "COUSUBNS": "01085821", "GEOID": "3901777322", "GEOIDFQ": "0600000US3901777322", "NAME": "Trenton", "NAMELSAD": "Trenton city", "LSAD": "25", "CLASSFP": "C2", "MTFCC": "G4040", "FUNCSTAT": "F", "ALAND": 12788306, "AWATER": 11604, "INTPTLAT": "+39.4788078", "INTPTLON": "-084.4663730", "tract_count": 2, "total_population": 13800, "dist_to_park_miles": 0.39001024916229576, "LPA_CrudePrev": 27.450000000000003, "OBESITY_CrudePrev": 39.8, "MHLTH_CrudePrev": 19.9}, "geometry": {"type": "Polygon", "coordinates": [[[-84.483598, 39.480548], [-84.480489, 39.480607], [-84.4792, 39.482776], [-84.479235, 39.484305], [-84.479623, 39.485391], [-84.477522, 39.485337], [-84.477624, 39.495339], [-84.474256, 39.495388], [-84.474251, 39.499989], [-84.472616, 39.500011], [-84.472638, 39.500817], [-84.472328, 39.50082], [-84.472287, 39.498647], [-84.471515, 39.498683], [-84.471636, 39.497978], [-84.469862, 39.498028], [-84.469837, 39.49974], [-84.46888, 39.499784], [-84.468879, 39.500837], [-84.467409, 39.500842], [-84.467323, 39.500035], [-84.461262, 39.500462], [-84.461177, 39.500147], [-84.461565, 39.500118], [-84.460787, 39.497462], [-84.460923, 39.495749], [-84.459701, 39.495748], [-84.45965, 39.495451], [-84.453646, 39.495455], [-84.452745, 39.494556], [-84.448139, 39.494664], [-84.448174, 39.495908], [-84.433651, 39.495824], [-84.43685, 39.492387], [-84.440661, 39.489548], [-84.439426, 39.488807], [-84.439864, 39.488182], [-84.440009, 39.486654], [-84.440771, 39.484749], [-84.442777, 39.482188], [-84.442802, 39.481606], [-84.443791, 39.481385], [-84.44409, 39.479654], [-84.445355, 39.479654], [-84.445355, 39.47877], [-84.446502, 39.478748], [-84.446801, 39.479289], [-84.446793, 39.476542], [-84.448197, 39.476507], [-84.4481, 39.472909], [-84.449148, 39.472885], [-84.44915, 39.465376], [-84.451737, 39.465279], [-84.448926, 39.457529], [-84.456136, 39.457501], [-84.455974, 39.44988], [-84.458432, 39.450784], [-84.461659, 39.450753], [-84.461793, 39.454729], [-84.465075, 39.454809], [-84.465114, 39.457158], [-84.476715, 39.456919], [-84.477102, 39.465849], [-84.481955, 39.465793], [-84.482208, 39.467007], [-84.474744, 39.470172], [-84.475113, 39.470616], [-84.476428, 39.470323], [-84.476984, 39.471165], [-84.476172, 39.471945], [-84.476734, 39.472395], [-84.479733, 39.470147], [-84.482051, 39.472541], [-84.481818, 39.471437], [-84.480306, 39.469788], [-84.482198, 39.468634], [-84.482361, 39.473027], [-84.483245, 39.473056], [-84.483333, 39.47606], [-84.478243, 39.476225], [-84.478212, 39.475907], [-84.477365, 39.475924], [-84.477407, 39.478561], [-84.480161, 39.478706], [-84.480213, 39.47925], [-84.480998, 39.479243], [-84.48082, 39.479588], [-84.481352, 39.47959], [-84.483054, 39.478816], [-84.483434, 39.477438], [-84.483598, 39.480548]], [[-84.480996, 39.473064], [-84.48022, 39.472454], [-84.477331, 39.472532], [-84.47734, 39.473166], [-84.480996, 39.473064]], [[-84.47655, 39.472532], [-84.475999, 39.472096], [-84.474286, 39.473342], [-84.472141, 39.474109], [-84.472357, 39.474683], [-84.474546, 39.473989], [-84.47655, 39.472532]], [[-84.472145, 39.474743], [-84.471914, 39.474176], [-84.471523, 39.4743], [-84.47062, 39.471645], [-84.466141, 39.473588], [-84.463296, 39.473558], [-84.463406, 39.478721], [-84.467721, 39.478569], [-84.467637, 39.476018], [-84.472145, 39.474743]], [[-84.464114, 39.460493], [-84.461846, 39.46036], [-84.461829, 39.462016], [-84.464148, 39.462045], [-84.464114, 39.460493]], [[-84.452652, 39.486454], [-84.450888, 39.486392], [-84.450935, 39.487014], [-84.451264, 39.487006], [-84.451535, 39.487722], [-84.45129, 39.487989], [-84.446061, 39.490021], [-84.446928, 39.491621], [-84.447195, 39.490501], [-84.451707, 39.489814], [-84.451741, 39.48744], [-84.452652, 39.486454]]]}}, {"type": "Feature", "properties": {"STATEFP": "39", "COUNTYFP": "017", "COUSUBFP": "82082", "COUSUBNS": "01085823", "GEOID": "3901782082", "GEOIDFQ": "0600000US3901782082", "NAME": "Wayne", "NAMELSAD": "Wayne township", "LSAD": "44", "CLASSFP": "T1", "MTFCC": "G4040", "FUNCSTAT": "A", "ALAND": 94857525, "AWATER": 83053, "INTPTLAT": "+39.5261726", "INTPTLON": "-084.5397440", "tract_count": 1, "total_population": 4378, "dist_to_park_miles": 1.6110366552761506, "LPA_CrudePrev": 26.7, "OBESITY_CrudePrev": 38.3, "MHLTH_CrudePrev": 17.1}, "geometry": {"type": "Polygon", "coordinates": [[[-84.591531, 39.567532], [-84.498016, 39.568283], [-84.478927, 39.56879], [-84.478157, 39.541626], [-84.477522, 39.485337], [-84.479623, 39.485391], [-84.479117, 39.483401], [-84.47998, 39.481239], [-84.480489, 39.480607], [-84.497196, 39.480275], [-84.590226, 39.479065], [-84.591531, 39.567532]]]}}, {"type": "Feature", "properties": {"STATEFP": "39", "COUNTYFP": "017", "COUSUBFP": "83150", "COUSUBNS": "01085822", "GEOID": "3901783150", "GEOIDFQ": "0600000US3901783150", "NAME": "West Chester", "NAMELSAD": "West Chester township", "LSAD": "44", "CLASSFP": "T1", "MTFCC": "G4040", "FUNCSTAT": "A", "ALAND": 92186698, "AWATER": 56283, "INTPTLAT": "+39.3381939", "INTPTLON": "-084.4171035", "tract_count": 13, "total_population": 64616, "dist_to_park_miles": 0.7515076980656359, "LPA_CrudePrev": 22.96153846153846, "OBESITY_CrudePrev": 36.05384615384615, "MHLTH_CrudePrev": 15.0}, "geometry": {"type": "Polygon", "coordinates": [[[-84.484573, 39.301606], [-84.483482, 39.31377], [-84.477204, 39.314387], [-84.477013, 39.31665], [-84.477306, 39.316624], [-84.476882, 39.322066], [-84.482828, 39.321512], [-84.481743, 39.337657], [-84.480766, 39.347218], [-84.480443, 39.347657], [-84.479948, 39.361973], [-84.478634, 39.374704], [-84.419659, 39.372199], [-84.400916, 39.370977], [-84.346331, 39.368446], [-84.353209, 39.292287], [-84.3707, 39.294389], [-84.391125, 39.297585], [-84.409335, 39.297858], [-84.410254, 39.298238], [-84.428363, 39.298659], [-84.465455, 39.302922], [-84.484573, 39.301606]]]}}, {"type": "Feature", "properties": {"STATEFP": "39", "COUNTYFP": "017", "COUSUBFP": "25970", "COUSUBNS": "01085670", "GEOID": "3901725970", "GEOIDFQ": "0600000US3901725970", "NAME": "Fairfield", "NAMELSAD": "Fairfield city", "LSAD": "25", "CLASSFP": "C5", "MTFCC": "G4040", "FUNCSTAT": "F", "ALAND": 53948297, "AWATER": 224222, "INTPTLAT": "+39.3314204", "INTPTLON": "-084.5427156", "tract_count": 13, "total_population": 63825, "dist_to_park_miles": 0.8942000539903294, "LPA_CrudePrev": 27.784615384615385, "OBESITY_CrudePrev": 39.353846153846156, "MHLTH_CrudePrev": 16.876923076923077}, "geometry": {"type": "Polygon", "coordinates": [[[-84.630396, 39.31627], [-84.628843, 39.317663], [-84.625717, 39.319518], [-84.621045, 39.3208], [-84.618411, 39.320709], [-84.617312, 39.320297], [-84.613212, 39.317378], [-84.610603, 39.316798], [-84.607902, 39.317187], [-84.606635, 39.317912], [-84.606884, 39.318713], [-84.604768, 39.319793], [-84.601379, 39.320569], [-84.599883, 39.321446], [-84.599512, 39.321987], [-84.599239, 39.323952], [-84.598403, 39.32378], [-84.597606, 39.324703], [-84.596766, 39.339515], [-84.592587, 39.34088], [-84.592219, 39.343521], [-84.591846, 39.344156], [-84.593446, 39.348856], [-84.592372, 39.350646], [-84.580665, 39.350057], [-84.58055, 39.351708], [-84.576024, 39.351473], [-84.575641, 39.355624], [-84.578911, 39.355805], [-84.576462, 39.359246], [-84.575361, 39.358665], [-84.575558, 39.356567], [-84.573647, 39.357303], [-84.573588, 39.357886], [-84.573088, 39.357855], [-84.573052, 39.35831], [-84.56929, 39.357736], [-84.569035, 39.360226], [-84.567435, 39.360141], [-84.567209, 39.3637], [-84.563884, 39.363529], [-84.56426, 39.365087], [-84.563561, 39.365101], [-84.563178, 39.363504], [-84.562509, 39.363479], [-84.561995, 39.361478], [-84.562083, 39.359934], [-84.564495, 39.358306], [-84.566546, 39.3576], [-84.566639, 39.355103], [-84.563852, 39.354951], [-84.563855, 39.352679], [-84.562913, 39.352678], [-84.56278, 39.354232], [-84.561018, 39.354136], [-84.560964, 39.354785], [-84.559847, 39.354723], [-84.559909, 39.354084], [-84.559504, 39.354067], [-84.559532, 39.353709], [-84.558729, 39.353664], [-84.558795, 39.352665], [-84.551496, 39.352105], [-84.551423, 39.353545], [-84.544003, 39.353033], [-84.543813, 39.356736], [-84.542201, 39.356605], [-84.541879, 39.359306], [-84.543915, 39.363653], [-84.542745, 39.363833], [-84.544905, 39.366707], [-84.537018, 39.366156], [-84.518997, 39.360553], [-84.520495, 39.342519], [-84.51013, 39.334497], [-84.50286, 39.335916], [-84.502459, 39.343312], [-84.497001, 39.341929], [-84.496602, 39.348088], [-84.495289, 39.349112], [-84.491253, 39.348208], [-84.491149, 39.351077], [-84.492218, 39.35108], [-84.49224, 39.351906], [-84.501239, 39.350625], [-84.503215, 39.360464], [-84.503545, 39.360998], [-84.50343, 39.362594], [-84.500998, 39.361913], [-84.500693, 39.364706], [-84.494551, 39.364499], [-84.494479, 39.365466], [-84.489508, 39.36524], [-84.489685, 39.36268], [-84.491519, 39.362514], [-84.491562, 39.362313], [-84.491804, 39.356402], [-84.491119, 39.355035], [-84.490778, 39.352182], [-84.488566, 39.35145], [-84.480766, 39.347218], [-84.481743, 39.337657], [-84.482828, 39.321512], [-84.476882, 39.322066], [-84.477204, 39.314387], [-84.483482, 39.31377], [-84.484573, 39.301606], [-84.485147, 39.301546], [-84.504644, 39.305957], [-84.523544, 39.303257], [-84.542391, 39.306256], [-84.562347, 39.308079], [-84.579506, 39.308006], [-84.598746, 39.308556], [-84.598566, 39.311342], [-84.60908, 39.31288], [-84.608577, 39.311855], [-84.608746, 39.310156], [-84.609664, 39.31064], [-84.609231, 39.311234], [-84.609303, 39.312109], [-84.609792, 39.31223], [-84.610515, 39.313055], [-84.616358, 39.313749], [-84.616202, 39.315213], [-84.621034, 39.315034], [-84.621086, 39.314239], [-84.621299, 39.314229], [-84.621212, 39.314979], [-84.625411, 39.314203], [-84.62605, 39.314319], [-84.627567, 39.313674], [-84.629402, 39.315938], [-84.630396, 39.31627]], [[-84.605349, 39.317702], [-84.603941, 39.316771], [-84.599501, 39.316127], [-84.599444, 39.316364], [-84.602359, 39.319303], [-84.605349, 39.317702]]]}}, {"type": "Feature", "properties": {"STATEFP": "39", "COUNTYFP": "017", "COUSUBFP": "33012", "COUSUBNS": "01085809", "GEOID": "3901733012", "GEOIDFQ": "0600000US3901733012", "NAME": "Hamilton", "NAMELSAD": "Hamilton city", "LSAD": "25", "CLASSFP": "C5", "MTFCC": "G4040", "FUNCSTAT": "F", "ALAND": 55555548, "AWATER": 1146868, "INTPTLAT": "+39.3934281", "INTPTLON": "-084.5657543", "tract_count": 14, "total_population": 65389, "dist_to_park_miles": 1.0071329524136305, "LPA_CrudePrev": 35.68571428571429, "OBESITY_CrudePrev": 44.76428571428572, "MHLTH_CrudePrev": 20.99285714285714}, "geometry": {"type": "Polygon", "coordinates": [[[-84.627805, 39.383956], [-84.62043, 39.384075], [-84.618291, 39.386034], [-84.618407, 39.390063], [-84.609039, 39.390459], [-84.609068, 39.391529], [-84.609489, 39.391526], [-84.609531, 39.393247], [-84.610049, 39.393243], [-84.610055, 39.394226], [-84.609726, 39.394224], [-84.609814, 39.396983], [-84.612416, 39.396972], [-84.612421, 39.398271], [-84.611853, 39.398786], [-84.609924, 39.398739], [-84.60986, 39.398336], [-84.609959, 39.40137], [-84.612078, 39.401359], [-84.612067, 39.39878], [-84.618168, 39.398768], [-84.618256, 39.407281], [-84.618959, 39.407271], [-84.618945, 39.406081], [-84.619894, 39.406067], [-84.619911, 39.406831], [-84.620298, 39.406829], [-84.620306, 39.407256], [-84.621021, 39.407247], [-84.620996, 39.40605], [-84.621673, 39.40604], [-84.621732, 39.40942], [-84.622997, 39.409404], [-84.623017, 39.41057], [-84.618313, 39.410653], [-84.618398, 39.414403], [-84.6153, 39.414302], [-84.612596, 39.413662], [-84.612654, 39.415677], [-84.609157, 39.415809], [-84.609305, 39.420675], [-84.611018, 39.420794], [-84.611015, 39.421312], [-84.612076, 39.421307], [-84.612073, 39.422038], [-84.614201, 39.42203], [-84.614193, 39.423543], [-84.609147, 39.423542], [-84.609126, 39.427943], [-84.602494, 39.427913], [-84.602497, 39.43018], [-84.599945, 39.429412], [-84.600253, 39.429896], [-84.599775, 39.430157], [-84.599769, 39.435199], [-84.596352, 39.435226], [-84.596374, 39.435731], [-84.597673, 39.435869], [-84.597717, 39.43613], [-84.599676, 39.436095], [-84.599681, 39.436534], [-84.597708, 39.436591], [-84.597736, 39.442493], [-84.59631, 39.442502], [-84.596274, 39.439648], [-84.59314, 39.439675], [-84.593154, 39.442513], [-84.593467, 39.442512], [-84.593575, 39.449813], [-84.59975, 39.44978], [-84.599757, 39.443872], [-84.602375, 39.443847], [-84.602553, 39.449611], [-84.600992, 39.453261], [-84.601196, 39.453802], [-84.600919, 39.453922], [-84.601658, 39.456068], [-84.596827, 39.456154], [-84.59684, 39.45692], [-84.592733, 39.456994], [-84.592734, 39.456271], [-84.590092, 39.453335], [-84.5901, 39.452398], [-84.584725, 39.452266], [-84.590101, 39.452302], [-84.590296, 39.441805], [-84.588666, 39.44182], [-84.588649, 39.442953], [-84.586582, 39.442947], [-84.586598, 39.441825], [-84.585205, 39.441833], [-84.585204, 39.442862], [-84.583038, 39.44286], [-84.582827, 39.441313], [-84.580754, 39.441301], [-84.580702, 39.438194], [-84.574029, 39.438199], [-84.574007, 39.436985], [-84.571499, 39.437428], [-84.571485, 39.435752], [-84.554899, 39.435758], [-84.554828, 39.431485], [-84.552349, 39.431493], [-84.552319, 39.422793], [-84.552576, 39.421508], [-84.552229, 39.421992], [-84.552127, 39.420761], [-84.550289, 39.421801], [-84.549898, 39.421487], [-84.548653, 39.42242], [-84.548216, 39.422166], [-84.546412, 39.425242], [-84.545188, 39.428544], [-84.544306, 39.428583], [-84.54448, 39.429966], [-84.54488, 39.43001], [-84.544202, 39.430888], [-84.544026, 39.427686], [-84.543403, 39.425896], [-84.542346, 39.426056], [-84.540127, 39.425284], [-84.550498, 39.415289], [-84.552725, 39.413596], [-84.551605, 39.413156], [-84.553225, 39.410396], [-84.552548, 39.41024], [-84.550964, 39.410579], [-84.551246, 39.410156], [-84.547946, 39.409156], [-84.540641, 39.40869], [-84.536656, 39.410936], [-84.535901, 39.411049], [-84.535309, 39.410826], [-84.534555, 39.409243], [-84.533292, 39.408504], [-84.53351, 39.406393], [-84.533225, 39.406152], [-84.53044, 39.407934], [-84.529862, 39.407881], [-84.529445, 39.405035], [-84.530011, 39.404933], [-84.529729, 39.404001], [-84.533694, 39.403234], [-84.53379, 39.402079], [-84.531485, 39.401958], [-84.532471, 39.392416], [-84.537286, 39.392656], [-84.538953, 39.392278], [-84.539039, 39.39157], [-84.539117, 39.390732], [-84.535836, 39.390565], [-84.535672, 39.39249], [-84.535445, 39.392478], [-84.535624, 39.390553], [-84.53504, 39.390519], [-84.534747, 39.392431], [-84.531669, 39.392248], [-84.532417, 39.385101], [-84.533724, 39.385289], [-84.533952, 39.383102], [-84.5357, 39.38321], [-84.536221, 39.381819], [-84.535929, 39.380725], [-84.536604, 39.380755], [-84.53697, 39.377507], [-84.539862, 39.377658], [-84.539897, 39.377332], [-84.540526, 39.377365], [-84.540619, 39.37638], [-84.546353, 39.376754], [-84.546186, 39.373614], [-84.545207, 39.373511], [-84.544974, 39.371454], [-84.536831, 39.371289], [-84.536752, 39.37231], [-84.530144, 39.37089], [-84.529654, 39.37668], [-84.526764, 39.37474], [-84.526223, 39.375844], [-84.526426, 39.377356], [-84.523564, 39.377188], [-84.523406, 39.378769], [-84.521796, 39.378568], [-84.521698, 39.379491], [-84.50741, 39.378654], [-84.507372, 39.376888], [-84.505983, 39.369879], [-84.507201, 39.369938], [-84.507574, 39.367837], [-84.507178, 39.365573], [-84.507779, 39.364174], [-84.503434, 39.362686], [-84.503545, 39.360998], [-84.503215, 39.360464], [-84.501239, 39.350625], [-84.49224, 39.351906], [-84.492218, 39.35108], [-84.491149, 39.351077], [-84.491253, 39.348208], [-84.495289, 39.349112], [-84.496602, 39.348088], [-84.497001, 39.341929], [-84.502459, 39.343312], [-84.50286, 39.335916], [-84.51013, 39.334497], [-84.520495, 39.342519], [-84.518997, 39.360553], [-84.537018, 39.366156], [-84.544905, 39.366707], [-84.542745, 39.363833], [-84.543915, 39.363653], [-84.541879, 39.359306], [-84.542201, 39.356605], [-84.543813, 39.356736], [-84.544003, 39.353033], [-84.551423, 39.353545], [-84.551496, 39.352105], [-84.558795, 39.352665], [-84.558729, 39.353664], [-84.559532, 39.353709], [-84.559504, 39.354067], [-84.559909, 39.354084], [-84.559847, 39.354723], [-84.560964, 39.354785], [-84.561018, 39.354136], [-84.56278, 39.354232], [-84.562913, 39.352678], [-84.563855, 39.352679], [-84.563852, 39.354951], [-84.566639, 39.355103], [-84.566546, 39.3576], [-84.564495, 39.358306], [-84.562083, 39.359934], [-84.561995, 39.361478], [-84.562509, 39.363479], [-84.563178, 39.363504], [-84.563561, 39.365101], [-84.56426, 39.365087], [-84.563884, 39.363529], [-84.567209, 39.3637], [-84.567435, 39.360141], [-84.569035, 39.360226], [-84.56929, 39.357736], [-84.573052, 39.35831], [-84.573088, 39.357855], [-84.573588, 39.357886], [-84.573647, 39.357303], [-84.575558, 39.356567], [-84.575361, 39.358665], [-84.576462, 39.359246], [-84.578911, 39.355805], [-84.575641, 39.355624], [-84.576024, 39.351473], [-84.58055, 39.351708], [-84.580665, 39.350057], [-84.592372, 39.350646], [-84.591557, 39.352072], [-84.590046, 39.353556], [-84.579146, 39.359856], [-84.57747, 39.361448], [-84.575202, 39.366048], [-84.573838, 39.367559], [-84.575391, 39.367549], [-84.575361, 39.368032], [-84.575928, 39.368043], [-84.575555, 39.374305], [-84.570277, 39.374331], [-84.569359, 39.376126], [-84.569469, 39.377219], [-84.569005, 39.377449], [-84.571071, 39.381273], [-84.568364, 39.3818], [-84.569209, 39.383477], [-84.570101, 39.383467], [-84.571811, 39.389546], [-84.571782, 39.391718], [-84.572432, 39.391831], [-84.572282, 39.394118], [-84.573083, 39.394252], [-84.573081, 39.393152], [-84.575845, 39.393157], [-84.575897, 39.391792], [-84.573071, 39.391819], [-84.573329, 39.3899], [-84.572786, 39.3898], [-84.572629, 39.38728], [-84.571939, 39.384313], [-84.57553, 39.384367], [-84.576576, 39.380901], [-84.575765, 39.377202], [-84.578961, 39.377096], [-84.579019, 39.380056], [-84.582408, 39.379966], [-84.582394, 39.381502], [-84.58288, 39.381449], [-84.583505, 39.382077], [-84.58867, 39.38261], [-84.588786, 39.386811], [-84.593027, 39.386829], [-84.592938, 39.381726], [-84.60037, 39.381671], [-84.600464, 39.391607], [-84.599073, 39.391618], [-84.59908, 39.39235], [-84.598116, 39.392346], [-84.598173, 39.394982], [-84.603501, 39.393311], [-84.604356, 39.39192], [-84.604215, 39.391619], [-84.604696, 39.391618], [-84.604687, 39.391141], [-84.606728, 39.390374], [-84.607647, 39.389555], [-84.607736, 39.387694], [-84.609015, 39.387812], [-84.608821, 39.37684], [-84.618175, 39.37677], [-84.618153, 39.375117], [-84.623654, 39.374697], [-84.624278, 39.376052], [-84.624739, 39.376047], [-84.624985, 39.37706], [-84.627688, 39.377062], [-84.627805, 39.383956]], [[-84.612923, 39.382108], [-84.6122, 39.38223], [-84.61296, 39.384122], [-84.612923, 39.382108]], [[-84.602246, 39.420629], [-84.601967, 39.420628], [-84.60195, 39.422471], [-84.601315, 39.422472], [-84.601199, 39.420626], [-84.599767, 39.420632], [-84.599764, 39.423425], [-84.602227, 39.423269], [-84.602246, 39.420629]], [[-84.598662, 39.420636], [-84.597458, 39.420638], [-84.597405, 39.422673], [-84.598614, 39.422658], [-84.598662, 39.420636]], [[-84.595662, 39.420649], [-84.594619, 39.420657], [-84.594635, 39.422666], [-84.595633, 39.42267], [-84.595662, 39.420649]], [[-84.593979, 39.420665], [-84.59301, 39.420676], [-84.593016, 39.421593], [-84.593481, 39.421557], [-84.593484, 39.421915], [-84.593991, 39.421904], [-84.593979, 39.420665]], [[-84.552128, 39.420125], [-84.551839, 39.420203], [-84.551975, 39.420473], [-84.552117, 39.420433], [-84.552128, 39.420125]], [[-84.538141, 39.398368], [-84.535233, 39.398181], [-84.53476, 39.402913], [-84.537891, 39.402282], [-84.538141, 39.398368]]]}}, {"type": "Feature", "properties": {"STATEFP": "39", "COUNTYFP": "017", "COUSUBFP": "68616", "COUSUBNS": "01085819", "GEOID": "3901768616", "GEOIDFQ": "0600000US3901768616", "NAME": "Ross", "NAMELSAD": "Ross township", "LSAD": "44", "CLASSFP": "T1", "MTFCC": "G4040", "FUNCSTAT": "A", "ALAND": 78219246, "AWATER": 549484, "INTPTLAT": "+39.3502179", "INTPTLON": "-084.6473017", "tract_count": 2, "total_population": 11937, "dist_to_park_miles": 1.0751606631936983, "LPA_CrudePrev": 23.6, "OBESITY_CrudePrev": 37.2, "MHLTH_CrudePrev": 16.55}, "geometry": {"type": "MultiPolygon", "coordinates": [[[[-84.61296, 39.384122], [-84.612625, 39.383288], [-84.6122, 39.38223], [-84.612923, 39.382108], [-84.61296, 39.384122]]], [[[-84.703675, 39.347879], [-84.703241, 39.349268], [-84.703315, 39.391151], [-84.659297, 39.391115], [-84.655297, 39.391481], [-84.652594, 39.391258], [-84.609068, 39.391529], [-84.609039, 39.390459], [-84.618407, 39.390063], [-84.618291, 39.386034], [-84.62043, 39.384075], [-84.627805, 39.383956], [-84.627688, 39.377062], [-84.624985, 39.37706], [-84.624739, 39.376047], [-84.624278, 39.376052], [-84.623531, 39.37467], [-84.618153, 39.375117], [-84.618175, 39.37677], [-84.608821, 39.37684], [-84.609015, 39.387812], [-84.607736, 39.387694], [-84.607647, 39.389555], [-84.606728, 39.390374], [-84.604687, 39.391141], [-84.604696, 39.391618], [-84.604215, 39.391619], [-84.604356, 39.39192], [-84.603501, 39.393311], [-84.598173, 39.394982], [-84.598116, 39.392346], [-84.59908, 39.39235], [-84.599073, 39.391618], [-84.600464, 39.391607], [-84.60037, 39.381671], [-84.592938, 39.381726], [-84.593027, 39.386829], [-84.589852, 39.38686], [-84.58984, 39.368328], [-84.590281, 39.362959], [-84.590319, 39.355881], [-84.590746, 39.354256], [-84.590546, 39.353856], [-84.593446, 39.348856], [-84.591846, 39.344156], [-84.592549, 39.341484], [-84.594702, 39.342446], [-84.595611, 39.343284], [-84.597617, 39.351349], [-84.59829, 39.352195], [-84.601277, 39.352317], [-84.604109, 39.351415], [-84.606692, 39.351867], [-84.607942, 39.351738], [-84.6116, 39.350771], [-84.612189, 39.35032], [-84.612685, 39.34729], [-84.61252, 39.344841], [-84.612106, 39.340771], [-84.611187, 39.338167], [-84.611512, 39.335256], [-84.611351, 39.333025], [-84.610037, 39.328614], [-84.610174, 39.32482], [-84.609214, 39.32194], [-84.607157, 39.319517], [-84.606635, 39.317912], [-84.607902, 39.317187], [-84.611564, 39.316851], [-84.613212, 39.317378], [-84.617312, 39.320297], [-84.618411, 39.320709], [-84.621045, 39.3208], [-84.625717, 39.319518], [-84.628843, 39.317663], [-84.630396, 39.31627], [-84.630561, 39.315384], [-84.629708, 39.314127], [-84.630191, 39.312624], [-84.630813, 39.312054], [-84.637291, 39.310247], [-84.639031, 39.309469], [-84.639825, 39.308832], [-84.641814, 39.305044], [-84.654347, 39.304756], [-84.70328, 39.304748], [-84.703332, 39.336763], [-84.703025, 39.343903], [-84.703675, 39.347879]]]]}}, {"type": "Feature", "properties": {"STATEFP": "39", "COUNTYFP": "017", "COUSUBFP": "25984", "COUSUBNS": "01085808", "GEOID": "3901725984", "GEOIDFQ": "0600000US3901725984", "NAME": "Fairfield", "NAMELSAD": "Fairfield township", "LSAD": "44", "CLASSFP": "T1", "MTFCC": "G4040", "FUNCSTAT": "A", "ALAND": 40863570, "AWATER": 748977, "INTPTLAT": "+39.3898462", "INTPTLON": "-084.5235675", "tract_count": 13, "total_population": 63825, "dist_to_park_miles": 0.8942000539903294, "LPA_CrudePrev": 27.784615384615385, "OBESITY_CrudePrev": 39.353846153846156, "MHLTH_CrudePrev": 16.876923076923077}, "geometry": {"type": "MultiPolygon", "coordinates": [[[[-84.53832, 39.39838], [-84.537891, 39.402282], [-84.53476, 39.402913], [-84.535233, 39.398181], [-84.53832, 39.39838]]], [[[-84.553225, 39.410396], [-84.551605, 39.413156], [-84.552725, 39.413596], [-84.550498, 39.415289], [-84.540457, 39.42495], [-84.539095, 39.424294], [-84.536705, 39.424196], [-84.533699, 39.425324], [-84.52659, 39.434441], [-84.524773, 39.435782], [-84.523723, 39.436116], [-84.520699, 39.436851], [-84.516726, 39.436945], [-84.512665, 39.436538], [-84.507755, 39.433533], [-84.504087, 39.43239], [-84.503657, 39.431888], [-84.503281, 39.428832], [-84.503688, 39.425518], [-84.500167, 39.422535], [-84.497113, 39.421373], [-84.494298, 39.421314], [-84.488744, 39.424957], [-84.483244, 39.427657], [-84.480282, 39.427968], [-84.477164, 39.429222], [-84.474544, 39.429657], [-84.478634, 39.374704], [-84.479948, 39.361973], [-84.480443, 39.347657], [-84.480766, 39.347218], [-84.488566, 39.35145], [-84.490778, 39.352182], [-84.491119, 39.355035], [-84.491804, 39.356402], [-84.491562, 39.362313], [-84.489685, 39.36268], [-84.489508, 39.36524], [-84.494479, 39.365466], [-84.494551, 39.364499], [-84.500693, 39.364706], [-84.500998, 39.361913], [-84.507779, 39.364174], [-84.507178, 39.365573], [-84.507574, 39.367837], [-84.507201, 39.369938], [-84.505983, 39.369879], [-84.507372, 39.376888], [-84.50741, 39.378654], [-84.521698, 39.379491], [-84.521796, 39.378568], [-84.523406, 39.378769], [-84.523564, 39.377188], [-84.526426, 39.377356], [-84.526223, 39.375844], [-84.526764, 39.37474], [-84.529654, 39.37668], [-84.530144, 39.37089], [-84.536752, 39.37231], [-84.536831, 39.371289], [-84.544974, 39.371454], [-84.545207, 39.373511], [-84.546186, 39.373614], [-84.546353, 39.376754], [-84.540619, 39.37638], [-84.540526, 39.377365], [-84.539897, 39.377332], [-84.539862, 39.377658], [-84.53697, 39.377507], [-84.536604, 39.380755], [-84.535929, 39.380725], [-84.536221, 39.381819], [-84.5357, 39.38321], [-84.533952, 39.383102], [-84.533724, 39.385289], [-84.532417, 39.385101], [-84.531669, 39.392248], [-84.534747, 39.392431], [-84.53504, 39.390519], [-84.535624, 39.390553], [-84.535445, 39.392478], [-84.535672, 39.39249], [-84.535836, 39.390565], [-84.539117, 39.390732], [-84.539039, 39.39157], [-84.538953, 39.392278], [-84.537286, 39.392656], [-84.532471, 39.392416], [-84.531485, 39.401958], [-84.53379, 39.402079], [-84.533694, 39.403234], [-84.529729, 39.404001], [-84.530011, 39.404933], [-84.529445, 39.405035], [-84.529862, 39.407881], [-84.53044, 39.407934], [-84.533225, 39.406152], [-84.53351, 39.406393], [-84.533292, 39.408504], [-84.534555, 39.409243], [-84.535309, 39.410826], [-84.535901, 39.411049], [-84.536656, 39.410936], [-84.540641, 39.40869], [-84.547946, 39.409156], [-84.551246, 39.410156], [-84.550964, 39.410579], [-84.552548, 39.41024], [-84.553225, 39.410396]]], [[[-84.605277, 39.317737], [-84.602359, 39.319303], [-84.599444, 39.316364], [-84.599501, 39.316127], [-84.603941, 39.316771], [-84.605277, 39.317737]]], [[[-84.60908, 39.31288], [-84.598566, 39.311342], [-84.598746, 39.308556], [-84.608746, 39.310156], [-84.608577, 39.311855], [-84.60908, 39.31288]]], [[[-84.612685, 39.34729], [-84.612189, 39.35032], [-84.6116, 39.350771], [-84.607942, 39.351738], [-84.606692, 39.351867], [-84.604109, 39.351415], [-84.601277, 39.352317], [-84.59829, 39.352195], [-84.597617, 39.351349], [-84.595611, 39.343284], [-84.594702, 39.342446], [-84.592549, 39.341484], [-84.592587, 39.34088], [-84.596766, 39.339515], [-84.597606, 39.324703], [-84.598403, 39.32378], [-84.599239, 39.323952], [-84.599512, 39.321987], [-84.600671, 39.320893], [-84.604768, 39.319793], [-84.606884, 39.318713], [-84.607157, 39.319517], [-84.609214, 39.32194], [-84.610174, 39.32482], [-84.610037, 39.328614], [-84.611446, 39.333671], [-84.611187, 39.338167], [-84.612106, 39.340771], [-84.612685, 39.34729]]], [[[-84.630992, 39.311942], [-84.630191, 39.312624], [-84.629708, 39.314127], [-84.630561, 39.315384], [-84.630396, 39.31627], [-84.629402, 39.315938], [-84.627567, 39.313674], [-84.62605, 39.314319], [-84.625411, 39.314203], [-84.621212, 39.314979], [-84.621299, 39.314229], [-84.621086, 39.314239], [-84.621034, 39.315034], [-84.616202, 39.315213], [-84.616358, 39.313749], [-84.610515, 39.313055], [-84.609792, 39.31223], [-84.609303, 39.312109], [-84.609221, 39.311281], [-84.609664, 39.31064], [-84.609338, 39.310256], [-84.616339, 39.311227], [-84.626746, 39.311956], [-84.630992, 39.311942]]]]}}, {"type": "Feature", "properties": {"STATEFP": "39", "COUNTYFP": "017", "COUSUBFP": "46340", "COUSUBNS": "01085813", "GEOID": "3901746340", "GEOIDFQ": "0600000US3901746340", "NAME": "Madison", "NAMELSAD": "Madison township", "LSAD": "44", "CLASSFP": "T1", "MTFCC": "G4040", "FUNCSTAT": "A", "ALAND": 91220413, "AWATER": 1417314, "INTPTLAT": "+39.5363244", "INTPTLON": "-084.4256754", "tract_count": 2, "total_population": 7906, "dist_to_park_miles": 0.5525213207706988, "LPA_CrudePrev": 28.6, "OBESITY_CrudePrev": 40.7, "MHLTH_CrudePrev": 18.35}, "geometry": {"type": "MultiPolygon", "coordinates": [[[[-84.452607, 39.486496], [-84.451741, 39.48744], [-84.451707, 39.489814], [-84.447195, 39.490501], [-84.446928, 39.491621], [-84.446061, 39.490021], [-84.45129, 39.487989], [-84.451535, 39.487722], [-84.451264, 39.487006], [-84.450935, 39.487014], [-84.450888, 39.486392], [-84.452607, 39.486496]]], [[[-84.464148, 39.462045], [-84.461829, 39.462016], [-84.461846, 39.46036], [-84.464114, 39.460493], [-84.464148, 39.462045]]], [[[-84.472037, 39.474775], [-84.467637, 39.476018], [-84.467721, 39.478569], [-84.463406, 39.478721], [-84.463296, 39.473558], [-84.466141, 39.473588], [-84.47062, 39.471645], [-84.471523, 39.4743], [-84.471914, 39.474176], [-84.472037, 39.474775]]], [[[-84.47655, 39.472532], [-84.474546, 39.473989], [-84.472357, 39.474683], [-84.472141, 39.474109], [-84.474286, 39.473342], [-84.475999, 39.472096], [-84.47655, 39.472532]]], [[[-84.477327, 39.471945], [-84.476734, 39.472395], [-84.476172, 39.471945], [-84.476984, 39.471165], [-84.476428, 39.470323], [-84.475113, 39.470616], [-84.474744, 39.470172], [-84.477239, 39.469112], [-84.477327, 39.471945]]], [[[-84.479213, 39.591024], [-84.474246, 39.590155], [-84.463146, 39.589956], [-84.365242, 39.589855], [-84.364594, 39.569296], [-84.364305, 39.54381], [-84.364736, 39.543843], [-84.366727, 39.545836], [-84.372508, 39.547346], [-84.375698, 39.544847], [-84.377484, 39.540047], [-84.380177, 39.539248], [-84.383967, 39.539849], [-84.389231, 39.537756], [-84.391543, 39.537457], [-84.396443, 39.537757], [-84.400643, 39.536757], [-84.406643, 39.536557], [-84.411143, 39.533057], [-84.412543, 39.528657], [-84.411743, 39.524457], [-84.412284, 39.521209], [-84.414025, 39.518392], [-84.41613, 39.513883], [-84.418033, 39.510976], [-84.417436, 39.50767], [-84.419743, 39.501157], [-84.423043, 39.497457], [-84.434203, 39.494222], [-84.439122, 39.488668], [-84.439058, 39.48689], [-84.439954, 39.48476], [-84.442106, 39.481767], [-84.44123, 39.479222], [-84.440253, 39.47821], [-84.438685, 39.477047], [-84.437219, 39.476354], [-84.43585, 39.476117], [-84.431816, 39.476572], [-84.427808, 39.477827], [-84.425751, 39.477531], [-84.425061, 39.476866], [-84.4252, 39.474413], [-84.433399, 39.47436], [-84.433477, 39.47205], [-84.431976, 39.471657], [-84.430538, 39.470744], [-84.429513, 39.469302], [-84.429181, 39.467636], [-84.42614, 39.467674], [-84.426975, 39.465877], [-84.4296, 39.462459], [-84.430332, 39.457577], [-84.432636, 39.452244], [-84.433918, 39.447109], [-84.434853, 39.445129], [-84.435543, 39.444357], [-84.436543, 39.443857], [-84.440376, 39.444726], [-84.442792, 39.444927], [-84.446427, 39.444158], [-84.448351, 39.442885], [-84.451734, 39.438318], [-84.452868, 39.437318], [-84.457433, 39.435596], [-84.471151, 39.431711], [-84.473594, 39.429912], [-84.475905, 39.429279], [-84.476145, 39.430115], [-84.476715, 39.456919], [-84.465114, 39.457158], [-84.465075, 39.454809], [-84.461793, 39.454729], [-84.461659, 39.450753], [-84.458432, 39.450784], [-84.455974, 39.44988], [-84.456136, 39.457501], [-84.448926, 39.457529], [-84.451737, 39.465279], [-84.44915, 39.465376], [-84.449148, 39.472885], [-84.4481, 39.472909], [-84.448197, 39.476507], [-84.446793, 39.476542], [-84.446801, 39.479289], [-84.446502, 39.478748], [-84.445355, 39.47877], [-84.445355, 39.479654], [-84.44409, 39.479654], [-84.443791, 39.481385], [-84.442802, 39.481606], [-84.442777, 39.482188], [-84.440771, 39.484749], [-84.440009, 39.486654], [-84.439864, 39.488182], [-84.439426, 39.488807], [-84.440661, 39.489548], [-84.43685, 39.492387], [-84.433651, 39.495824], [-84.448174, 39.495908], [-84.448139, 39.494664], [-84.452745, 39.494556], [-84.453646, 39.495455], [-84.45965, 39.495451], [-84.459701, 39.495748], [-84.460923, 39.495749], [-84.460787, 39.497462], [-84.461565, 39.500118], [-84.461177, 39.500147], [-84.461262, 39.500462], [-84.467323, 39.500035], [-84.467409, 39.500842], [-84.468879, 39.500837], [-84.46888, 39.499784], [-84.469837, 39.49974], [-84.469862, 39.498028], [-84.471636, 39.497978], [-84.471515, 39.498683], [-84.472287, 39.498647], [-84.472328, 39.50082], [-84.472638, 39.500817], [-84.472616, 39.500011], [-84.474251, 39.499989], [-84.474256, 39.495388], [-84.477624, 39.495339], [-84.478157, 39.541626], [-84.47908, 39.573844], [-84.478797, 39.578063], [-84.479213, 39.591024]]]]}}]}